MIS_Status,LoanNr_ChkDgt,Name,City,State,Zip,Bank,BankState,NAICS,ApprovalDate,ApprovalFY,Term,NoEmp,NewExist,CreateJob,RetainedJob,FranchiseCode,UrbanRural,RevLineCr,LowDoc,DisbursementDate,DisbursementGross,BalanceGross,GrAppv,SBA_Appv,New,RealEstate,Portion,Recession,daysterm,xx
P I F,1122875008,Patty Schwartzkopf Properties,MAMMOTH LAKES,CA,93546,BANK OF AMERICA NATL ASSOC,NC,531210,16413,2005,84,2,1,0,0,1,2,Y,N,16587,11000,0,11000,5500,0,0,0.5,0,2520,19107
P I F,4549584000,HAM DELLES COMPANY INCORPORATE,SANTA ROSA,CA,95401,UMPQUA BANK,OR,531312,15126,2001,300,7,1,0,7,1,1,0,N,15156,866800,0,866800,650100,0,1,0.75,0,9000,24156
P I F,7408914003,"MEGA CORPORATION GROUP,A CALIF",WALNUT,CA,91789,BANK OF AMERICA NATL ASSOC,NC,532230,16195,2004,84,3,1,0,3,1,1,Y,N,16222,77377,0,85000,42500,0,0,0.5,0,2520,18742
P I F,4579774010,STICKS-N-STONES ENTERPRISES,SAN CARLOS,CA,94070,"WACHOVIA SBA LENDING, INC.",CA,531312,15141,2001,300,10,1,0,0,1,1,N,N,15218,800100,0,810000,607500,0,1,0.75,0,9000,24218
P I F,6266254005,PREMIERE PROPERTIES INC,BURLINGAME,CA,94010,U.S. BANK NATIONAL ASSOCIATION,OH,531210,15818,2003,300,2,1,0,2,1,1,0,N,15917,1054200,0,1056200,766917,0,1,0.726109638,0,9000,24917
CHGOFF,2735566002,D BOOKER ENTERPRISES INC,SAN LUIS OBISPO,CA,93401,JPMORGAN CHASE BANK NATL ASSOC,IL,531210,17254,2007,46,1,1,1,1,1,2,Y,N,17256,98180,0,50000,25000,0,0,0.5,0,1380,18636
P I F,7313324000,EXECUTIVE CAPITAL FINANCE,BELL GARDENS,CA,90201,BANCO POPULAR NORTH AMERICA,NY,531210,16161,2004,294,3,1,3,3,1,1,0,N,16191,270000,0,270000,202500,0,1,0.75,0,8820,25011
CHGOFF,2432396002,JEANETTE GARCIA & EDELMIRA TOR,MADERA,CA,93638,EH NATIONAL BANK,CA,531210,17066,2006,289,5,1,2,5,68905,1,0,N,17105,1480000,0,1493000,1119750,0,1,0.75,0,8670,25775
P I F,3949994010,ATV VIDEO CENTER ROCKLIN,ROCKLIN,CA,95765,"CITIBANK, N.A.",CA,532490,14868,2000,60,5,1,0,5,1,1,Y,N,14944,64270,0,50000,25000,0,0,0.5,0,1800,16744
P I F,6476574005,AMID E SAREMI,THOUSAND OAKS,CA,91360,STEARNS BK NATL ASSOC,MN,531120,15895,2003,120,5,1,5,5,1,1,0,N,15917,200000,0,200000,100000,0,0,0.5,0,3600,19517
P I F,5618804004,PREMIERE STUDIO RENTALS,SAN FERNANDO,CA,91340,FIRST PRIVATE BANK & TRUST,CA,532111,15567,2002,300,12,1,0,12,1,1,0,N,15644,600000,0,600000,450000,0,1,0.75,0,9000,24644
P I F,4867084009,REMAX LTD,NORTHRIDGE,CA,91324,EAST WEST BANK,CA,531210,15215,2001,84,2,1,0,0,1,1,N,N,15309,201000,0,201000,150750,0,0,0.75,1,2520,17829
P I F,3606924009,PRUDENTIAL CALIFORNIA REALTY,ORANGE,CA,92865,SOUTHLAND ECONOMIC DEVEL CORP,CA,531210,14669,2000,240,3,1,3,3,67219,1,N,N,14775,723000,0,750000,750000,0,1,1,0,7200,21975
P I F,2880246007,GOING IN STYLE LIMOUSINE,CAPISTRANO BEACH,CA,92624,"CITIBANK, N.A.",SD,532111,17350,2007,60,2,1,0,2,1,1,0,N,17378,25000,0,25000,12500,0,0,0.5,0,1800,19178
P I F,2812105002,"JR Lighting, Inc.",Burbank,CA,91504,COMMUNITY BANK,CA,532310,17484,2008,84,5,2,0,5,0,1,Y,N,17897,150000,0,150000,75000,1,0,0.5,0,2520,20417
P I F,1207715005,Lee & Jackson Financial Servic,CAMARILLO,CA,93010,BANK OF AMERICA NATL ASSOC,NC,531210,16491,2005,84,5,1,0,5,1,1,Y,N,16526,67597,0,50000,25000,0,0,0.5,0,2520,19046
CHGOFF,1496985000,Deborah Monteleone,AUBURN,CA,95603,U.S. BANK NATIONAL ASSOCIATION,OH,531390,16722,2006,39,1,2,0,1,0,1,Y,N,16740,62267,0,24000,12000,1,0,0.5,1,1170,17910
P I F,7465724001,THE MORTGAGE NETWORK,SAN JOSE,CA,95128,BANK OF THE WEST,CA,531210,16216,2004,300,10,1,0,10,1,1,0,N,16252,567000,0,567000,425250,0,1,0.75,0,9000,25252
P I F,8353253006,TURN-KEY PROPERTY MANAGEMENT,PASO ROBLES,CA,93446,"RABOBANK, NATIONAL ASSOCIATION",CA,531110,12922,1995,84,1,1,0,0,1,0,N,Y,12995,63000,0,63000,56700,0,0,0.9,0,2520,15515
P I F,3232176006,ZAHAVA GROUP INC,SAN DIEGO,CA,92154,CDC SMALL BUS. FINAN CORP,CA,531190,17644,2008,240,20,1,10,20,1,1,0,N,17967,1682000,0,1682000,1682000,0,1,1,0,7200,25167
P I F,5657524006,FIRST EXECUTIVE MORTGAGE,CLAREMONT,CA,91711,BANK OF AMERICA NATL ASSOC,NC,531210,15582,2002,84,8,1,0,8,1,1,Y,N,15613,50000,0,50000,25000,0,0,0.5,0,2520,18133
CHGOFF,1669295004,ROBERT R GONZAGA DBA ASSIST2SE,PANORAMA CITY,CA,91402,BANK OF AMERICA NATL ASSOC,NC,531210,16849,2006,50,3,2,2,3,0,1,Y,N,16860,60500,0,40500,20250,1,0,0.5,0,1500,18360
CHGOFF,2175075002,J.K.H. Enterprises.,LA JOLLA,CA,92037,U.S. BANK NATIONAL ASSOCIATION,OH,531210,17148,2007,84,1,2,0,1,0,1,Y,N,17378,50000,0,50000,25000,1,0,0.5,0,2520,19898
P I F,8990214004,RAUL BARETE,COVINA,CA,91723,CDC SMALL BUS. FINAN CORP,CA,531210,16635,2005,240,2,1,2,0,1,1,0,N,16756,228000,0,228000,228000,0,1,1,0,7200,23956
CHGOFF,3250256010,SOUTHERN CALIFORNIA HOME LOAN,WHITTIER,CA,90605,COMMERCEWEST BANK,CA,531210,17661,2008,46,7,1,2,2,1,1,Y,N,17713,200000,0,100000,50000,0,0,0.5,0,1380,19093
P I F,8166514002,ACTION ENTERPRISES,CAMERON PARK,CA,95682,UMPQUA BANK,OR,532490,16398,2005,84,1,1,0,1,1,2,0,N,16436,175000,0,175000,131250,0,0,0.75,0,2520,18956
P I F,1366035010,VMD ROYAL REAL ESTATE CO.,MORENO VALLEY,CA,92553,BANK OF AMERICA NATL ASSOC,NC,531210,16624,2005,36,5,1,0,5,0,1,N,N,16648,20000,0,20000,10000,0,0,0.5,1,1080,17728
P I F,8132923002,"MOVIE MOVERS,ET AL",VAN NUYS,CA,91405,"CITIBANK, N.A.",CA,532120,12843,1995,120,25,1,0,0,1,0,,N,12903,700000,0,700000,595000,0,0,0.85,0,3600,16503
P I F,4358364001,DELAHOOKE APPRAISAL COMPANY,ARCADE,CA,91006,CALIFORNIA STATEWIDE CERT. DEV,CA,531210,15041,2001,240,2,1,3,0,1,1,0,N,15139,181000,0,181000,181000,0,1,1,0,7200,22339
P I F,2741786005,DANNY THOMAS PARTY RENTALS LLC,SUNNYVALE,CA,94087,MORTGAGE CAP. DEVEL CORP,CA,532310,17259,2007,240,3,1,2,0,1,1,0,N,17358,1093000,0,1093000,1093000,0,1,1,0,7200,24558
CHGOFF,7996184004,BLOSSOM VALLEY AVIATION LLC,EL CAJON,CA,92021,WELLS FARGO BANK NATL ASSOC,CA,532411,16370,2005,36,1,1,0,1,1,1,Y,N,16405,45300,0,45000,22500,0,0,0.5,0,1080,17485
CHGOFF,2206206004,CALCOAST ESCROW INC,SAN DIEGO,CA,92108,WELLS FARGO BANK NATL ASSOC,SD,531390,16987,2006,32,4,1,1,5,1,1,Y,N,17013,77538,0,35000,17500,0,0,0.5,1,960,17973
CHGOFF,6348294010,VACATION PROPERTY MANAGEMENT,TRUCKEE,CA,96161,COMERICA BANK,CA,531311,15848,2003,72,8,1,0,0,1,2,N,N,15886,484000,0,484000,363000,0,0,0.75,1,2160,18046
P I F,7596344005,"RECTOR EQUIPMENT RENTALS, INC.",EL CAJON,CA,92020,BANK OF THE WEST,UT,532412,16261,2004,120,11,1,0,0,1,1,N,N,16375,463500,0,463500,347625,0,0,0.75,0,3600,19975
P I F,6090094000,BILL DUNN INC,SAN DIEGO,CA,92116,"CITIBANK, N.A.",FL,531311,15746,2003,60,1,1,0,1,1,1,Y,N,16130,25000,0,25000,12500,0,0,0.5,1,1800,17930
CHGOFF,4472593008,BIG D'S VIDEO,ATWATER,CA,95301,WESTAMERICA BANK,CA,532230,11472,1991,138,3,1,0,0,1,0,N,N,11534,89000,0,89000,80100,0,0,0.9,0,4140,15674
CHGOFF,6449754005,ENDELEDGE VENTURES,BEVERLY HILLS,CA,90211,BBCN BANK,CA,531311,15883,2003,61,1,1,2,1,1,0,0,N,15886,5000,0,5000,4250,0,0,0.85,1,1830,17716
CHGOFF,2182425009,"London Real Estate & Loan, Inc",OAKLAND,CA,94607,U.S. BANK NATIONAL ASSOCIATION,OH,531390,17153,2007,48,3,1,0,3,0,1,Y,N,17166,38876,0,20000,10000,0,0,0.5,0,1440,18606
P I F,9191983003,"LASER DISCOVERY, INC.",SAN MATEO,CA,94403,BANK OF AMERICA CALIFORNIA N.A,CA,532230,13251,1996,84,30,1,0,0,1,0,0,N,13665,200000,0,200000,150000,0,0,0.75,0,2520,16185
P I F,9847594004,WAITE REAL ESTATE GROUP INC,BONITA,CA,91902,JPMORGAN CHASE BANK NATL ASSOC,NV,531210,16834,2006,84,3,1,0,3,1,2,Y,N,16860,92502,0,30000,15000,0,0,0.5,0,2520,19380
P I F,8575204004,"LANGCO, JEFFREY A. LANGLOIS &S",ETIWANDA,CA,91739,PACIFIC WESTERN BANK,CA,532490,16471,2005,84,1,2,0,0,1,1,0,Y,16526,50000,0,50000,42500,1,0,0.85,0,2520,19046
P I F,7496974009,"ALEXIS LIMOUSINE & SEDAN SVC,I",HUNTINGTON BEACH,CA,92648,AURORA BANK FSB,CO,531210,16226,2004,300,25,1,0,25,1,1,0,N,16252,539100,0,539100,404325,0,1,0.75,0,9000,25252
P I F,5263794003,BONNERS EQUIPMENT RENTALS,TUJUNGA,CA,91042,U.S. BANK NATIONAL ASSOCIATION,OH,532411,15407,2002,300,6,1,0,6,1,1,0,N,15521,574000,0,574000,430500,0,1,0.75,0,9000,24521
CHGOFF,2860975010,"STONE COLD PROPERTIES, LLC",LOS ANGELES,CA,90043,CAPITAL ONE BK (USA) NATL ASSO,VA,531312,17513,2008,69,3,1,2,3,0,1,Y,N,17562,101259,0,50000,25000,0,0,0.5,0,2070,19632
CHGOFF,2716236002,MICHAEL A DOMINO LLC,LONG BEACH,CA,90807,JPMORGAN CHASE BANK NATL ASSOC,IL,531312,17241,2007,35,1,1,0,1,1,2,Y,N,17256,65722,0,25000,12500,0,0,0.5,0,1050,18306
P I F,3246744009,"PACIFIC EXECUTIVES, INC.",RIVERSIDE,CA,92504,CDC SMALL BUS. FINAN CORP,CA,531110,14529,2000,240,102,1,23,102,1,1,N,N,14992,771000,0,771000,771000,0,1,1,0,7200,22192
P I F,5250254006,ALLAN K RUEGSEGGER & MERRY ANN,VERNON,CA,90058,CALIFORNIA STATEWIDE CERT. DEV,CA,532220,15403,2002,240,16,1,5,0,1,1,0,N,15566,399000,0,399000,399000,0,1,1,0,7200,22766
CHGOFF,9142564006,AFFORDABLE RENT TO OWN INC,SAN BERNARDINO,CA,92404,COMMERCEWEST BANK,CA,532310,16709,2005,91,4,1,4,4,1,1,0,N,16740,300000,0,300000,225000,0,0,0.75,0,2730,19470
P I F,2143805002,JM Karbowski & Co,WEST SACRAMENTO,CA,95691,U.S. BANK NATIONAL ASSOCIATION,OH,531210,17132,2007,60,1,2,1,2,0,1,N,N,17166,32100,0,32100,16050,1,0,0.5,0,1800,18966
CHGOFF,2750605003,RUPERTO ROSAL AGATON  DBA  Dyn,CITY OF INDUSTRY,CA,91744,CAPITAL ONE BK (USA) NATL ASSO,VA,531210,17449,2008,53,2,1,1,2,0,1,Y,N,17470,68791,0,25000,12500,0,0,0.5,0,1590,19060
CHGOFF,2781796002,VALUATION STRATEGIES INC,AGUANGA,CA,92592,BANCO POPULAR NORTH AMERICA,NY,531320,17289,2007,9,2,1,2,2,1,1,Y,N,17409,92803,0,50000,25000,0,0,0.5,1,270,17679
CHGOFF,6444554005,CRANIAL THERAPIES INC,NORTH HOLLYWOOD,CA,90068,WELLS FARGO BANK NATL ASSOC,SD,532291,15882,2003,28,4,1,3,4,1,1,0,N,15917,150000,0,150000,112500,0,0,0.75,0,840,16757
P I F,1848715005,Dower Corporation,LOS ALAMITOS,CA,90720,U.S. BANK NATIONAL ASSOCIATION,OH,531390,16952,2006,84,2,1,0,2,0,1,Y,N,16982,164554,0,50000,25000,0,0,0.5,0,2520,19502
P I F,2658436004,LISTINGTOSOLD.COM,ANAHEIM,CA,92805,MUFG UNION BANK NATL ASSOC,CA,531210,17199,2007,84,1,2,0,1,1,1,Y,N,17225,17487,0,10000,5000,1,0,0.5,0,2520,19745
P I F,7814974005,"SOLARI ENTERPRISE, INC.",ORANGE,CA,92867,SOUTHLAND ECONOMIC DEVEL CORP,CA,531311,16331,2004,240,8,1,8,0,1,1,N,N,16420,505000,0,505000,505000,0,1,1,0,7200,23620
P I F,9519734010,PEDRO REYES,SAN RAFAEL,CA,94901,MUFG UNION BANK NATL ASSOC,CA,531210,16797,2006,180,21,1,0,21,1,1,0,N,16832,150000,0,150000,127500,0,0,0.85,0,5400,22232
P I F,6378214009,UNITED KLIMENKO REALTY,WHITTIER,CA,90601,"WACHOVIA SBA LENDING, INC.",CA,531210,15861,2003,300,70,1,13,57,1,1,0,N,15917,765000,0,765000,573750,0,1,0.75,0,9000,24917
P I F,3074504010,WILDCAT EQUIPMENT COMPANY,DIXON,CA,95620,FIRST BANK,CA,532412,14445,1999,60,1,2,0,0,1,1,0,Y,14517,78800,0,86400,69120,1,0,0.8,0,1800,16317
CHGOFF,2840485008,Salguero Management,LOS ANGELES,CA,90018,BBCN BANK,CA,531311,17500,2008,59,1,1,0,0,0,1,N,N,17531,25000,0,25000,21250,0,0,0.85,0,1770,19301
P I F,2348216002,NEXT GENERATION REALTY SILICON,SAN JOSE,CA,95138,"CAPITAL ACCESS GROUP, INC.",CA,531210,17035,2006,240,7,1,4,0,1,1,0,N,17267,724000,0,724000,724000,0,1,1,0,7200,24467
CHGOFF,4033125008,Shanahan Enterprises,Rancho Murieta,CA,95683,SAFE CU,CA,531210,18368,2010,59,2,1,5,2,0,1,Y,N,18368,69845,0,35000,17500,0,0,0.5,0,1770,20138
P I F,9319564002,EVERGREEN REALTY,IRVINE,CA,92618,WELLS FARGO BANK NATL ASSOC,SD,531210,16763,2006,60,12,1,0,12,1,1,Y,N,16801,353444,0,172500,86250,0,0,0.5,0,1800,18601
P I F,3994224001,CONTINENTAL REAL ESTATE ALUM R,SAN JOSE,CA,95115,WELLS FARGO BANK NATL ASSOC,CA,531210,14888,2001,300,1,1,0,1,1,1,0,N,14975,333000,0,333000,249750,0,1,0.75,0,9000,23975
CHGOFF,2373455010,"INNOVATIVE REAL ESTATE GROUP,",WOODLAND HILLS,CA,91367,CAPITAL ONE NATL ASSOC,VA,531210,17260,2007,68,20,1,50,20,0,1,N,N,17286,100000,0,100000,50000,0,0,0.5,0,2040,19326
CHGOFF,6748704001,ALL WEST INC,MARYSVILLE,CA,95901,COMMUNITY W. BANK NATL ASSOC,CA,531320,15978,2003,300,4,1,0,4,1,1,0,N,16009,110000,0,110000,93500,0,1,0.85,0,9000,25009
CHGOFF,8774733006,TOP HAT VIDEO,NORTH HIGHLANDS,CA,95660,WELLS FARGO BANK NATL ASSOC,SD,532230,13093,1996,66,4,2,0,0,1,0,N,Y,13179,37000,0,37000,29600,1,0,0.8,0,1980,15159
P I F,3713265003,Mycom Corporation,San Jose,CA,95131,WELLS FARGO BANK NATL ASSOC,SD,531120,18196,2010,300,2,2,2,2,0,1,N,N,18196,446800,0,446800,402120,1,1,0.9,0,9000,27196
P I F,7277444003,MADE IN THE SHADE TENT RENTALS,VACAVILLE,CA,95696,FIRST NORTHERN BANK OF DIXON,CA,532292,16148,2004,96,19,1,0,0,1,1,0,Y,16191,150000,0,150000,127500,0,0,0.85,0,2880,19071
P I F,4416943001,"DALCO TRUCK RENTALS, INC.",SAN LEANDRO,CA,94577,LOANS FROM OLD CLOSED LENDERS,DC,532120,11410,1991,84,9,1,0,0,1,0,N,N,11442,369000,0,369000,295200,0,0,0.8,0,2520,13962
P I F,3371033000,JIMBO'S VIDEO #2,COMPTON,CA,90222,HANMI BANK,CA,532230,10611,1989,300,1,1,0,0,0,0,N,N,10623,93000,0,93000,83700,0,1,0.9,0,9000,19623
P I F,3334525009,VIDEO WORLD,PACIFICA,CA,94044,BBCN BANK,CA,532230,17962,2009,84,2,1,1,2,0,1,N,N,17987,25000,0,25000,21250,0,0,0.85,0,2520,20507
CHGOFF,2752096005,PREMIER CAPITAL BUILDERS INC,CHULA VISTA,CA,91910,JPMORGAN CHASE BANK NATL ASSOC,IL,531390,17267,2007,68,1,1,0,1,1,1,Y,N,17286,61427,0,30000,15000,0,0,0.5,0,2040,19326
CHGOFF,8544284003,SAN DIEGO SHORES REAL ESTATE,SAN DIEGO,CA,92101,CALIFORNIA BANK & TRUST,CA,531210,16464,2005,120,8,1,3,11,1,1,0,N,16495,218300,0,218300,163725,0,0,0.75,0,3600,20095
CHGOFF,5276944010,PETER J GIORDANO,OROVILLE,CA,95966,BANK OF AMERICA NATL ASSOC,NC,532310,15414,2002,36,1,1,0,1,1,1,0,N,15430,30000,0,30000,15000,0,0,0.5,0,1080,16510
P I F,6090264003,SIMPSON FORK LIFT,WEST SACRAMENTO,CA,95660,U.S. BANK NATIONAL ASSOCIATION,OH,532490,15746,2003,120,1,1,1,1,1,1,T,N,15795,191584,0,35000,17500,0,0,0.5,0,3600,19395
P I F,5167854008,LEE UTTERBACH INC.,SAN FRANCISCO,CA,94103,MORTGAGE CAP. DEVEL CORP,CA,532210,15362,2002,240,6,1,0,6,1,1,N,N,15440,331000,0,331000,331000,0,1,1,0,7200,22640
P I F,5977044003,WESTERN/135 LLC,GARDENA,CA,90249,NATIONAL BANK OF CALIFORNIA,CA,531390,15701,2003,300,3,2,0,3,1,1,0,N,15795,100000,0,100000,75000,1,1,0.75,0,9000,24795
P I F,4729183010,"AZTEC BUSINESS MACHINES, INC.",SAN DIEGO,CA,92115,U.S. BANK NATIONAL ASSOCIATION,CA,532420,11742,1992,276,25,1,0,0,1,0,N,N,11808,97500,0,97500,82875,0,1,0.85,0,8280,20088
CHGOFF,2365985005,"Ayala Realty & Investments, In",SAN FRANCISCO,CA,94110,BANK OF AMERICA NATL ASSOC,NC,531210,17255,2007,32,2,1,0,2,0,1,Y,N,17286,49700,0,25000,12500,0,0,0.5,0,960,18246
P I F,2628095001,CARMEN CARR,TRUCKEE,CA,96161,U.S. BANK NATIONAL ASSOCIATION,OH,531210,17387,2007,84,1,1,0,1,0,2,Y,N,17409,161873,0,30000,15000,0,0,0.5,0,2520,19929
P I F,9059193005,PARADISE VIDEO,PARADISE,CA,95969,CALIFORNIA STATEWIDE CERT. DEV,CA,532230,13212,1996,240,6,1,2,4,1,0,N,N,13494,116000,0,157000,157000,0,1,1,0,7200,20694
CHGOFF,6422974001,KOREA VIDEO,SAN DIEGO,CA,92129,WELLS FARGO BANK NATL ASSOC,SD,532230,15875,2003,4,1,1,2,1,1,1,Y,N,15917,45000,0,35000,17500,0,0,0.5,0,120,16037
P I F,1469696008,HANSON & FITCH INC,SALINAS,CA,93905,WELLS FARGO BANK NATL ASSOC,CA,532490,16884,2006,120,6,1,0,6,1,1,0,N,16952,825000,0,825000,618750,0,0,0.75,0,3600,20552
CHGOFF,3503115006,RAFAEL MKRTCHYAN,NORTH HOLLYWOOD,CA,91606,"SUPERIOR FINANCIAL GROUP, LLC",CA,532230,18085,2009,102,2,1,1,2,0,1,N,N,18109,10000,0,10000,9000,0,0,0.9,0,3060,21169
CHGOFF,2737335000,Miguel Castllanos Real Estate,PALMDALE,CA,93551,BANK OF AMERICA NATL ASSOC,NC,531390,17441,2008,37,1,1,0,1,0,1,Y,N,17470,14805,0,10000,5000,0,0,0.5,0,1110,18580
CHGOFF,2251455001,Cj Bennett Investments Llc,THOUSAND OAKS,CA,91360,BBCN BANK,CA,532490,17197,2007,69,1,1,3,1,0,1,N,N,17286,10000,0,10000,8500,0,0,0.85,0,2070,19356
CHGOFF,2560966001,ICONO FINANCIAL SERVICES INC,SAN DIEGO,CA,92123,MUFG UNION BANK NATL ASSOC,CA,531320,17139,2007,32,6,1,0,6,1,1,Y,N,17166,139952,0,50000,25000,0,0,0.5,0,960,18126
CHGOFF,1331095006,SIRCLE SOCCER SPORTS L.L.C.,SYLMAR,CA,91342,CAPITAL ONE NATL ASSOC,VA,532292,16596,2005,58,1,1,0,1,1,1,N,N,16648,35000,0,35000,17500,0,0,0.5,0,1740,18388
CHGOFF,2859255009,Tasco Funding,Berkeley,CA,94703,UMPQUA BANK,OR,531311,17512,2008,110,1,1,0,1,0,1,N,N,17531,25000,0,25000,21250,0,0,0.85,0,3300,20831
P I F,2051944005,MOVIES & MORE,LOS ANGELES,CA,90066,BANK OF AMERICA CALIFORNIA N.A,CA,532230,14011,1998,84,6,1,0,0,1,0,0,N,14030,27000,0,27000,13500,0,0,0.5,0,2520,16550
P I F,6239974003,HARVEY'S TRENCH SHORING INC.,FREMONT,CA,94538,CENTRAL VALLEY COMMUNITY BANK,CA,532412,15805,2003,120,4,2,0,0,1,1,N,N,15856,300000,0,300000,225000,1,0,0.75,0,3600,19456
CHGOFF,4010084010,EMPIRE HOME MEDICAL INC,GRASS VALLEY,CA,95945,COMERICA BANK,TX,532291,14900,2001,106,14,1,2,16,1,1,0,N,14944,400000,0,400000,300000,0,0,0.75,0,3180,18124
P I F,7560924000,UBENETTE ASSOCIATES,CARSON,CA,90746,BANK OF AMERICA NATL ASSOC,NC,532490,16247,2004,84,2,1,0,2,1,1,Y,N,16405,50000,0,50000,25000,0,0,0.5,0,2520,18925
CHGOFF,1216465004,WEST COAST APPRAISAL SERVICE,AGOURA HILLS,CA,91301,BANK OF AMERICA NATL ASSOC,NC,531320,16498,2005,47,7,1,0,7,1,1,N,N,16556,100000,0,100000,50000,0,0,0.5,1,1410,17966
P I F,1118365005,Premnarayan R. Soni dba Ba Ba,APPLE VALLEY,CA,92307,BANK OF AMERICA NATL ASSOC,NC,531311,16408,2005,84,3,1,0,0,1,1,Y,N,16436,50000,0,50000,25000,0,0,0.5,0,2520,18956
CHGOFF,2861455009,Help U Sell Glasgow Realty,LOS ANGELES,CA,90008,BBCN BANK,CA,531210,17513,2008,39,1,1,1,1,0,1,N,N,17531,15000,0,15000,12750,0,0,0.85,0,1170,18701
P I F,5596844003,SOUNDTRONICS WIRELESS,BURBANK,CA,91506,WELLS FARGO BANK NATL ASSOC,CA,532420,15559,2002,36,2,1,1,1,1,1,0,N,15583,150000,0,150000,75000,0,0,0.5,0,1080,16663
P I F,9082604002,"Paramount Finacials, LLC",IRVINE,CA,92618,LANDMARK CERT. DEVEL CORP,CA,531210,16681,2005,240,11,1,9,0,1,1,0,N,16903,433000,0,433000,433000,0,1,1,0,7200,24103
P I F,5485414000,MAUMER INC.,SAN FRANCISCO,CA,94114,"CAPITAL ACCESS GROUP, INC.",CA,532230,15515,2002,240,8,1,0,8,1,1,N,N,15594,1071000,0,1071000,1071000,0,1,1,0,7200,22794
P I F,2343654003,MOVIES & MORE,LOS ANGELES,CA,90066,WILSHIRE BANK,CA,532230,14144,1998,120,2,1,0,0,1,0,0,N,14152,100000,0,100000,80000,0,0,0.8,1,3600,17752
CHGOFF,2716535002,American World Escrow Corporat,RANCHO CUCAMONGA,CA,91730,BANK OF AMERICA NATL ASSOC,NC,531390,17433,2007,66,8,1,8,8,0,1,N,N,17439,100000,0,100000,50000,0,0,0.5,0,1980,19419
CHGOFF,7414164010,PETER S SEWELL,LA MESA,CA,91942,BANK OF AMERICA NATL ASSOC,NC,531210,16197,2004,56,1,1,0,1,1,1,T,N,16252,25000,0,25000,12500,0,0,0.5,1,1680,17932
CHGOFF,6427924007,AUDIO RENT INC,NORTH HOLLYWOOD,CA,91601,PACIFIC WESTERN BANK,CA,532490,15876,2003,300,12,1,2,12,1,1,0,N,15917,700000,0,700000,525000,0,1,0.75,0,9000,24917
CHGOFF,2968976008,SALAZAR REAL ESTATE,SUNNYVALE,CA,94087,JPMORGAN CHASE BANK NATL ASSOC,IL,531110,17413,2007,51,1,1,2,3,1,1,Y,N,17500,60407,0,25000,12500,0,0,0.5,0,1530,19030
P I F,6992584004,VIDEO KOREA,LOS ANGELES,CA,90005,HANMI BANK,CA,532230,16043,2004,12,9,1,0,9,1,1,T,N,16070,100000,0,100000,50000,0,0,0.5,0,360,16430
P I F,1872315003,Provident Mortgage Solutions,PACIFICA,CA,94044,U.S. BANK NATIONAL ASSOCIATION,OH,531390,16966,2006,84,1,1,0,1,0,1,Y,N,17044,10000,0,10000,5000,0,0,0.5,0,2520,19564
P I F,1390566001,Auchante Inc,BELL GARDENS,CA,90201,BANCO POPULAR NORTH AMERICA,NY,531210,16877,2006,73,31,1,69,31,69149,1,Y,N,17225,150000,0,150000,75000,0,0,0.5,0,2190,19415
CHGOFF,1566546000,UNITED HOME LOANS,NEWPORT BEACH,CA,92663,WELLS FARGO BANK NATL ASSOC,SD,531210,16891,2006,48,1,1,1,2,1,1,Y,N,17317,60000,0,30000,15000,0,0,0.5,0,1440,18757
P I F,7109384010,SUNNYSIDE RENTALS,FRESNO,CA,93727,WESTAMERICA BANK,CA,532490,16090,2004,205,3,1,1,3,1,1,0,N,16161,150000,0,150000,127500,0,0,0.85,0,6150,22311
P I F,4352465002,"The Pro Group V Suites, LLC",Fresno,CA,93726,SUNCREST BANK,CA,531190,18571,2011,120,3,2,0,3,0,1,N,N,18597,90000,0,90000,81000,1,0,0.9,0,3600,22197
P I F,1907795008,"First Home, Inc.",SAN FRANCISCO,CA,94129,BANK OF AMERICA NATL ASSOC,NC,531210,16988,2006,42,13,1,0,13,0,1,T,N,17044,64000,0,35000,17500,0,0,0.5,0,1260,18304
P I F,1536045006,GPIMD Inc,LOS ANGELES,CA,90010,U.S. BANK NATIONAL ASSOCIATION,OH,531110,16749,2006,8,4,1,0,4,0,1,Y,N,16770,209210,0,50000,25000,0,0,0.5,0,240,17010
CHGOFF,8421214004,VIDEO BOX,DIAMOND BAR,CA,91765,BBCN BANK,CA,532230,16443,2005,8,4,1,4,4,1,1,0,N,16526,100000,0,100000,50000,0,0,0.5,0,240,16766
P I F,7543314003,SHOW GEAR PRODUCTIONS INC,RANCHO SANTA MARGARITA,CA,92685,OPUS BANK,CA,532210,16244,2004,300,11,1,0,11,1,1,0,N,16283,144000,0,144000,122400,0,1,0.85,0,9000,25283
CHGOFF,2651556002,ULTIMATE REAL ESTATE INVESTMEN,DOWNEY,CA,90241,JPMORGAN CHASE BANK NATL ASSOC,NV,531210,17196,2007,84,4,1,2,4,1,2,Y,N,17378,55077,0,50000,25000,0,0,0.5,0,2520,19898
P I F,2558545009,M'Lach Enterprises LLC,CARMEL,CA,93923,BANK OF AMERICA NATL ASSOC,NC,531390,17354,2007,84,2,2,1,3,0,1,Y,N,17409,25500,0,15000,7500,1,0,0.5,0,2520,19929
P I F,3371065001,"PJBE NLRP, LLC",ENCINITAS,CA,92024,PLAZA BANK,CA,531210,17995,2009,300,1,1,1,1,0,1,N,N,18048,1665000,0,1665000,1498500,0,1,0.9,0,9000,27048
CHGOFF,1559255002,CHARLES A. HARMON DBA ADVANCED,SAN JOSE,CA,95123,CAPITAL ONE NATL ASSOC,VA,531210,16770,2006,55,1,1,2,1,0,1,N,N,16801,25000,0,25000,12500,0,0,0.5,0,1650,18451
CHGOFF,4068395008,"IAM-US, Inc.",VALLEY VILLAGE,CA,91607,JPMORGAN CHASE BANK NATL ASSOC,IL,531312,18389,2010,84,14,2,20,34,0,1,Y,N,18389,50000,0,50000,25000,1,0,0.5,0,2520,20909
P I F,6696444003,GO KEY WEST,SAN DIEGO,CA,92124,BANK OF AMERICA NATL ASSOC,NC,531311,15965,2003,84,1,1,1,1,1,1,Y,N,16130,50000,0,50000,25000,0,0,0.5,0,2520,18650
CHGOFF,1746135007,"EUNIQUESTAR, INC. DBA BW VENTU",GARDENA,CA,90249,CAPITAL ONE NATL ASSOC,VA,531390,16894,2006,64,5,1,3,5,0,1,N,N,16921,25000,0,25000,12500,0,0,0.5,0,1920,18841
CHGOFF,2432455000,Strickly's Inc.,ONTARIO,CA,91764,BANK OF AMERICA NATL ASSOC,NC,531210,17289,2007,55,9,1,0,9,0,1,T,N,17317,67328,0,50000,25000,0,0,0.5,0,1650,18967
P I F,2456356006,EL CHEAPO LIFTS,PICO RIVERA,CA,90660,BANC OF CALIFORNIA NATL ASSOC,CA,532310,17078,2007,120,8,1,0,8,1,1,0,N,17135,300000,0,300000,225000,0,0,0.75,0,3600,20735
CHGOFF,1292166006,CYNTHIA THUY VU,CONCORD,CA,94519,EAST WEST BANK,CA,531210,16868,2006,268,5,1,3,8,1,1,0,N,16891,394200,0,394200,295650,0,1,0.75,0,8040,24931
CHGOFF,1516595010,"Trinity Financial Group, Inc.",ESCONDIDO,CA,92026,BANK OF AMERICA NATL ASSOC,NC,531210,16735,2006,56,3,1,2,3,0,1,Y,N,16770,74300,0,74300,37150,0,0,0.5,0,1680,18450
P I F,2949456010,NATIONAL CONQUEST INC,ORANGE,CA,92868,"CITIBANK, N.A.",SD,531210,17395,2007,84,3,1,5,3,1,1,Y,N,17409,40000,0,40000,20000,0,0,0.5,0,2520,19929
P I F,2844575008,BENCHMARK REALTY & FINANCE,SAN JOSE,CA,95112,U.S. BANK NATIONAL ASSOCIATION,OH,531210,17504,2008,84,2,1,0,2,0,1,Y,N,17531,50000,0,50000,25000,0,0,0.5,0,2520,20051
P I F,2913255000,MAISON REALTY SOLUTIONS INC,LA CANADA FLINTRIDGE,CA,91011,WELLS FARGO BANK NATL ASSOC,SD,531210,17549,2008,84,2,2,1,2,0,1,Y,N,17956,5600,0,5000,2500,1,0,0.5,0,2520,20476
P I F,5285894010,GATOR INVESTMENTS LLC,LOS ANGELES,CA,90019,CALIFORNIA BANK & TRUST,CA,531210,15419,2002,70,1,1,1,1,1,1,Y,N,15856,50133,0,30000,15000,0,0,0.5,1,2100,17956
P I F,4921344006,PREMIER RENTAL-PURCHASE INC,SACRAMENTO,CA,95833,BANK OF AMERICA NATL ASSOC,NC,532310,15237,2001,84,1,2,5,1,1,1,0,N,15279,280000,0,280000,210000,1,0,0.75,1,2520,17799
P I F,2455866004,LA MOTT 7 PROPERTIES,TEMECULA,CA,92592,MUFG UNION BANK NATL ASSOC,CA,531390,17078,2007,84,1,2,0,1,1,1,Y,N,17105,20100,0,10000,5000,1,0,0.5,0,2520,19625
CHGOFF,1919965008,Gabe Rosenberg Avalon,VALLEY VLG,CA,91607,BANK OF AMERICA NATL ASSOC,NC,531311,16995,2006,43,2,1,0,2,0,1,Y,N,17044,15000,0,10000,5000,0,0,0.5,0,1290,18334
CHGOFF,7951304010,SCOOTCAR RENTALS,SAN FRANCISCO,CA,94133,COMMUNITY W. BANK NATL ASSOC,CA,532292,16362,2005,129,3,1,0,3,1,1,0,N,16467,410000,0,410000,307500,0,0,0.75,0,3870,20337
CHGOFF,2069326008,MISSION REAL ESTATE,RIVERSIDE,CA,92505,SECURITY BANK OF CALIFORNIA,CA,531210,16945,2006,99,1,2,1,1,1,1,0,N,17013,60000,0,60000,30000,1,0,0.5,0,2970,19983
P I F,6641054007,CHANNEL ISLANDS BUILDING & DEV,OXNARD,CA,93036,CALIFORNIA BANK & TRUST,CA,531390,15946,2003,84,2,1,0,2,1,1,Y,N,17044,50000,0,50000,25000,0,0,0.5,0,2520,19564
CHGOFF,2432395006,Waterflys,ISLETON,CA,95641,BANK OF AMERICA NATL ASSOC,NC,532120,17289,2007,31,1,2,0,1,0,2,Y,N,17317,11987,0,8000,4000,1,0,0.5,0,930,18247
P I F,7490794002,L A LAWNMOWER,SIMI VALLEY (SIMI),CA,93065,BANK OF AMERICA NATL ASSOC,NC,532490,16224,2004,84,3,1,0,3,1,1,Y,N,16436,45000,0,45000,22500,0,0,0.5,0,2520,18956
CHGOFF,1350935004,Star Wheels,CHINO HILLS,CA,91709,BANK OF AMERICA NATL ASSOC,NC,531190,16610,2005,41,2,1,0,2,1,1,N,N,16648,81475,0,52500,26250,0,0,0.5,1,1230,17878
CHGOFF,5611144004,DROSCHER EQUIPMENT INC,REDDING,CA,96001,UMPQUA BANK,CA,532412,15565,2002,96,13,1,6,13,1,1,0,N,15613,1250000,0,1250000,937500,0,0,0.75,0,2880,18493
P I F,2061995009,"Better Model Realty,  Ltd.",SACRAMENTO,CA,95816,BANK OF AMERICA NATL ASSOC,NC,531210,17084,2007,84,1,2,0,1,0,1,Y,N,17105,13000,0,10000,5000,1,0,0.5,0,2520,19625
CHGOFF,2773566003,NICEA INTERNATIONAL INCORPORAT,LOS ANGELES,CA,90048,"CITIBANK, N.A.",SD,531210,17283,2007,58,2,1,4,2,1,1,Y,N,17470,109948,0,50000,25000,0,0,0.5,0,1740,19210
P I F,2715916003,VIDEO KAMRON,CORTE MADERA,CA,94925,MUFG UNION BANK NATL ASSOC,CA,532230,17240,2007,80,2,1,0,2,1,1,0,N,17256,200000,0,200000,150000,0,0,0.75,0,2400,19656
P I F,2950395006,Chub LLC dba Plot Brokers,LOS ANGELES,CA,90041,BANK OF AMERICA NATL ASSOC,NC,531210,17574,2008,84,8,1,0,8,0,1,N,N,17591,20000,0,20000,10000,0,0,0.5,0,2520,20111
CHGOFF,2784786005,"A SQUARED PROPERTY, INC",LOS ANGELES,CA,90048,"CITIBANK, N.A.",SD,531210,17290,2007,34,1,1,2,1,1,1,Y,N,17317,105000,0,50000,25000,0,0,0.5,0,1020,18337
P I F,1472284001,AJAX RENT A CAR,LOS ANGELES,CA,90004,WILSHIRE BANK,CA,532111,13737,1997,300,7,1,0,0,1,0,0,N,13910,720000,0,720000,540000,0,1,0.75,0,9000,22910
CHGOFF,2454026008,ADVANTAGE VALUATION INC,SAN DIEGO,CA,92109,U.S. BANK NATIONAL ASSOCIATION,OH,531320,17077,2007,287,6,1,0,6,1,1,0,N,17135,85000,0,120500,90375,0,1,0.75,0,8610,25745
CHGOFF,7360674003,DILBECK REALTORS,WALNUT,CA,91367,CALIFORNIA STATEWIDE CERT. DEV,CA,531312,16177,2004,240,600,1,100,0,1,1,0,N,16329,756000,0,757000,757000,0,1,1,0,7200,23529
CHGOFF,2511455009,Select Biz Sales,MANHATTAN BEACH,CA,90266,BANK OF AMERICA NATL ASSOC,NC,531390,17330,2007,59,4,1,0,4,0,1,N,N,17347,80000,0,50000,25000,0,0,0.5,0,1770,19117
P I F,3439963005,HODGE TRUCKING,BLUE LAKE,CA,95525,U.S. BANK NATIONAL ASSOCIATION,OH,532120,10722,1989,24,3,1,0,0,0,0,N,N,10804,49500,0,49500,44550,0,0,0.9,0,720,11524
P I F,6420884005,ROGER M ANDERSON EPC TO CAPITA,PLACENTIA,CA,92870,PACIFIC WESTERN BANK,CA,531190,15874,2003,300,4,1,4,4,1,1,0,N,15917,465000,0,465000,348750,0,1,0.75,0,9000,24917
P I F,1056816009,RENAISSANCE,STUDIO CITY,CA,91604,JPMORGAN CHASE BANK NATL ASSOC,NV,531210,16849,2006,84,3,2,0,3,1,2,Y,N,16860,59450,0,30000,15000,1,0,0.5,0,2520,19380
CHGOFF,7636764008,OLSEN APPRAISAL SERVICE,BAKERSFIELD,CA,93306,CAPITAL ONE NATL ASSOC,VA,531320,16275,2004,29,1,1,0,1,1,1,0,N,16405,50000,0,50000,25000,0,0,0.5,0,870,17275
P I F,1695765007,ACT FAST INC.,RANCHO SANTA MARGARITA,CA,92688,CAPITAL ONE NATL ASSOC,VA,531210,16867,2006,61,1,1,0,1,0,1,N,N,16891,50000,0,50000,25000,0,0,0.5,0,1830,18721
P I F,5472824006,CALSCAN MEDICAL ENTERPRISES IN,ANAHEIM,CA,92806,WELLS FARGO BANK NATL ASSOC,SD,532490,15510,2002,96,9,1,0,0,1,1,0,N,15521,150000,0,150000,75000,0,0,0.5,0,2880,18401
P I F,9860074006,"CERNA GP,ELAN REAL ESTATE MGT'",SAN JOSE,CA,95112,SBA - EDF ENFORCEMENT ACTION,CO,531210,16835,2006,240,6,1,4,6,1,1,0,N,17239,721000,0,721000,721000,0,1,1,0,7200,24439
CHGOFF,2343775000,"Savant Estates, Inc.",SANTA BARBARA,CA,93105,BANK OF AMERICA NATL ASSOC,NC,531210,17246,2007,55,2,2,0,2,0,1,N,N,17286,22000,0,12000,6000,1,0,0.5,0,1650,18936
CHGOFF,2400215004,"North Horn Financial, Inc. dba",SAN JOSE,CA,95120,BANK OF AMERICA NATL ASSOC,NC,531210,17274,2007,84,2,1,0,2,0,1,Y,N,17286,73750,0,35000,17500,0,0,0.5,0,2520,19806
P I F,7322134004,THE WALLACE FAMILY REVOCABLE L,BETHEL ISLAND,CA,94511,HERITAGE BANK OF COMMERCE,CA,531210,16162,2004,300,6,1,0,6,1,1,0,N,16222,187500,0,187500,140625,0,1,0.75,0,9000,25222
CHGOFF,1015066002,SUPERIOR BROKERS REALTY,HUNTINGTON PARK,CA,90255,U.S. BANK NATIONAL ASSOCIATION,OH,531210,16841,2006,269,2,1,0,2,1,1,0,N,16860,297500,0,297500,223125,0,1,0.75,0,8070,24930
CHGOFF,2939624006,AMCO RENTS AND SALES INC A CAL,LOS ANGELES,CA,90025,BANK OF AMERICA CALIFORNIA N.A,CA,532420,14377,1999,15,17,1,3,17,1,0,0,N,14425,750000,0,750000,562500,0,0,0.75,0,450,14875
CHGOFF,5290394007,INTERNATIONAL AUDIO VISUAL SER,SAN DIEGO,CA,92108,CALIFORNIA BANK & TRUST,CA,532230,15421,2002,36,7,1,2,7,1,1,T,N,15460,25000,0,25000,12500,0,0,0.5,0,1080,16540
CHGOFF,6860944003,DOUG GONZALES REALTOR,ELK GROVE,CA,95624,BANK OF AMERICA NATL ASSOC,NC,531210,16008,2004,54,3,1,0,3,1,1,T,N,16039,9576,0,10000,5000,0,0,0.5,1,1620,17659
P I F,6582884008,BEACON REALTY,LONG BEACH,CA,90804,BANK OF AMERICA NATL ASSOC,NC,531390,15929,2003,84,3,1,1,3,1,1,Y,N,15948,8600,0,8600,4300,0,0,0.5,0,2520,18468
P I F,9141174005,RAENA LYNN & ASSOCIATES,PLEASANT HILL (PLEASANT HILLS),CA,94523,MORTGAGE CAP. DEVEL CORP,CA,531320,16709,2005,240,2,1,1,0,1,1,0,N,16812,372000,0,372000,372000,0,1,1,0,7200,24012
P I F,6251644001,JNJ BUSINESS INC,PASADENA,CA,91106,UNITI BANK,CA,531390,15811,2003,84,2,1,0,2,1,1,Y,N,15825,97500,0,50000,25000,0,0,0.5,0,2520,18345
CHGOFF,2615624010,ALICIA'S VIDEO EXPRESS/LAUNDRY,OLIVEHURST,CA,95961,BANK OF THE WEST,CA,532230,14229,1999,300,4,1,0,0,1,0,N,N,14275,150800,0,150800,113100,0,1,0.75,0,9000,23275
P I F,1733575000,JON F WALTERS,OCEANSIDE,CA,92056,U.S. BANK NATIONAL ASSOCIATION,OH,531312,16887,2006,84,1,1,1,2,0,1,Y,N,17044,118885,0,49000,24500,0,0,0.5,0,2520,19564
P I F,2514106000,LREG INC,VALENCIA,CA,91355,MISSION VALLEY BANK,CA,531210,17111,2007,72,9,1,0,9,1,1,T,N,17135,49190,0,25000,12500,0,0,0.5,0,2160,19295
P I F,2970175007,BARRETTA PROPERTY SERVICE,BURLINGAME,CA,94010,U.S. BANK NATIONAL ASSOCIATION,OH,531311,17587,2008,84,2,1,0,2,0,1,Y,N,18048,80606,0,40000,20000,0,0,0.5,0,2520,20568
P I F,9068004003,SIERRA TAHOE CONCRETE PUMPING,MARKLEEVILLE,CA,96120,U.S. BANK NATIONAL ASSOCIATION,OH,532490,16674,2005,84,2,1,0,2,1,2,Y,N,16832,32388,0,10000,5000,0,0,0.5,0,2520,19352
P I F,6626984006,"DEVELOPLUS, INC.",CORONA,CA,92880,CDC SMALL BUS. FINAN CORP,CA,531312,15943,2003,240,6,1,5,0,1,1,N,N,16084,502000,0,502000,502000,0,1,1,0,7200,23284
P I F,6241054008,DIGITAL VIDEO GAMES,SANTA CLARITA,CA,91351,INNOVATIVE BANK,CA,532230,15806,2003,84,1,1,0,1,1,1,0,N,15825,5000,0,5000,2500,0,0,0.5,0,2520,18345
P I F,2263646003,EXPRESS APPRAISAL SERVICES,CUPERTINO,CA,95014,JPMORGAN CHASE BANK NATL ASSOC,IL,531320,17007,2006,84,2,1,0,2,1,2,Y,N,17013,70460,0,25000,12500,0,0,0.5,0,2520,19533
CHGOFF,1137605000,"Rent 4 Less, Inc.",Fullerton,CA,92831,CALIFORNIA BANK & TRUST,CA,532112,16427,2005,42,7,1,0,0,1,1,N,N,16436,100000,0,100000,50000,0,0,0.5,1,1260,17696
CHGOFF,8394103003,OMNI RENT-A-CAR INC,BREA,CA,92621,COMPASS BANK,CA,532111,12939,1995,300,20,1,0,0,1,0,N,N,13087,244836,0,244836,183627,0,1,0.75,0,9000,22087
P I F,1499685010,"John Altamura and Associates,",MANHATTAN BEACH,CA,90266,BANK OF AMERICA NATL ASSOC,NC,531210,16723,2006,84,1,1,0,1,0,1,Y,N,16770,329825,0,100000,50000,0,0,0.5,0,2520,19290
CHGOFF,7335484003,DB REAL ESTATE & MORTGAGES INC,RIVERSIDE,CA,92506,BANK OF AMERICA NATL ASSOC,NC,531210,16168,2004,32,5,1,5,10,1,1,T,N,16191,13200,0,13200,6600,0,0,0.5,0,960,17151
CHGOFF,9500644007,CONEJO VALLEY REALTY LLC,AGOURA HILLS,CA,91301,JPMORGAN CHASE BANK NATL ASSOC,IL,531210,16792,2006,28,3,2,1,3,1,2,Y,N,16801,54783,0,20000,10000,1,0,0.5,1,840,17641
P I F,5070954007,RITCHIE COMMERCIAL,SAN JOSE,CA,95113,BAY AREA EMPLOYMENT DEVEL CO,CA,531210,15308,2002,240,9,1,2,7,1,1,N,N,15384,732000,0,732000,732000,0,1,1,0,7200,22584
P I F,3549373006,CALIFORNIA AJAX-RENT-A-CAR,BEVERLY HILLS,CA,90211,INTERNATL CITY BANK NATL ASSOC,CA,532112,10871,1990,120,7,1,0,0,1,0,N,N,10988,550000,0,550000,465850,0,0,0.847,0,3600,14588
CHGOFF,1939816002,PROVIDENCE REAL ESTATE SERVICE,SAN JOSE,CA,95148,AURORA BANK FSB,CO,531210,16925,2006,279,12,1,0,12,1,1,0,N,16952,441000,0,441000,330750,0,1,0.75,0,8370,25322
P I F,3341084010,HOME FUNDERS FINANCIAL,UNION CITY,CA,94587,LOANS FROM OLD CLOSED LENDERS,DC,531210,14550,2000,300,10,1,6,16,1,1,0,N,14578,427500,0,427500,320625,0,1,0.75,0,9000,23578
P I F,5696164008,GALLERY PROPERTIES,LA JOLLA,CA,92037,WELLS FARGO BANK NATL ASSOC,CA,531210,15599,2002,60,2,1,0,2,1,1,Y,N,15736,43978,0,25000,12500,0,0,0.5,1,1800,17536
P I F,5357424009,BUCKINGHAM PROPERTY MANAGEMENT,FRESNO,CA,93702,"WACHOVIA SBA LENDING, INC.",CA,531311,15454,2002,288,16,1,0,16,1,1,0,N,15491,169300,0,169300,126975,0,1,0.75,0,8640,24131
CHGOFF,2907026001,PRIDENET.NET,BREA,CA,92821,"CITIBANK, N.A.",SD,531210,17367,2007,49,6,1,1,6,1,1,Y,N,17378,50000,0,50000,25000,0,0,0.5,0,1470,18848
CHGOFF,3044996008,NOW ON DVD,CARSON,CA,90745,JPMORGAN CHASE BANK NATL ASSOC,IL,532230,17469,2008,59,5,1,0,5,1,1,Y,N,17470,175524,0,50000,25000,0,0,0.5,0,1770,19240
P I F,2877726008,WORLD ESTATE INVESTMENT INC,ANTIOCH,CA,94531,"CAPITAL ACCESS GROUP, INC.",CA,531210,17346,2007,240,2,1,4,0,1,1,0,N,17484,268000,0,268000,268000,0,1,1,0,7200,24684
CHGOFF,2540455008,JANE LYLA OBERG DBA ISLAND MOR,BETHEL ISLAND,CA,94511,CAPITAL ONE NATL ASSOC,VA,531210,17344,2007,84,1,1,0,1,0,1,N,N,17378,15000,0,15000,7500,0,0,0.5,0,2520,19898
P I F,2819075009,"FIRST ASIA MORTGAGE, INC.",MILLBRAE,CA,94030,U.S. BANK NATIONAL ASSOCIATION,OH,531210,17489,2008,59,12,1,0,12,0,1,Y,N,17500,195266,0,100000,50000,0,0,0.5,0,1770,19270
CHGOFF,1757185006,Mielko Realty,SANTA BARBARA,CA,93140,BANK OF AMERICA NATL ASSOC,NC,531210,16901,2006,48,3,1,0,3,0,1,Y,N,16952,15100,0,10000,5000,0,0,0.5,0,1440,18392
CHGOFF,2117595007,Celeste Asaro,SAN DIEGO,CA,92101,U.S. BANK NATIONAL ASSOCIATION,OH,531390,17114,2007,52,1,1,1,2,0,1,Y,N,17166,40212,0,20000,10000,0,0,0.5,0,1560,18726
P I F,4568874010,SARDON LLC,WOODLAND HILLS,CA,91364,MUFG UNION BANK NATL ASSOC,CA,532299,15134,2001,300,13,1,4,13,1,1,0,N,15156,864000,0,864000,648000,0,1,0.75,0,9000,24156
CHGOFF,1313825007,GOLYER'S FINANCIAL GROUP,IRVINE,CA,92612,CAPITAL ONE NATL ASSOC,VA,531210,16580,2005,43,2,1,0,2,1,1,N,N,16617,25000,0,25000,12500,0,0,0.5,1,1290,17907
P I F,2259186004,MR VIDEO & VIDEO FOX #2,SAN BERNARDINO,CA,92404,BBCN BANK,CA,532230,17006,2006,60,2,1,2,2,1,1,0,N,17013,100000,0,100000,50000,0,0,0.5,0,1800,18813
P I F,5691804000,LOAN PROFESSORS INC,SAN JOSE,CA,95112,"WACHOVIA SBA LENDING, INC.",CA,531210,15596,2002,300,3,1,0,3,1,1,0,N,15613,725000,0,725000,543750,0,1,0.75,0,9000,24613
CHGOFF,2686796004,QUANTUM REAL ESTATE,SAN DIEGO,CA,92129,MUFG UNION BANK NATL ASSOC,CA,531210,17220,2007,64,2,1,0,2,1,1,Y,N,17225,49773,0,25000,12500,0,0,0.5,0,1920,19145
P I F,3637866010,INNOVISION MEDIA GROUP,SIGNAL HILL,CA,90744,FIRST MERCHANTS BANK NATL ASSO,IN,532210,17890,2009,84,4,1,1,4,1,1,0,N,17928,200000,0,200000,150000,0,0,0.75,0,2520,20448
CHGOFF,2720686000,BLUE WATER PARTY RENTALS,SOUTH SAN FRANCISCO,CA,94080,FIRST NATL BK OF NORTHERN CALI,CA,532299,17245,2007,85,11,1,2,11,1,1,0,N,17286,100000,0,100000,85000,0,0,0.85,0,2550,19836
P I F,7995924010,BANANA VIDEO/HOLLYWOOD YOGURT,LA MESA,CA,91942,CALIFORNIA BANK & TRUST,CA,532230,16370,2005,120,2,2,12,2,1,1,0,N,16405,131000,0,131000,111350,1,0,0.85,0,3600,20005
P I F,9132364001,RIVAUX LLC,NAPA,CA,94558,"CITIBANK, N.A.",SD,531210,16708,2005,84,1,1,0,1,1,1,Y,N,16770,177008,0,75000,37500,0,0,0.5,0,2520,19290
CHGOFF,2867095009,"NJG ENTERPRISES, INC.",SAN MARCOS,CA,92078,U.S. BANK NATIONAL ASSOCIATION,OH,531210,17517,2008,84,3,2,0,3,0,1,Y,N,17928,20100,0,20000,10000,1,0,0.5,0,2520,20448
CHGOFF,2223676007,MLJ & ASSOCIATES,CERRITOS (DAIRY VALLEY),CA,90703,BANCO POPULAR NORTH AMERICA,NY,531390,16994,2006,0,4,1,4,4,1,1,Y,N,17044,101056,0,50000,25000,0,0,0.5,0,0,17044
P I F,7520534007,ADZ CORPORATION,ROSEVILLE,CA,95661,WELLS FARGO BANK NATL ASSOC,SD,531210,16237,2004,59,58,1,2,7,1,1,Y,N,16314,91075,0,40000,20000,0,0,0.5,0,1770,18084
CHGOFF,7319124000,ULRICH & ASSOCIATES,SAN DIEGO,CA,92131,BANK OF AMERICA NATL ASSOC,NC,531210,16162,2004,84,19,1,0,19,1,1,Y,N,16191,31500,0,23000,11500,0,0,0.5,0,2520,18711
P I F,6972824007,STEVE ABRAHAM & PROPERTY GROUP,NEWPORT BEACH,CA,92660,BANK OF AMERICA NATL ASSOC,NC,531210,16037,2004,20,2,1,0,2,1,1,N,N,16070,25500,0,25500,12750,0,0,0.5,0,600,16670
P I F,4292174010,ANGELLO'S ATV,OCEANO,CA,93401,COAST NATIONAL BANK,CA,532292,15015,2001,300,10,1,0,0,1,2,N,N,15065,409500,0,409500,307125,0,1,0.75,0,9000,24065
CHGOFF,2532505010,"RH Brokerage Services,  Inc.",LOS ANGELES,CA,90007,BANK OF AMERICA NATL ASSOC,NC,531210,17339,2007,59,8,1,0,8,0,1,N,N,17378,135151,0,100000,50000,0,0,0.5,0,1770,19148
P I F,2173334008,ARMCO MANGEMENT INC.,SAN FRANCSICO,CA,94134,FIRST NATL BK OF NORTHERN CALI,CA,531110,14062,1998,300,7,1,0,0,1,0,N,N,14213,188000,0,200000,150000,0,1,0.75,0,9000,23213
P I F,1653445007,All Equipment Leasing LLC,BEVERLY HILLS,CA,90210,BANK OF AMERICA NATL ASSOC,NC,532310,16840,2006,72,4,2,0,4,0,1,Y,N,16860,35600,0,20000,10000,1,0,0.5,0,2160,19020
P I F,5160044009,KAPUR TRUST,YORBA LINDA,CA,92886,CALIFORNIA BANK & TRUST,CA,531210,15356,2002,204,2,1,0,2,1,1,0,N,15371,218900,0,218900,142285,0,0,0.65,0,6120,21491
P I F,2864244004,COMMERCIAL REAL ESTATE APPRAIS,SAN MARCOS,CA,92069,PACIFIC WESTERN BANK,CA,531210,14333,1999,300,8,1,0,8,1,0,0,N,14395,158500,0,158500,118875,0,1,0.75,0,9000,23395
CHGOFF,8963394006,GABRIEL N ESTEBAN,LA JOLLA,CA,92037,MUFG UNION BANK NATL ASSOC,CA,531210,16617,2005,84,1,1,0,0,1,1,Y,N,16648,54691,0,30000,15000,0,0,0.5,0,2520,19168
CHGOFF,2198595008,"A J Investment Enterprises, LL",LANCASTER,CA,93534,BANK OF AMERICA NATL ASSOC,NC,531390,17164,2007,65,3,1,2,3,0,1,Y,N,17197,35000,0,35000,17500,0,0,0.5,0,1950,19147
P I F,9187394007,BALBOA NEWPORT REALTY INC,NEWPORT BEACH,CA,92663,WELLS FARGO BANK NATL ASSOC,SD,531210,16730,2006,84,2,1,0,2,1,2,0,N,16770,145800,0,150000,127500,0,0,0.85,0,2520,19290
P I F,1488884009,ADVANCED MANAGEMENT COMPANY,LAKE FOREST,CA,92630,MERRILL LYNCH BANK USA,UT,531110,13744,1997,300,130,1,0,0,1,0,0,N,13787,369000,0,369000,276750,0,1,0.75,0,9000,22787
CHGOFF,2554946010,ECLYPSE FINANCIAL GROUP AND EC,VENTURA (CORPORATE NAME SAN BU,CA,93001,"CITIBANK, N.A.",SD,531210,17135,2007,70,3,1,0,3,1,1,Y,N,17286,19000,0,10000,5000,0,0,0.5,0,2100,19386
CHGOFF,2273165009,"KEITH N. ANDERSON, INC.",PETALUMA,CA,94954,CAPITAL ONE NATL ASSOC,VA,531311,17210,2007,69,2,1,0,2,0,1,Y,N,17317,100000,0,50000,25000,0,0,0.5,0,2070,19387
P I F,5337164006,VALLEY RENTS & READY MIX,ROSEVILLE,CA,95661,AMERICAN RIVER BANK,CA,532310,15442,2002,120,6,1,0,0,1,1,N,N,15674,925000,0,925000,693750,0,0,0.75,0,3600,19274
CHGOFF,1169845007,Luna Terra LLC,COTATI,CA,94931,BANK OF AMERICA NATL ASSOC,NC,531210,16461,2005,19,1,2,0,1,1,1,Y,N,16495,23282,0,10000,5000,1,0,0.5,0,570,17065
P I F,4533573007,ROBO VIDEO,ORANGEVALE,CA,95662,LOANS FROM OLD CLOSED LENDERS,DC,532230,11528,1991,120,2,2,0,0,1,0,N,N,11626,94000,0,94000,75200,1,0,0.8,0,3600,15226
P I F,5006613009,HOME VIDEO STORES,TWIN PEAKS,CA,92391,GE CAP. SMALL BUS. FINAN CORP,TX,532230,11935,1992,300,13,1,0,0,1,0,N,N,11992,130000,0,130000,117000,0,1,0.9,0,9000,20992
P I F,7824123005,PLACER TV INC,SACRAMENTO,CA,95825,WELLS FARGO BANK NATL ASSOC,SD,532230,12743,1995,300,2,1,0,0,1,0,N,0,12814,500000,0,500000,350000,0,1,0.7,0,9000,21814
CHGOFF,2518176007,VIBRIDA INC,CULVER CITY,CA,90230,JPMORGAN CHASE BANK NATL ASSOC,IL,531312,17113,2007,59,8,1,4,8,1,2,Y,N,17135,158329,0,50000,25000,0,0,0.5,0,1770,18905
P I F,4180865007,"ACTION THEATRICAL SERVICES, IN",SUN VALLEY,CA,91352,SOUTH CNTY BANK NATL ASSOC,CA,532490,18469,2010,84,3,1,1,3,0,1,N,N,18506,205000,0,205000,153750,0,0,0.75,0,2520,21026
P I F,9364843006,COUNTRY HOME VIDEO,CLOVIS,CA,93611,CALIFORNIA BANK & TRUST,CA,532230,13325,1996,120,6,2,0,0,1,0,0,N,13422,65000,0,65000,52000,1,0,0.8,0,3600,17022
P I F,3085964003,LAUNDERLAND TELEGRAPH,OAKLAND,CA,94609,WELLS FARGO BANK NATL ASSOC,CA,532112,14452,1999,120,3,1,0,2,1,1,0,N,14487,180000,0,180000,135000,0,0,0.75,0,3600,18087
P I F,8661894008,PLEASANTON RENTALS INC.,PLEASANTON,CA,94588,MORTGAGE CAP. DEVEL CORP,CA,532310,16497,2005,240,16,1,6,0,1,1,0,N,16721,1234000,0,1257000,1257000,0,1,1,0,7200,23921
P I F,6384434001,SELECT VIDEO,PLACERVILLE,CA,95667,SBA - EDF ENFORCEMENT ACTION,CO,532230,15862,2003,240,14,1,0,1,1,2,0,N,15993,127000,0,136000,136000,0,1,1,0,7200,23193
P I F,6102604007,ANTELOPE RENT A CAR,ANTELOPE,CA,95843,WELLS FARGO BANK NATL ASSOC,CA,532111,15750,2003,36,1,1,0,1,1,1,Y,N,15795,52656,0,35000,17500,0,0,0.5,0,1080,16875
P I F,1891726010,C J HOLMES INVESTMENT BROKER (,SANTA ROSA,CA,95401,"CAPITAL ACCESS GROUP, INC.",CA,531210,16919,2006,240,1,1,9,0,1,1,0,N,16994,454000,0,454000,454000,0,1,1,0,7200,24194
P I F,1394315008,ACME SAFETY & SUPPLY CORPORATI,San Diego,CA,92110,CALIFORNIA BANK & TRUST,CA,532490,16646,2005,84,21,1,50,50,0,1,N,N,16679,140000,0,140000,70000,0,0,0.5,0,2520,19199
CHGOFF,3075065007,ARCO PROPERTIES INC,TORRANCE,CA,90503,"SUPERIOR FINANCIAL GROUP, LLC",CA,531311,17654,2008,115,1,1,0,1,0,1,N,N,17683,20000,0,20000,17000,0,0,0.85,0,3450,21133
P I F,6969954010,WINNER-BAIRD PROPERTY MANAGEME,CORONA,CA,92879,CALIFORNIA STATEWIDE CERT. DEV,CA,531312,16035,2004,240,50,1,12,0,1,1,0,N,16175,362000,0,362000,362000,0,1,1,0,7200,23375
P I F,2685156009,HIGH PERFORMANCE INVESTING LLC,LOS ANGELES,CA,90066,"CITIBANK, N.A.",SD,531390,17219,2007,84,2,1,2,2,1,1,Y,N,17652,50000,0,50000,25000,0,0,0.5,0,2520,20172
CHGOFF,9657944001,THE PREMIER REALTY GROUP INC,CHULA VISTA,CA,91914,WELLS FARGO BANK NATL ASSOC,SD,531210,16813,2006,36,5,1,5,10,1,1,0,N,16832,60000,0,60000,30000,0,0,0.5,1,1080,17912
CHGOFF,1388235001,Woodward Childs,CAPITOLA,CA,95010,BANK OF AMERICA NATL ASSOC,NC,531210,16643,2005,53,2,1,2,2,0,1,T,N,16679,44750,0,25000,12500,0,0,0.5,0,1590,18269
CHGOFF,1873805010,"Condrado D. Ortiz, Inc. dba Me",ELK GROVE,CA,95624,BANK OF AMERICA NATL ASSOC,NC,531210,16966,2006,64,2,2,0,2,0,1,T,N,17013,10000,0,10000,5000,1,0,0.5,0,1920,18933
P I F,2670505008,"PBD Management Group, LLC","Silver Lake, CA",CA,90029,BANK OF AMERICA NATL ASSOC,NC,531210,17408,2007,47,1,1,0,1,0,1,Y,N,17591,37500,0,25000,12500,0,0,0.5,0,1410,19001
P I F,5722934008,J&L ASSOCIATES INC,ANAHEIM,CA,92806,FIRST-CITIZENS BK & TR CO,NC,531120,15607,2002,300,10,1,3,10,1,1,0,N,15613,706100,0,706100,529575,0,1,0.75,0,9000,24613
CHGOFF,9571854008,RAFTAR CONSULTANTS INC,YUBA CITY,CA,94991,WELLS FARGO BANK NATL ASSOC,SD,531210,16805,2006,47,1,1,0,1,1,1,Y,N,17500,40986,0,40000,20000,0,0,0.5,0,1410,18910
P I F,2101435000,"MANNY PROFESSIONAL SERVICES, I",SAN JOSE,CA,95131,CAPITAL ONE NATL ASSOC,VA,531210,17106,2007,84,1,2,0,1,0,1,N,N,17135,25000,0,25000,12500,1,0,0.5,0,2520,19655
P I F,2134634001,VIDEO TO GO PLUS,MARINA,CA,93933,MONTEREY COUNTY BANK,CA,532230,14045,1998,84,5,1,0,0,1,0,0,N,14122,60000,0,60000,48000,0,0,0.8,0,2520,16642
CHGOFF,2723405007,"Affordable Escrow, Inc",GRANADA HILLS,CA,91344,BANK OF AMERICA NATL ASSOC,NC,531390,17435,2007,59,4,1,0,4,0,1,N,N,17439,195000,0,100000,50000,0,0,0.5,0,1770,19209
CHGOFF,3063924001,EXECUTIVE SUITE,SUNNYVALE,CA,94086,WELLS FARGO BANK NATL ASSOC,CA,531190,14439,1999,120,3,1,1,3,1,1,0,N,14456,36000,0,36000,28800,0,0,0.8,1,3600,18056
P I F,5494894006,DANIEL LIM & MEE SOOK LIM,LOS ANGELES,CA,90061,WILSHIRE BANK,CA,531120,15518,2002,300,2,1,0,2,1,1,0,N,15552,289000,0,289000,216750,0,1,0.75,0,9000,24552
CHGOFF,2527656000,KEMER INVESTMENTS INC,RCH CUCAMONGA,CA,91729,JPMORGAN CHASE BANK NATL ASSOC,IL,531210,17120,2007,51,6,1,0,6,1,2,Y,N,17135,63780,0,30000,15000,0,0,0.5,0,1530,18665
CHGOFF,1030805001,Global Parties Inc. dba Party,THOUSAND OAKS,CA,91360,BANK OF AMERICA NATL ASSOC,NC,532299,16281,2004,64,6,1,0,0,1,1,Y,N,16314,50000,0,50000,25000,0,0,0.5,0,1920,18234
CHGOFF,5478854005,BEST RENTS,BAKERSFIELD,CA,93309,"READYCAP LENDING, LLC",CA,532292,15511,2002,74,16,1,0,0,1,1,N,N,15613,250000,0,250000,187500,0,0,0.75,1,2220,17833
P I F,7652004003,VIDEO FLICKS,RIVERSIDE,CA,92508,WILSHIRE BANK,CA,532230,16281,2004,60,3,1,0,3,1,1,Y,N,16314,70000,0,70000,35000,0,0,0.5,0,1800,18114
CHGOFF,2953176001,ORION PROPERTY,LOS ANGELES,CA,90004,JPMORGAN CHASE BANK NATL ASSOC,IL,531311,17399,2007,50,5,1,0,5,1,1,Y,N,17409,42478,0,30000,15000,0,0,0.5,0,1500,18909
P I F,2733364005,VACATIONS BY THE SEA,CAPITOLA,CA,95010,"WACHOVIA SBA LENDING, INC.",CA,531210,14266,1999,120,7,1,0,6,1,0,0,N,14303,216000,0,216000,162000,0,0,0.75,1,3600,17903
P I F,4149254007,PAUL AND LINDA MOONEY,LAKE ISABELLA (ISABELLA),CA,93240,CITIZENS BUSINESS BANK,CA,531210,14965,2001,84,1,2,4,1,1,1,0,N,15065,100000,0,100000,80000,1,0,0.8,1,2520,17585
CHGOFF,2563725009,ELITE INVESTMENTS,OAKLAND,CA,94607,U.S. BANK NATIONAL ASSOCIATION,OH,531210,17357,2007,73,1,1,0,1,0,1,Y,N,17378,10000,0,10000,8500,0,0,0.85,0,2190,19568
P I F,8816154004,LAX EQUIPMENT INC,INGLEWOOD,CA,90301,U.S. BANK NATIONAL ASSOCIATION,OH,532412,16552,2005,300,10,1,0,10,1,1,0,N,16587,297500,0,297500,223125,0,1,0.75,0,9000,25587
CHGOFF,7119444008,ROBINSON AND STEINBERG INC,MORENO,CA,92557,BANK OF AMERICA NATL ASSOC,NC,531311,16093,2004,37,3,1,0,3,1,1,T,N,16130,18000,0,18000,9000,0,0,0.5,0,1110,17240
P I F,6530074010,KTB MANAGEMENT GROUP,SAN FRANCISCO,CA,94102,BANK OF AMERICA NATL ASSOC,NC,531390,15911,2003,84,60,1,5,60,1,1,Y,N,15917,80000,0,80000,40000,0,0,0.5,0,2520,18437
CHGOFF,4065855009,Rhoads Realty,Fairfield,CA,94533,NORTH VALLEY BANK,CA,531311,18388,2010,84,1,1,0,1,0,1,N,N,18414,135000,0,135000,121500,0,0,0.9,0,2520,20934
P I F,1454584004,VIDEO EXPRESS/BLUEPRINT EXPRES,GROVER BEACH,CA,93433,MUFG UNION BANK NATL ASSOC,CA,532230,13727,1997,120,7,1,0,0,1,0,0,N,13787,140000,0,140000,105000,0,0,0.75,0,3600,17387
CHGOFF,7401724002,REALTY EXECUTIVES RON ROBERTS,SACRAMENTO,CA,95863,GREATER SACRAMENTO CERT. DEVEL,CA,531210,16194,2004,240,9,1,11,0,68880,1,0,N,16392,249000,0,249000,249000,0,1,1,0,7200,23592
P I F,6327924010,KERLAR LLC,FULLERTON,CA,92835,OPUS BANK,CA,531120,15841,2003,126,10,1,0,10,1,1,0,N,16101,145000,0,145000,108750,0,0,0.75,0,3780,19881
CHGOFF,1584505007,HARDIN APPRAISAL INC.,SANTA PAULA,CA,93060,CAPITAL ONE NATL ASSOC,VA,531320,16789,2006,53,2,2,2,2,0,1,N,N,16832,35000,0,35000,17500,1,0,0.5,0,1590,18422
P I F,3119186007,AMERICAN RENT ALL,GLENDALE,CA,91206,FIRST PRIVATE BANK & TRUST,CA,532299,17538,2008,84,15,1,2,2,1,1,Y,N,18048,7500,0,5000,2500,0,0,0.5,0,2520,20568
CHGOFF,2792175003,UPLAND PROPERTIES CORP,MONTCLAIR,CA,91763,BANCO POPULAR NORTH AMERICA,NY,531390,17472,2008,57,2,1,0,2,0,1,Y,N,17531,6861,0,5000,2500,0,0,0.5,0,1710,19241
P I F,8185294003,"Realty Roundup, Inc.",ELK GROVE,CA,95624,GREATER SACRAMENTO CERT. DEVEL,CA,531311,16401,2005,240,10,1,5,0,1,1,0,N,16847,239000,0,239000,239000,0,1,1,0,7200,24047
P I F,2787156010,DON & LEE ASSOCIATES,LOS ANGELES,CA,90004,"CITIBANK, N.A.",SD,531110,17294,2007,84,1,1,0,1,1,1,Y,N,17652,27000,0,27000,13500,0,0,0.5,0,2520,20172
P I F,3560933009,WEST COAST VIDEO OF DANA POINT,DANA POINT,CA,92675,GE CAP. SMALL BUS. FINAN CORP,TX,532230,10889,1990,155,12,2,0,0,1,0,N,N,10988,230000,0,230000,195500,1,0,0.85,0,4650,15638
P I F,1177475003,"Vu-Color, Inc.",YORBA LINDA,CA,92887,BANK OF AMERICA NATL ASSOC,NC,532490,16469,2005,84,4,1,0,4,1,1,Y,N,16495,50000,0,50000,25000,0,0,0.5,0,2520,19015
CHGOFF,2957925002,KIM-OANH T HUYNH,HUNTINGTON BEACH,CA,92647,WELLS FARGO BANK NATL ASSOC,SD,531210,17577,2008,56,1,2,0,1,0,1,Y,N,17622,23262,0,15000,7500,1,0,0.5,0,1680,19302
CHGOFF,1549165006,Gino Green,ROCKLIN,CA,95677,U.S. BANK NATIONAL ASSOCIATION,OH,531390,16761,2006,57,13,2,0,13,0,1,Y,N,16832,58292,0,40000,20000,1,0,0.5,0,1710,18542
CHGOFF,2239675005,THE REAL ESTATE & LOAN CONSULT,DOWNEY,CA,90240,U.S. BANK NATIONAL ASSOCIATION,OH,531210,17191,2007,53,4,1,3,7,0,1,Y,N,17197,163743,0,50000,25000,0,0,0.5,0,1590,18787
CHGOFF,1260605006,"Parto Enterprises, Inc.",HUNTINGTON BEACH,CA,92649,BANK OF AMERICA NATL ASSOC,NC,531312,16533,2005,71,12,1,0,12,1,1,T,N,16556,50000,0,50000,25000,0,0,0.5,0,2130,18686
P I F,4297833010,SEOUL/OCEANVIEW VIDEO RENTAL,"LA CANADA,",CA,91011,LOANS FROM OLD CLOSED LENDERS,DC,532230,11267,1991,76,2,2,0,0,1,0,N,N,11353,60000,0,60000,54000,1,0,0.9,0,2280,13633
CHGOFF,2540136002,HELP U SELL BEST REALTY,CERRITOS (DAIRY VALLEY),CA,90703,JPMORGAN CHASE BANK NATL ASSOC,IL,531210,17126,2007,62,3,1,3,3,37481,2,Y,N,17135,63104,0,30000,15000,0,0,0.5,0,1860,18995
P I F,2883864008,THE CALL COMPANY,LAGUNA HILLS (LEISURE WORLD),CA,92653,CITIZENS BUSINESS BANK,CA,531210,14343,1999,300,67,1,0,67,1,0,0,N,14364,510800,0,510800,383100,0,1,0.75,0,9000,23364
P I F,6665994001,ACORN MORTGAGE CALIFORNIA PROP,SANTA ROSA,CA,95401,UMPQUA BANK,OR,531311,15957,2003,300,10,1,0,10,1,1,0,N,15978,640000,0,640000,480000,0,1,0.75,0,9000,24978
CHGOFF,2358446005,DIGLADO INC,LONG BEACH,CA,90808,WELLS FARGO BANK NATL ASSOC,SD,531390,17037,2006,49,3,1,2,5,1,1,Y,N,17074,14994,0,10000,5000,0,0,0.5,0,1470,18544
P I F,4759403005,HI-TECH 1-HOUR PHOTO & VIDEO,LOS ANGELES,CA,90024,FIRST BANK,MO,532230,11764,1992,273,4,2,0,0,1,0,N,N,11808,320000,0,320000,272000,1,1,0.85,0,8190,19998
P I F,9058344007,CARMEL BUSINESS SALES & CARMEL,CARMEL,CA,93923,MONTEREY COUNTY BANK,CA,531210,16671,2005,84,1,1,1,2,1,2,0,N,16709,264000,0,264000,198000,0,0,0.75,0,2520,19229
P I F,2787324010,MEGA RENT A CAR INC A CALIFORN,LOS ANGELES,CA,90045,BANK OF AMERICA CALIFORNIA N.A,CA,532111,14292,1999,84,3,1,2,5,1,0,0,N,14334,10000,0,10000,5000,0,0,0.5,0,2520,16854
CHGOFF,2633515001,WILLIAM J HAVERLY ASSOCIATES,GLENDALE,CA,91203,WELLS FARGO BANK NATL ASSOC,SD,531210,17391,2007,57,8,1,0,8,0,1,Y,N,17409,52300,0,25000,12500,0,0,0.5,0,1710,19119
P I F,8509513009,M.A. CIRILLO & ASSOCIATES,SANTA ANA,CA,92701,CDC SMALL BUS. FINAN CORP,CA,531190,12978,1995,240,13,1,9,4,1,0,N,N,13249,105000,0,105000,105000,0,1,1,0,7200,20449
CHGOFF,4414993001,U-SAVE AUTO RENTAL,SAN MARCOS,CA,92069,GE CAP. SMALL BUS. FINAN CORP,TX,532111,11408,1991,31,1,2,0,0,1,0,N,N,11442,60000,0,60000,54000,1,0,0.9,0,930,12372
CHGOFF,2578625006,"Hands In The Cookie Jar, LLC",OAKLAND,CA,94606,BANK OF AMERICA NATL ASSOC,NC,531390,17364,2007,73,7,1,1,7,0,1,Y,N,17378,82500,0,75000,37500,0,0,0.5,0,2190,19568
P I F,6479624002,JOHN W HIBBARD AND LINDA LEE,SAN JOSE,CA,95126,BRIDGE BANK NATL ASSOC,CA,531320,15895,2003,300,21,1,0,21,1,1,0,N,15978,150000,0,150000,127500,0,1,0.85,0,9000,24978
P I F,6770984000,FIRST AMERICAN REAL ESTATE,SAN BERNARDINO,CA,92405,WILSHIRE BANK,CA,531210,15986,2004,300,4,1,4,0,1,1,0,N,16039,135000,0,135000,114750,0,1,0.85,0,9000,25039
P I F,2066455010,JOHN H REDDOCH,WOODLAND,CA,95695,U.S. BANK NATIONAL ASSOCIATION,OH,531210,17086,2007,84,1,1,0,1,0,1,Y,N,17135,62758,0,33000,16500,0,0,0.5,0,2520,19655
P I F,3769344006,GARRETT BUS & LIMOUSINE,SHINGLE SPRINGS,CA,95682,UMPQUA BANK,CA,532111,14762,2000,60,1,1,0,1,1,1,0,N,14791,25200,0,25200,20160,0,0,0.8,0,1800,16591
P I F,7473154007,M G DIGITAL INC,CULVER CITY,CA,90230,BANK OF AMERICA NATL ASSOC,NC,532490,16217,2004,84,2,1,0,2,1,1,Y,N,16314,50000,0,50000,25000,0,0,0.5,0,2520,18834
P I F,2909966005,ALL AMERICAN REAL ESTATE AND M,STANTON,CA,90680,"READYCAP LENDING, LLC",CA,531210,17370,2007,300,12,1,12,0,1,1,0,N,17409,1048000,0,1048000,786000,0,1,0.75,0,9000,26409
CHGOFF,2763436006,A.O REAL ESTATE GROUP INC,CHULA VISTA,CA,91913,AURORA BANK FSB,CO,531120,17275,2007,283,1,1,0,1,1,1,0,N,17286,373100,0,373100,279825,0,1,0.75,0,8490,25776
CHGOFF,2826415002,FUN 2 GO,WESTMINSTER,CA,92683,BANCO POPULAR NORTH AMERICA,NY,532292,17493,2008,3,8,1,0,8,0,1,Y,N,17531,79800,0,50000,25000,0,0,0.5,1,90,17621
CHGOFF,2616455005,Your Dream Home Mortgage DBA Y,GARDEN GROVE,CA,92844,BANK OF AMERICA NATL ASSOC,NC,531210,17381,2007,41,4,1,0,4,0,1,Y,N,17409,72500,0,35000,17500,0,0,0.5,0,1230,18639
P I F,7327534005,FUNDAMERICA FINANCIAL SERVICES,SANTA ANA,CA,92701,CDC SMALL BUS. FINAN CORP,CA,531390,16166,2004,240,20,1,10,0,1,1,N,N,16266,371000,0,372000,372000,0,1,1,0,7200,23466
CHGOFF,8752914007,ESTATE HOMES LA INC,WEST HOLLYWOOD (BR. P.O. NAME,CA,90069,WELLS FARGO BANK NATL ASSOC,SD,531210,16526,2005,84,1,1,0,1,1,1,Y,N,16556,320361,0,60000,30000,0,0,0.5,0,2520,19076
P I F,5754074004,SAMARTIF LLC,LOS ANGELES,CA,90007,BANK OF AMERICA NATL ASSOC,NC,532310,15615,2003,84,3,1,2,3,1,1,Y,N,15736,50000,0,50000,25000,0,0,0.5,0,2520,18256
P I F,2943056007,CENTRO FINANCIERO AMIGO AND CE,HUNTINGTON PARK,CA,90255,AMERICAS UNITED BANK,CA,531210,17392,2007,264,25,1,5,20,1,1,0,N,17409,1596200,0,1596200,1197150,0,1,0.75,0,7920,25329
P I F,7281434003,ALOTTA H20 WATER TRUCK SERVICE,YORBA LINDA,CA,92887,CAPITAL ONE NATL ASSOC,VA,532412,16149,2004,84,6,1,1,6,1,1,0,N,16191,50000,0,50000,25000,0,0,0.5,0,2520,18711
CHGOFF,1750875009,Master Realty,LOS ANGELES,CA,90005,BANK OF AMERICA NATL ASSOC,NC,531210,16896,2006,35,1,1,0,1,0,1,Y,N,17013,12414,0,10000,5000,0,0,0.5,1,1050,18063
CHGOFF,2498586003,REALTY HORIZON INC,GRANADA HILLS,CA,91344,"CITIBANK, N.A.",SD,531390,17101,2007,56,2,1,0,2,1,1,Y,N,17135,34307,0,25000,12500,0,0,0.5,0,1680,18815
CHGOFF,2910385009,"Centers Dynamic, Inc.",REDWOOD SHORES,CA,94065,BANK OF AMERICA NATL ASSOC,NC,531311,17548,2008,39,6,1,0,6,0,1,Y,N,17622,121526,0,50000,25000,0,0,0.5,0,1170,18792
P I F,6601024004,VILLAGE FINANCIAL GROUP INC,EL DORADO HILLS,CA,95762,SBA - EDF ENFORCEMENT ACTION,CO,531390,15935,2003,240,3,1,6,0,1,1,0,N,16021,284000,0,284000,284000,0,1,1,0,7200,23221
P I F,3396193009,PREMIER VIDEO,MISSION VIEJO,CA,92691,FIRST BANK,MO,532230,10654,1989,120,10,2,0,0,0,0,N,N,10712,252000,0,252000,214200,1,0,0.85,0,3600,14312
P I F,4220774003,MOUNTAIN LAKE PROPERTIES INC,BIG BEAR,CA,92315,"CITIBANK, N.A.",SD,531210,14993,2001,300,3,1,7,10,1,1,0,N,15006,306000,0,306000,229500,0,1,0.75,0,9000,24006
P I F,2300945003,Rex Joshua Hahn (EPC) to Zion,Bellflower,CA,90706,HANMI BANK,CA,531210,17224,2007,268,14,1,0,14,0,1,N,N,17256,481500,0,481500,361125,0,1,0.75,0,8040,25296
P I F,4892334003,EZ RENTALS CENTER,MONTCLAIR,CA,91763,NATIONAL BANK OF CALIFORNIA,CA,532310,15225,2001,120,23,1,0,23,1,1,0,N,15248,250000,0,250000,187500,0,0,0.75,0,3600,18848
CHGOFF,2176186009,HELP U SELL DISTINCTIVE HOMES,SAN DIEGO,CA,92116,MUFG UNION BANK NATL ASSOC,CA,531210,16975,2006,29,2,1,0,2,37481,1,Y,N,16982,115984,0,40000,20000,0,0,0.5,1,870,17852
P I F,1899965010,Empire Realty Funding & Invest,LONG BEACH,CA,90804,BANK OF AMERICA NATL ASSOC,NC,531210,16981,2006,84,3,2,0,3,0,2,Y,N,18109,5000,0,5000,2500,1,0,0.5,0,2520,20629
P I F,4947394008,LEE & ASSOCIATES COMMERCIAL RE,CARLSBAD,CA,92008,CDC SMALL BUS. FINAN CORP,CA,531390,15245,2001,240,30,1,5,25,1,1,N,N,15440,1000000,0,1000000,1000000,0,1,1,0,7200,22640
P I F,3478233001,MR. VIDEO,SACRAMENTO,CA,95825,FDIC/PLACER BANK OF COMMERCE,NY,532230,10785,1989,84,10,2,0,0,0,0,N,N,10804,200000,0,200000,170000,1,0,0.85,0,2520,13324
P I F,2797645001,FLORES PROFESSIONAL SERVICES I,SAN JOSE,CA,95112,"SUPERIOR FINANCIAL GROUP, LLC",CA,531210,17476,2008,109,3,1,4,3,0,1,N,N,17500,12500,0,12500,10625,0,0,0.85,0,3270,20770
CHGOFF,2581815005,"Doblin, Inc dba Doblin Solutio",VALLEY VILLAGE,CA,91607,BANK OF AMERICA NATL ASSOC,NC,531311,17365,2007,57,3,1,0,3,0,1,N,N,17378,77513,0,37000,18500,0,0,0.5,0,1710,19088
CHGOFF,6624034010,SOUL CITY VIDEO RENTALS,LOS ANGELES,CA,90037,BBCN BANK,CA,532230,15942,2003,79,1,1,1,1,1,0,0,N,15948,5000,0,5000,4250,0,0,0.85,0,2370,18318
CHGOFF,2682265005,Facilities Security Services,DEL MAR,CA,92014,BANK OF AMERICA NATL ASSOC,NC,531311,17415,2007,78,3,1,0,3,0,1,T,N,17439,50000,0,50000,25000,0,0,0.5,0,2340,19779
P I F,2124735010,Luxor International A.V. Corpo,SAN MATEO,CA,94404,U.S. BANK NATIONAL ASSOCIATION,OH,532490,17119,2007,84,1,2,2,3,0,1,Y,N,17135,102653,0,33000,16500,1,0,0.5,0,2520,19655
CHGOFF,2122996010,KEITH ANDERSON INC,PETALUMA,CA,94954,JPMORGAN CHASE BANK NATL ASSOC,IL,531311,16958,2006,58,2,1,0,2,1,2,Y,N,16982,67146,0,25000,12500,0,0,0.5,0,1740,18722
P I F,6358294003,ELITE REALTY INC,SAN DIEGO,CA,92130,BANK OF AMERICA NATL ASSOC,NC,531210,15854,2003,84,1,1,2,1,1,1,Y,N,16070,10000,0,10000,5000,0,0,0.5,0,2520,18590
P I F,9097334007,ADVANCED CONCEPTS ENTERPRISES,REDONDO BEACH,CA,90277,AURORA BANK FSB,CO,531210,16692,2005,250,1,1,0,1,1,1,0,N,16709,604000,0,604000,453000,0,1,0.75,0,7500,24209
P I F,8502044003,CALCOM REALTY AND OC HOME IMPR,MURRIETA,CA,92563,CALIFORNIA BANK & TRUST,CA,531210,16456,2005,300,2,1,1,3,1,1,0,N,16556,178000,0,178000,133500,0,1,0.75,0,9000,25556
P I F,3743664010,RENT-A-WRECK,SAN DIEGO,CA,92102,CDC SMALL BUS. FINAN CORP,CA,532111,14746,2000,240,6,1,4,6,1,1,N,N,14866,129000,0,129000,129000,0,1,1,0,7200,22066
CHGOFF,1615735010,Ronald L. Roberts dba Realty E,Sacramento,CA,95831,CALIFORNIA BANK & TRUST,CA,531210,16814,2006,46,7,1,0,7,0,1,Y,N,16832,85000,0,50000,25000,0,0,0.5,0,1380,18212
CHGOFF,2230636004,REZADO'S PARTY SUPPLY,MORENO,CA,92553,"CITIBANK, N.A.",SD,532299,16995,2006,61,2,1,0,2,1,1,Y,N,17013,14950,0,10000,5000,0,0,0.5,0,1830,18843
P I F,6433283005,WALT'S TV & VIDEO,SAN LEANDRO,CA,94577,BANK OF AMERICA CALIFORNIA N.A,CA,532230,12501,1994,60,7,1,0,0,1,0,N,N,12538,58000,0,58000,40600,0,0,0.7,0,1800,14338
P I F,5377614004,MARTIN LEASING CO,BEVERLY GLEN,CA,90212,COMERICA BANK,TX,532420,15463,2002,300,13,1,0,13,1,1,0,N,15491,925000,0,925000,693750,0,1,0.75,0,9000,24491
CHGOFF,8958064007,CARVEL CINNABON,FOLSOM,CA,95630,WELLS FARGO BANK NATL ASSOC,SD,532490,16616,2005,110,1,2,9,1,15100,1,0,N,16740,356778,0,360100,270075,1,0,0.75,0,3300,20040
CHGOFF,6268354004,PUSAN VIDEO,OAKLAND,CA,94612,HANMI BANK,CA,532230,15818,2003,96,3,1,0,0,1,1,0,Y,15886,110000,0,110000,93500,0,0,0.85,0,2880,18766
P I F,4952894010,ISLETON VIDEO & GIFTS,ISLETON,CA,95641,UMPQUA BANK,CA,532230,15246,2001,84,1,1,1,1,1,2,0,N,15279,25000,0,25000,21250,0,0,0.85,1,2520,17799
P I F,4350254009,MUNKA INC,BERKELEY,CA,94710,WELLS FARGO BANK NATL ASSOC,CA,532490,15039,2001,60,4,1,0,4,1,1,Y,N,15065,35000,0,35000,17500,0,0,0.5,0,1800,16865
CHGOFF,2797035006,"INVESTMENTS BY DEARDEN2.COM, I",DESERT HOT SPRINGS,CA,92240,CAPITAL ONE NATL ASSOC,VA,531210,17476,2008,60,1,1,0,1,0,1,Y,N,17500,132578,0,50000,25000,0,0,0.5,0,1800,19300
P I F,6079414010,OCEANVIEW REALTY,OCEANSIDE,CA,92054,CDC SMALL BUS. FINAN CORP,CA,531210,15742,2003,240,4,1,2,4,1,1,N,N,15839,256000,0,256000,256000,0,1,1,0,7200,23039
P I F,4440704006,CACCAMISE ENTERPRISES,SAN DIEGO,CA,92109,CITY NATIONAL BANK,CA,531311,15077,2001,120,12,1,0,0,1,1,N,N,15126,270000,0,270000,202500,0,0,0.75,0,3600,18726
CHGOFF,9091404003,STAGE STOP RANCH & LAND,CALIENTE,CA,93518,WELLS FARGO BANK NATL ASSOC,SD,531210,16688,2005,23,4,1,0,4,1,2,Y,N,16982,81868,0,30000,15000,0,0,0.5,1,690,17672
P I F,8913294002,COLDWELL BANKER TOWNE AND COUN,MIDDLETOWN,CA,95461,BAY AREA EMPLOYMENT DEVEL CO,CA,531210,16595,2005,240,35,1,10,0,18000,2,0,N,16903,171000,0,179000,179000,0,1,1,0,7200,24103
P I F,4094194004,NEUMAN & NEUMAN REAL ESTATE,SAN DIEGO,CA,92101,CDC SMALL BUS. FINAN CORP,CA,531210,14943,2001,240,15,1,5,15,1,1,N,N,15503,536000,0,536000,536000,0,1,1,0,7200,22703
P I F,6482844010,OMNI VIDEO,LA HABRA,CA,90631,HANMI BANK,CA,532230,15896,2003,60,2,1,0,2,1,1,0,N,15948,45000,0,45000,22500,0,0,0.5,1,1800,17748
P I F,4378414000,REZA AMIN MARY T COLEY AND MOH,LOS ANGELES,CA,90006,CITIZENS BUSINESS BANK,CA,532230,15050,2001,300,35,1,0,35,1,1,0,N,15095,333000,0,333000,249750,0,1,0.75,0,9000,24095
P I F,9798084007,BRADLEY'S BOUNCIES,MISSION VIEJO,CA,92692,JPMORGAN CHASE BANK NATL ASSOC,IL,532292,16828,2006,84,2,1,0,2,1,2,Y,N,16921,34817,0,21000,10500,0,0,0.5,0,2520,19441
P I F,1206515002,Personalized Property Manageme,BEVERLY HILLS,CA,90210,BANK OF AMERICA NATL ASSOC,NC,531312,16491,2005,84,2,1,1,2,1,1,Y,N,16526,19700,0,10000,5000,0,0,0.5,0,2520,19046
CHGOFF,2234775001,Millineums Central,COMPTON,CA,90222,BANK OF AMERICA NATL ASSOC,NC,531311,17189,2007,57,2,1,0,2,0,1,N,N,17197,89000,0,50000,25000,0,0,0.5,0,1710,18907
P I F,7660724007,TRINITY RIVER REALTY/REALTY WO,WEAVERVILLE,CA,96093,NORTH VALLEY BANK,CA,531210,16285,2004,300,6,1,0,0,1,2,0,N,16344,130000,0,130000,110500,0,1,0.85,0,9000,25344
CHGOFF,2546246001,E & M PEGASUS INVESTMENT GROUP,IRVINE,CA,92618,SOUTHLAND ECONOMIC DEVEL CORP,CA,531210,17129,2007,240,10,1,7,10,1,1,0,N,17302,322000,0,322000,322000,0,1,1,0,7200,24502
P I F,6202364004,SUNSHINE RENTALS,VISTA,CA,92083,CDC SMALL BUS. FINAN CORP,CA,532310,15791,2003,240,15,1,15,15,1,1,N,N,15902,422000,0,422000,422000,0,1,1,0,7200,23102
P I F,2713416002,PACIFIC SHORE FINANCE,ORANGE,CA,92868,CDC SMALL BUS. FINAN CORP,CA,531210,17239,2007,240,17,1,5,0,1,1,0,N,17302,720000,0,720000,720000,0,1,1,0,7200,24502
CHGOFF,2456296001,ENVIRIAN EAST BAY,WALNUT CREEK,CA,94597,WELLS FARGO BANK NATL ASSOC,SD,531210,17078,2007,98,2,2,2,2,28233,1,0,N,17225,251000,0,251000,188250,1,0,0.75,0,2940,20165
CHGOFF,2907016009,PRIDENET.NET,BREA,CA,92821,"CITIBANK, N.A.",SD,531210,17367,2007,75,6,1,1,6,1,1,Y,N,17409,79860,0,50000,25000,0,0,0.5,0,2250,19659
CHGOFF,3291005005,MONUMENTAL REALTY AND LENDING,PALMDALE,CA,93551,"SUPERIOR FINANCIAL GROUP, LLC",CA,531210,17889,2009,92,2,1,2,2,0,1,N,N,17897,7500,0,7500,6375,0,0,0.85,0,2760,20657
CHGOFF,3322135002,ESCROW L.A. INC,SANTA MONICA,CA,90272,"SUPERIOR FINANCIAL GROUP, LLC",CA,531390,17946,2009,120,3,1,0,3,0,1,N,N,17956,5000,0,5000,4250,0,0,0.85,0,3600,21556
P I F,7964164004,SAN FERNANDO REALTY INC,SYLMAR,CA,91342,NATIONAL BANK OF CALIFORNIA,CA,531210,16364,2005,300,5,1,5,10,1,1,0,N,16375,640000,0,640000,480000,0,1,0.75,0,9000,25375
P I F,2632905009,MAN S KIM REAL ESTATE,SANTA CLARA,CA,95051,U.S. BANK NATIONAL ASSOCIATION,OH,531210,17391,2007,84,6,1,0,6,0,1,Y,N,17409,29672,0,15000,7500,0,0,0.5,0,2520,19929
CHGOFF,2716366006,QUACH HOLDINGS LLC,SAN DIEGO,CA,92130,"CITIBANK, N.A.",SD,531210,17241,2007,84,2,1,2,2,1,1,Y,N,17256,18238,0,10000,5000,0,0,0.5,0,2520,19776
P I F,3444925001,Central Valley Property Manage,TURLOCK,CA,95382,U.S. BANK NATIONAL ASSOCIATION,OH,531311,18049,2009,84,7,1,0,7,0,2,Y,N,18109,50570,0,30000,15000,0,0,0.5,0,2520,20629
P I F,4582364006,"ZIGANTI, S/R & VICKNER, F/M",SCOTTS VALLEY,CA,95066,HERITAGE BANK OF COMMERCE,CA,531210,15141,2001,300,6,1,0,6,1,1,0,N,15156,280000,0,350000,262500,0,1,0.75,0,9000,24156
CHGOFF,2266465007,"EventRents, Inc.",Ventura,CA,93003,MUFG UNION BANK NATL ASSOC,CA,532299,17205,2007,84,16,1,0,16,0,1,Y,N,17225,37500,0,25000,12500,0,0,0.5,0,2520,19745
P I F,9672394000,MT VIDEO,FRESNO,CA,93728,WELLS FARGO BANK NATL ASSOC,CA,532230,16814,2006,60,1,1,0,1,1,1,Y,N,17044,30300,0,30000,15000,0,0,0.5,0,1800,18844
CHGOFF,2010596003,F AND F FINANCIAL SERVICES,MURRIETA,CA,92562,CALIFORNIA BANK & TRUST,CA,531210,16933,2006,259,2,1,2,2,1,1,0,N,17013,502530,0,521538,391153,0,1,0.749999041,0,7770,24783
P I F,1933915000,NORTHSTAR REALTY GROUP & INVES,HAWAIIAN GARDENS,CA,90716,CAPITAL ONE NATL ASSOC,VA,531210,17006,2006,84,2,1,0,2,0,1,N,N,17074,100000,0,100000,50000,0,0,0.5,0,2520,19594
P I F,6460864004,KURT MOTEL MANAGEMENT,VICTORVILLE,CA,92392,BANK OF AMERICA NATL ASSOC,NC,531312,15887,2003,84,1,1,0,1,1,1,Y,N,15978,10000,0,10000,5000,0,0,0.5,0,2520,18498
P I F,1340535009,"Mathis & Associates, Inc.",ROSEVILLE,CA,95678,BANK OF AMERICA NATL ASSOC,NC,531210,16603,2005,55,3,1,0,3,1,1,T,N,16679,109000,0,50000,25000,0,0,0.5,0,1650,18329
CHGOFF,7107714009,MEGA VALUE VIDEO,SUN VILLAGE,CA,91306,BANK OF AMERICA NATL ASSOC,NC,532230,16090,2004,20,6,1,0,6,1,1,N,N,16161,100000,0,50000,25000,0,0,0.5,0,600,16761
CHGOFF,6331234007,EUROHOUSE & YUMBO ENTERPRISES,TOLUCA LAKE,CA,91602,BANK OF AMERICA NATL ASSOC,NC,531390,15845,2003,58,8,1,1,8,1,1,Y,N,15886,49950,0,50000,25000,0,0,0.5,1,1740,17626
P I F,5791764009,KHC INC,LOS ANGELES,CA,90068,BANK OF AMERICA NATL ASSOC,NC,531210,15634,2003,84,1,1,0,1,1,1,Y,N,15674,40000,0,40000,20000,0,0,0.5,0,2520,18194
P I F,3685855005,"JANICE FASHION, INC.",LOS ANGELES,CA,90007,BBCN BANK,CA,531120,18178,2010,300,5,1,2,7,0,1,N,N,18178,580000,0,580000,522000,0,1,0.9,0,9000,27178
P I F,7499584005,WISHON MANAGEMENT,WOODLAND HILLS,CA,91364,BANK OF AMERICA NATL ASSOC,NC,531210,16226,2004,84,2,2,0,2,1,1,Y,N,16405,20000,0,10000,5000,1,0,0.5,0,2520,18925
P I F,7963274000,VIDEO ALL STARS,GRANADA HILLS,CA,91344,BBCN BANK,CA,532230,16364,2005,24,3,1,3,3,1,1,Y,N,16436,100000,0,100000,50000,0,0,0.5,0,720,17156
P I F,1585095006,Norair Youssefian,Glendale,CA,91205,WELLS FARGO BANK NATL ASSOC,CA,531210,16789,2006,300,4,1,4,8,0,1,N,N,16832,952000,0,952000,714000,0,1,0.75,0,9000,25832
P I F,5113304001,CINDY ANN BARATTA,TUSTIN,CA,92780,OPUS BANK,CA,531210,15327,2002,300,5,1,0,5,1,1,0,N,15371,148500,0,148500,126225,0,1,0.85,0,9000,24371
P I F,4294993006,WEST COAST VIDEO/LANPY ENTERPR,AGOURA HILLS,CA,91301,GE CAP. SMALL BUS. FINAN CORP,TX,532230,11263,1991,120,6,2,0,0,88407,0,N,N,11534,200000,0,200000,170000,1,0,0.85,0,3600,15134
CHGOFF,2721965007,"Cha' De' L Associates, LLC.",SALINAS,CA,93905,BANK OF AMERICA NATL ASSOC,NC,531210,17434,2007,57,1,2,0,1,0,1,Y,N,17470,7500,0,5000,2500,1,0,0.5,0,1710,19180
CHGOFF,3191624010,VIDEO GALAXY,SACRAMENTO,CA,95842,TRI COUNTIES BANK,CA,532230,14508,1999,93,3,2,0,0,1,1,0,Y,14578,65000,0,65000,52000,1,0,0.8,0,2790,17368
CHGOFF,1063815000,California Percussion LLC,SOUTH SAN FRANCISCO,CA,94080,BANK OF AMERICA NATL ASSOC,NC,532299,16334,2004,84,3,1,0,0,1,1,Y,N,16344,25530,0,20000,10000,0,0,0.5,0,2520,18864
CHGOFF,2611415005,PACIFIC QUEST MORTGAGE INC,SAN DIEGO,CA,92128,WELLS FARGO BANK NATL ASSOC,SD,531210,17379,2007,70,15,2,4,19,0,1,Y,N,17439,52103,0,35000,17500,1,0,0.5,0,2100,19539
CHGOFF,7136054000,HOMEWARD BOUND,LA MESA,CA,91942,BANK OF AMERICA NATL ASSOC,NC,531210,16100,2004,31,1,1,0,1,1,1,T,N,16130,17000,0,17000,8500,0,0,0.5,0,930,17060
CHGOFF,7017704002,SOUTH COAST RENT A CAR,NEWPORT BEACH,CA,92660,BANK OF AMERICA NATL ASSOC,NC,532111,16049,2004,29,9,1,0,9,1,1,Y,N,16070,50000,0,50000,25000,0,0,0.5,0,870,16940
CHGOFF,2097875010,"JOHN GRAHAM REALTORS, INC.",PALM SPRINGS,CA,92264,CAPITAL ONE NATL ASSOC,VA,531210,17105,2007,67,1,1,1,1,0,1,N,N,17166,35000,0,35000,17500,0,0,0.5,0,2010,19176
CHGOFF,5759904003,1 AM WORLD EXPRESS 2 AM WORLD,LAWNDALE,CA,90260,HANMI BANK,CA,532111,15617,2003,300,12,1,0,12,1,1,0,N,15705,562500,0,562500,421875,0,1,0.75,0,9000,24705
CHGOFF,8569404009,VIDEO CITY,DAVIS,CA,95616,GOLDEN PACIFIC BANK NATL ASSOC,CA,532230,16470,2005,52,3,2,0,0,1,1,0,Y,16556,85000,0,85000,72250,1,0,0.85,0,1560,18116
P I F,4348705010,RD Realty Services,EUREKA,CA,95501,U.S. BANK NATIONAL ASSOCIATION,OH,531210,18569,2011,84,2,1,0,2,0,2,Y,N,18569,12781,0,10000,5000,0,0,0.5,0,2520,21089
CHGOFF,1943516009,TOTAL SERVICES REALTY,TOPANGA,CA,90503,"CITIBANK, N.A.",SD,531210,16925,2006,60,10,1,2,10,1,1,Y,N,16982,110000,0,100000,50000,0,0,0.5,0,1800,18782
P I F,4401163000,LEASEMOBILE,SONORA,CA,95370,INNOVATIVE BANK,CA,532112,11394,1991,300,2,1,0,0,1,0,N,N,11442,240000,0,240000,204000,0,1,0.85,0,9000,20442
CHGOFF,9273844007,1ST COMPUTER & NETWORK SOLUTIO,OAKDALE,CA,95361,JPMORGAN CHASE BANK NATL ASSOC,IL,532420,16755,2006,56,2,1,1,2,1,2,Y,N,16770,60046,0,30000,15000,0,0,0.5,0,1680,18450
CHGOFF,4610264009,PRUDENTIAL CALIFORNIA REALTY,GLENDALE,CA,91201,CALIFORNIA STATEWIDE CERT. DEV,CA,531210,15153,2001,240,55,1,40,0,67219,1,0,N,15265,1000000,0,1000000,1000000,0,1,1,0,7200,22465
P I F,9165874008,CARDINAL & GOLD REAL ESTATE SE,DOWNEY,CA,90240,ADVANTAGE CERT. DEVEL CORP,CA,531210,16722,2006,240,5,1,65,0,1,1,0,N,16938,1152000,0,1152000,1152000,0,1,1,0,7200,24138
P I F,7081354009,SOURCE LIGHTING & GRIP RENTALS,LOS ANGELES,CA,90038,CALIFORNIA BANK & TRUST,CA,532490,16072,2004,300,5,1,0,5,1,1,0,N,16130,450000,0,450000,337500,0,1,0.75,0,9000,25130
CHGOFF,2435325002,BETTER BUSINESS CONCEPTS INC.,HESPERIA,CA,92344,U.S. BANK NATIONAL ASSOCIATION,OH,531390,17290,2007,68,3,1,0,3,0,1,Y,N,17317,72676,0,50000,25000,0,0,0.5,0,2040,19357
CHGOFF,2932065008,ELIZABETH CHRISTINA MADRID DBA,TULARE,CA,93274,CAPITAL ONE NATL ASSOC,VA,531210,17561,2008,44,5,1,0,5,0,1,Y,N,17622,114584,0,50000,25000,0,0,0.5,0,1320,18942
P I F,1097055006,Artur Ambarachyan dba Millenni,GLENDALE,CA,91208,BANK OF AMERICA NATL ASSOC,NC,531210,16378,2005,84,4,1,0,0,1,1,Y,N,16405,25000,0,25000,12500,0,0,0.5,0,2520,18925
P I F,2561485005,REGINA GAIL BELLAMY DBA ELITE,SACRAMENTO,CA,95828,CAPITAL ONE NATL ASSOC,VA,531210,17357,2007,84,1,1,1,1,0,1,N,N,17378,15000,0,15000,7500,0,0,0.5,0,2520,19898
CHGOFF,2259535006,"Casper Investments, Inc.",NORCO,CA,92860,BANK OF AMERICA NATL ASSOC,NC,531210,17202,2007,62,6,1,0,6,0,1,N,N,17225,55000,0,35000,17500,0,0,0.5,0,1860,19085
P I F,3594804010,THOMAS ASSOCIATES,VENTURA (CORPORATE NAME SAN BU,CA,93003,FIRST BANK,CA,531210,14658,2000,300,6,1,6,6,1,1,0,N,14700,348000,0,348000,261000,0,1,0.75,0,9000,23700
P I F,2431515003,"Investment Made EZ, Corporatio",MORENO VALLEY,CA,92557,BANK OF AMERICA NATL ASSOC,NC,531390,17288,2007,84,4,2,0,4,0,1,Y,N,17347,8500,0,4500,2250,1,0,0.5,0,2520,19867
CHGOFF,9064614001,A & S RENT A CAR,INGLEWOOD,CA,90301,WELLS FARGO BANK NATL ASSOC,SD,532111,16673,2005,5,5,1,0,5,1,1,Y,N,16709,466981,0,95000,47500,0,0,0.5,0,150,16859
P I F,3565363003,U-SAVE AUTO RENTAL,INGLEWOOD,CA,90301,CATHAY BANK,CA,532112,10892,1990,240,1,1,0,0,1,0,N,N,10988,270000,0,270000,229500,0,1,0.85,0,7200,18188
CHGOFF,5346384004,STEVENSON SUPPLY & TRACTOR CO,SANTA ROSA,CA,95403,UMPQUA BANK,OR,532412,15448,2002,252,14,1,2,14,1,1,0,N,15552,300000,0,300000,225000,0,1,0.75,0,7560,23112
P I F,1006295003,Ronald Lee Roberts,SACRAMENTO,CA,95831,CALIFORNIA BANK & TRUST,CA,531210,15813,2003,84,1,1,0,0,1,0,Y,N,15825,55825,0,50000,25000,0,0,0.5,0,2520,18345
CHGOFF,2596705010,BAYWEST EQUITIES INC,SAN DIEGO,CA,92108,"SUPERIOR FINANCIAL GROUP, LLC",CA,531390,17372,2007,107,28,1,0,28,0,1,N,N,17378,12500,0,12500,10625,0,0,0.85,0,3210,20588
P I F,8398353005,NEIGHBOR VIDEO,SAN PABLO,CA,94804,LOANS FROM OLD CLOSED LENDERS,DC,532230,12940,1995,300,3,1,0,0,1,0,0,N,12995,156000,0,156000,109200,0,1,0.7,0,9000,21995
CHGOFF,8539804010,Reynaldo C Munive,CHINO,CA,91730,CDC SMALL BUS. FINAN CORP,CA,531210,16463,2005,240,5,1,7,0,1,1,0,N,16812,373000,0,388000,388000,0,1,1,0,7200,24012
P I F,2631785008,Sang Yong Lee (EPC) to assist,Glendale,CA,91205,WILSHIRE BANK,CA,531120,17388,2007,300,2,1,0,2,0,1,N,N,17409,1400000,0,1400000,1050000,0,1,0.75,0,9000,26409
P I F,3278285003,"Andrew P. Kurtz and KDME, Inc.",SAN DIEGO,CA,92109,U.S. BANK NATIONAL ASSOCIATION,OH,532292,17870,2009,108,20,1,0,20,0,1,N,N,17897,2000000,0,2000000,1500000,0,0,0.75,0,3240,21137
P I F,2439566008,LAKE HAVASU HOUSEBOATS LLC,HERMOSA BEACH,CA,90254,WELLS FARGO BANK NATL ASSOC,SD,532292,17071,2006,55,7,1,0,7,1,1,Y,N,17105,55550,0,50000,25000,0,0,0.5,0,1650,18755
CHGOFF,1183175003,WILLIAM B BARILLARO DBA COACH,BURBANK,CA,91502,CAPITAL ONE NATL ASSOC,VA,532120,16471,2005,28,1,1,0,1,1,1,Y,N,16587,58945,0,15000,7500,0,0,0.5,0,840,17427
CHGOFF,2665785006,MOUNT REAL ESTATE SERVICES INC,LAKE ELSINORE,CA,92530,WELLS FARGO BANK NATL ASSOC,SD,531210,17406,2007,74,4,1,2,6,0,1,Y,N,17439,28010,0,15000,7500,0,0,0.5,0,2220,19659
CHGOFF,2097826002,SO-CAL A/V,LOS ANGELES,CA,90045,JPMORGAN CHASE BANK NATL ASSOC,IL,532210,16952,2006,55,1,1,0,1,1,2,Y,N,16982,58725,0,30000,15000,0,0,0.5,0,1650,18632
P I F,7752104006,NORTH BAY COMMERCIAL REAL ESTA,SANTA ROSA,CA,95404,UMPQUA BANK,OR,531210,16315,2004,300,17,1,0,17,1,1,0,N,16344,1340000,0,1340000,1005000,0,1,0.75,0,9000,25344
P I F,4475644001,CENTURY 2000 REAL ESTATE CORP,MONTEBELLO,CA,90640,U.S. BANK NATIONAL ASSOCIATION,OH,531210,15092,2001,300,1,1,0,1,1,1,0,N,15126,220000,0,220000,165000,0,1,0.75,0,9000,24126
CHGOFF,2302585006,ALLIANCE FUNDING,GRANADA HILLS,CA,91344,CAPITAL ONE NATL ASSOC,VA,531210,17225,2007,68,1,1,0,1,0,1,N,N,17256,50000,0,50000,25000,0,0,0.5,0,2040,19296
CHGOFF,6457514003,AZB FINANCIAL GROUP INC,SAN DIMAS,CA,91342,BANK OF AMERICA NATL ASSOC,NC,531210,15887,2003,84,20,1,5,20,1,1,Y,N,15978,20000,0,20000,10000,0,0,0.5,0,2520,18498
P I F,1912144010,H & B AUTO RENTAL AND SOUTH BA,TORRANCE,CA,90505,WELLS FARGO BANK NATL ASSOC,SD,532111,13955,1998,109,6,1,0,0,1,0,0,N,14122,808600,0,970000,727500,0,0,0.75,0,3270,17392
P I F,5455214009,SOUTH BAY BROKERS INC,MANHATTAN BEACH,CA,90266,PACIFIC WESTERN BANK,CA,531210,15502,2002,300,10,1,2,10,1,1,0,N,15552,1170000,0,1170000,877500,0,1,0.75,0,9000,24552
CHGOFF,2465545010,"Ten Star Funding, Inc.",LONG BEACH,CA,90831,BANK OF AMERICA NATL ASSOC,NC,531210,17304,2007,45,6,1,0,6,0,1,Y,N,17317,51500,0,35000,17500,0,0,0.5,0,1350,18667
CHGOFF,1845285001,Golden Pacific Management Cons,FAIRFIELD,CA,94534,BANK OF AMERICA NATL ASSOC,NC,531210,16951,2006,24,12,1,0,12,0,1,Y,N,17074,77200,0,35000,17500,0,0,0.5,1,720,17794
CHGOFF,2218405006,PIZAZZ PARTY RENTAL,YUBA CITY,CA,95991,U.S. BANK NATIONAL ASSOCIATION,OH,532299,17177,2007,50,2,2,0,2,0,1,Y,N,17197,39274,0,20000,10000,1,0,0.5,0,1500,18697
P I F,1771165007,EVA H. IDRIAN DBA PACIFIC FIRS,SAN FRANCISCO,CA,94133,CAPITAL ONE NATL ASSOC,VA,531210,16909,2006,84,1,1,0,1,0,1,N,N,16952,25000,0,25000,12500,0,0,0.5,0,2520,19472
CHGOFF,2110605005,"KEEP IT SIMPLE, LLC",SAN DIEGO,CA,92116,CAPITAL ONE NATL ASSOC,VA,531210,17112,2007,58,2,1,0,2,0,1,N,N,17166,35000,0,35000,17500,0,0,0.5,0,1740,18906
P I F,1594094001,MONTEREY HOME VIDEO & THE MONT,THOUSAND OAKS,CA,91360,MERRILL LYNCH BANK USA,UT,533110,13787,1997,300,10,1,0,0,1,0,0,N,13969,500000,0,500000,375000,0,1,0.75,0,9000,22969
P I F,2167155002,"BENTLEY CAPITAL, INC.",SAN MATEO,CA,94401,U.S. BANK NATIONAL ASSOCIATION,OH,531210,17143,2007,48,1,1,0,1,0,1,Y,N,17197,339070,0,100000,50000,0,0,0.5,0,1440,18637
P I F,3856125004,"THE DAHM TEAM, INC.",EL CENTRO,CA,92243,COMMUNITY VALLEY BANK,CA,531210,18276,2010,110,4,1,0,4,0,2,N,N,18322,200000,0,200000,180000,0,0,0.9,0,3300,21622
P I F,7186303005,"DICK MARTIN LEASING, INC.",PASADENA,CA,91101,U.S. BANK NATIONAL ASSOCIATION,CA,532112,12592,1994,300,10,1,0,0,1,0,N,N,12630,426000,0,426000,298200,0,1,0.7,0,9000,21630
P I F,4837394007,CLEAR IMAGE COMPANIES LLC,POWAY,CA,92064,MUFG UNION BANK NATL ASSOC,CA,532230,15207,2001,180,8,1,4,8,1,1,0,N,15248,300000,0,300000,225000,0,0,0.75,0,5400,20648
CHGOFF,3610274007,VIDEO OUTLET,REDONDO BEACH,CA,90278,BBCN BANK,CA,532230,14670,2000,110,5,1,0,5,1,1,0,N,14700,65000,0,65000,52000,0,0,0.8,1,3300,18000
P I F,3053985000,Golden Key Escrow Company,SUNLAND,CA,91041,BANK OF AMERICA NATL ASSOC,NC,531390,17640,2008,62,3,2,0,3,0,1,T,N,17683,15000,0,10000,5000,1,0,0.5,0,1860,19543
P I F,5683874010,"ZUVICH CANNON ASSOCIATES, INC",IRVINE,CA,92618,CDC SMALL BUS. FINAN CORP,CA,531210,15594,2002,240,3,2,3,0,1,1,N,N,16357,532000,0,532000,532000,1,1,1,0,7200,23557
P I F,4914304007,COLDWELL BANKER VISTA REALTY,VALENCIA,CA,91355,"CITIBANK, N.A.",CA,531210,15235,2001,300,9,1,0,0,1,1,N,N,15279,614700,0,614700,461025,0,1,0.75,0,9000,24279
P I F,8749854001,CUSTOM PRODUCE SALES,PARLIER,CA,93648,CEN CAL BUSINESS FINANCE GROUP,CA,531190,16525,2005,240,120,1,20,0,1,2,0,N,16875,1999000,0,1999000,1999000,0,1,1,0,7200,24075
P I F,8284514003,345 VIDEO,LOS ANGELES,CA,90061,BBCN BANK,CA,532230,16418,2005,84,1,1,1,1,1,1,0,N,16436,5000,0,5000,4250,0,0,0.85,0,2520,18956
CHGOFF,2032135010,Central Capital Corporation,MONROVIA,CA,91016,U.S. BANK NATIONAL ASSOCIATION,OH,531390,17066,2006,45,6,1,0,6,0,1,Y,N,17105,121612,0,50000,25000,0,0,0.5,0,1350,18455
P I F,1597085000,RMC Financial,HAYWARD,CA,94541,BANK OF AMERICA NATL ASSOC,NC,531210,16798,2006,84,1,2,0,1,0,1,Y,N,16891,65000,0,65000,32500,1,0,0.5,0,2520,19411
P I F,7540694006,"MARSHALL REDDICK REALTY,",IRVINE,CA,92614,SOUTHLAND ECONOMIC DEVEL CORP,CA,531210,16240,2004,240,40,1,25,0,1,1,N,N,16357,1300000,0,1300000,1300000,0,1,1,0,7200,23557
P I F,8451404003,"TOWN & COUNTRY HOME LOANS,INC",RAMONA,CA,92065,BANK OF SOUTHERN CALIFORNIA NA,CA,531210,16448,2005,84,5,1,0,0,1,2,0,Y,16495,100000,0,100000,85000,0,0,0.85,0,2520,19015
CHGOFF,2576945004,"Kee Industries, Inc.",WEST HOLLYWOOD,CA,90069,BANK OF AMERICA NATL ASSOC,NC,531210,17364,2007,70,1,1,0,1,0,1,Y,N,17378,65000,0,35000,17500,0,0,0.5,0,2100,19478
P I F,6002634008,PALM COURT PARTNERS A CALIFORN,SANTA ANA,CA,92706,CALIFORNIA BANK & TRUST,CA,531120,15713,2003,300,8,1,4,8,1,1,0,N,15736,318700,0,318700,239025,0,1,0.75,0,9000,24736
P I F,2455395009,Redstone Investment,LOS ANGELES,CA,90057,BBCN BANK,CA,531210,17301,2007,40,0,2,0,0,0,1,N,N,17317,15000,0,15000,12750,1,0,0.85,0,1200,18517
P I F,6023503007,BLOCKBUSTER VIDEO,SAN CARLOS,CA,94070,WELLS FARGO BANK NATL ASSOC,SD,532230,12353,1994,120,15,2,0,0,10533,0,N,N,12449,397000,0,397000,277900,1,0,0.7,0,3600,16049
P I F,4399405003,Advanced Audio Rentals,Burbank,CA,91502,UNITED MIDWEST SAVINGS BANK,OH,532210,18598,2011,300,6,1,6,12,0,1,N,N,18598,2315000,0,2350000,2115000,0,1,0.9,0,9000,27598
P I F,6646084004,SENS FURNITURE INC,SAN FRANCISCO,CA,94417,BANK OF AMERICA NATL ASSOC,NC,532299,15950,2003,84,2,1,0,2,1,1,Y,N,15978,10000,0,10000,5000,0,0,0.5,0,2520,18498
CHGOFF,4335743009,SOUTH BAY RENT A CAR & LEASING,REDONDO BEACH,CA,90278,FDIC/MISSION VIEJO NATL BK,NY,532111,11324,1991,84,3,1,0,0,1,0,N,N,11442,75000,0,75000,67500,0,0,0.9,0,2520,13962
CHGOFF,5492644008,CALIFORNIA CARPET & DESIGN INC,LOS ANGELES,CA,90015,WILSHIRE BANK,CA,531120,15518,2002,300,2,1,0,2,1,1,0,N,15583,243000,0,243000,182250,0,1,0.75,0,9000,24583
P I F,6972784008,BEA'S PARTY PONIES,OAK HILLS,CA,92345,BANK OF AMERICA NATL ASSOC,NC,532292,16037,2004,84,3,1,0,3,1,1,Y,N,16222,6000,0,6000,3000,0,0,0.5,0,2520,18742
CHGOFF,2485276005,LENDING SOLUTIONS,FOLSOM,CA,95630,AURORA BANK FSB,CO,531210,17094,2007,291,1,1,0,1,1,1,0,N,17135,540000,0,540000,405000,0,1,0.75,0,8730,25865
P I F,2587376001,U-SAVE EQUIPMENT AND TOOL RENT,SAN FRANCISCO,CA,94110,"CAPITAL ACCESS GROUP, INC.",CA,532310,17150,2007,240,40,1,8,0,1,1,0,N,17211,1029000,0,1029000,1029000,0,1,1,0,7200,24411
P I F,1196525000,TR Benefits Insurance Services,DANVILLE,CA,94526,BANK OF AMERICA NATL ASSOC,NC,531210,16482,2005,84,4,1,0,4,1,1,Y,N,16526,58602,0,50000,25000,0,0,0.5,0,2520,19046
CHGOFF,2179075010,LOAN CHALET CORPORATION,ORANGE,CA,92865,CAPITAL ONE NATL ASSOC,VA,531210,17150,2007,65,7,1,2,7,0,1,N,N,17197,100000,0,100000,50000,0,0,0.5,0,1950,19147
P I F,2270186005,URBAN BAY PROPERTIES INC,SAN FRANCISCO,CA,94107,MORTGAGE CAP. DEVEL CORP,CA,531210,17009,2006,240,50,1,15,0,1,1,0,N,17085,341000,0,341000,341000,0,1,1,0,7200,24285
P I F,7335084001,CONTRACTORS EQUIPMENT RENTALS,BAKERSFIELD,CA,93308,BANK OF AMERICA NATL ASSOC,NC,532412,16168,2004,84,7,1,1,7,1,1,Y,N,16252,200000,0,100000,50000,0,0,0.5,0,2520,18772
P I F,2490014010,"MAUMER, INC.",SAN FRANCISCO,CA,94114,GE CAP. SMALL BUS. FINAN CORP,TX,532230,14200,1999,84,5,1,0,5,1,0,0,N,14244,326000,0,326000,244500,0,0,0.75,0,2520,16764
CHGOFF,1331255006,"MWISE, Inc.",WOODLAND HILLS,CA,91364,BANK OF AMERICA NATL ASSOC,NC,531320,16596,2005,36,3,1,0,3,1,1,N,N,16679,187000,0,100000,50000,0,0,0.5,1,1080,17759
P I F,1241275008,"C & D Wellbeloved, Inc. DBA He",PLEASANTON,CA,94588,BANK OF AMERICA NATL ASSOC,NC,531210,16517,2005,84,1,2,0,1,37481,1,Y,N,16556,10000,0,10000,5000,1,0,0.5,0,2520,19076
P I F,5271304007,GOLD KEY FINANCIAL INC.,CHULA VISTA,CA,91910,CDC SMALL BUS. FINAN CORP,CA,531210,15412,2002,240,225,1,75,150,1,1,N,N,15811,711000,0,762000,762000,0,1,1,0,7200,23011
P I F,6197984007,FOUQUETTE CORPORATION,LOS ANGELES,CA,90034,HERITAGE BANK OF COMMERCE,CA,531312,15790,2003,120,5,1,3,5,1,1,0,N,15825,151000,0,151000,113250,0,0,0.75,0,3600,19425
P I F,4008534004,"AIR QUALITY ENGINEERING,INC",IRVINE,CA,92618,WELLS FARGO BANK NATL ASSOC,CA,531120,14899,2001,306,6,1,0,6,1,1,0,N,14914,607000,0,607000,455250,0,1,0.75,0,9180,24094
CHGOFF,2427325002,"GBG Nursery, Inc., a Californi",Hemet,CA,92543,FIRST-CITIZENS BK & TR CO,CA,531120,17287,2007,74,1,2,0,4,0,2,N,N,17317,493800,0,493800,370350,1,0,0.75,0,2220,19537
CHGOFF,2580265004,JEROLD MATTHEW SIMARD DBA INLA,OAK GLEN,CA,92399,CAPITAL ONE NATL ASSOC,VA,531320,17365,2007,73,1,1,1,1,0,1,N,N,17409,35000,0,35000,17500,0,0,0.5,0,2190,19599
P I F,4545634005,MOBILE SAFETY COMPANY,BAKERSFIELD,CA,93308,CALIFORNIA BANK & TRUST,CA,532412,15125,2001,120,9,1,15,9,1,1,0,N,15156,400000,0,400000,300000,0,0,0.75,0,3600,18756
CHGOFF,1831455003,"Direct Access Realty, Inc., db",SAN MATEO,CA,94403,BANK OF AMERICA NATL ASSOC,NC,531210,16943,2006,45,4,1,0,4,0,1,N,N,16952,70015,0,50000,25000,0,0,0.5,0,1350,18302
CHGOFF,7196184006,DYMENSION GROUP INC,SAN JOSE,CA,95125,BANK OF AMERICA NATL ASSOC,NC,531210,16120,2004,25,2,1,1,2,1,1,Y,N,16130,95500,0,100000,50000,0,0,0.5,0,750,16880
CHGOFF,1692995000,Romamer Consulting Corp.,LONG BEACH,CA,90806,BANK OF AMERICA NATL ASSOC,NC,531390,16863,2006,32,2,2,0,2,0,1,Y,N,16891,37064,0,36000,18000,1,0,0.5,1,960,17851
P I F,3635845004,VIDEO FACTORY,ALAMEDA,CA,94501,BBCN BANK,CA,532230,18156,2009,84,3,1,0,3,0,1,N,N,18170,25000,0,25000,22500,0,0,0.9,0,2520,20690
P I F,2874395003,"RIPTIDE ENTERPRISES, INC.",SACRAMENTO,CA,95820,U.S. BANK NATIONAL ASSOCIATION,OH,531311,17520,2008,28,6,1,2,8,0,1,Y,N,17531,28163,0,20000,10000,0,0,0.5,0,840,18371
P I F,7324554005,A-ACE PARTY RENTS,LOS ANGELES,CA,91605,BANK OF AMERICA NATL ASSOC,NC,532299,16163,2004,84,20,1,3,20,1,1,Y,N,16191,30390,0,25000,12500,0,0,0.5,0,2520,18711
P I F,8927144004,699 RENT A CAR HOLLYWOOD,LOS ANGELES,CA,90028,CALIFORNIA BANK & TRUST,CA,532111,16601,2005,300,5,1,0,5,1,1,0,N,16617,600000,0,600000,450000,0,1,0.75,0,9000,25617
CHGOFF,1406965002,A&M Video,HEMET,CA,92544,TELESIS COMMUNITY CU,CA,532230,16657,2005,78,2,1,2,2,0,1,N,N,16832,100000,0,100000,85000,0,0,0.85,0,2340,19172
P I F,9259624004,AUTREY ENTERPRISES INC,WILDOMAR,CA,92595,JPMORGAN CHASE BANK NATL ASSOC,NV,531210,16750,2006,84,1,1,1,1,1,2,Y,N,16770,113503,0,30000,15000,0,0,0.5,0,2520,19290
P I F,3467915001,Urban Homes and Investments In,SAN DIEGO,CA,92101,U.S. BANK NATIONAL ASSOCIATION,OH,531210,18064,2009,84,1,1,2,3,0,1,Y,N,18078,122049,0,50000,25000,0,0,0.5,0,2520,20598
P I F,7547444004,CAPITAL REALITY SERVICES INC,LOS ANGELES,CA,91724,BANK OF AMERICA NATL ASSOC,NC,531210,16244,2004,84,7,1,0,7,1,1,Y,N,16436,10000,0,10000,5000,0,0,0.5,0,2520,18956
CHGOFF,7248634002,JETS EQUIPMENT RENTAL INC,WEST COVINA,CA,91792,BANK OF AMERICA NATL ASSOC,NC,532412,16139,2004,84,2,1,0,2,1,1,Y,N,16191,42000,0,37000,18500,0,0,0.5,0,2520,18711
P I F,5719354010,BAY SCAFFOLDING INC,ALVISO,CA,95002,COMERICA BANK,TX,532412,15607,2002,120,2,2,15,17,1,1,0,N,15644,240000,0,240000,180000,1,0,0.75,0,3600,19244
P I F,1113545001,"Boels, Inc. dba Automated Regi",FOUNTAIN VALLEY,CA,92708,CAPITAL ONE NATL ASSOC,VA,532490,16401,2005,84,8,1,0,0,1,1,N,N,16467,100000,0,100000,50000,0,0,0.5,0,2520,18987
P I F,3217826002,BLUE WATER PARTY RENTALS,SOUTH SAN FRANCISCO,CA,94080,FIRST NATL BK OF NORTHERN CALI,CA,532299,17630,2008,143,20,1,10,20,1,1,0,N,17652,639400,0,639400,479550,0,0,0.75,0,4290,21942
P I F,2730566003,MOVING VEHICULAR PLATFORMS INC,UPLAND,CA,91784,CITY NATIONAL BANK,CA,532210,17251,2007,120,3,1,0,3,1,1,0,N,17286,450000,0,450000,337500,0,0,0.75,0,3600,20886
P I F,2287155007,"THE STIRNKORB COMPANY,INC.",ENCINITAS,CA,92024,CAPITAL ONE NATL ASSOC,VA,531210,17218,2007,45,1,1,2,1,0,1,Y,N,17317,77149,0,25000,12500,0,0,0.5,0,1350,18667
P I F,3456403003,WEST COAST VIDEO,POWAY,CA,92064,GE CAP. SMALL BUS. FINAN CORP,TX,532230,10750,1989,120,1,2,0,0,88407,0,N,N,10896,250000,0,250000,212500,1,0,0.85,0,3600,14496
CHGOFF,5967774006,DISCOVERY LEASING,DUBLIN,CA,94568,BBCN BANK,CA,532420,15694,2003,8,2,1,1,2,1,1,0,N,15705,10000,0,10000,5000,0,0,0.5,0,240,15945
P I F,1338134001,RAZ MA TAZ VIDEO,CLOVIS,CA,93611,CALIFORNIA BANK & TRUST,CA,532230,13676,1997,300,6,1,0,0,1,0,0,N,14425,302000,0,302000,226500,0,1,0.75,0,9000,23425
P I F,5351354000,SANTA BARBARA OLD TOWN TROLLEY,SANTA BARBARA,CA,93101,MONTECITO BANK & TRUST,CA,532299,15449,2002,96,10,1,2,10,88902,1,0,N,15491,223000,0,223000,167250,0,0,0.75,0,2880,18371
P I F,7811513005,VIDEO SCENE,SAN JOSE,CA,95118,FREMONT BANK,CA,532230,12739,1995,48,3,1,0,0,1,0,N,Y,12903,45000,0,45000,40500,0,0,0.9,0,1440,14343
CHGOFF,1759074005,EAST BAY CAD & SIGN CENTER,SAN LEANDRO,CA,94577,CALIFORNIA BANK & TRUST,CA,533110,13872,1998,120,1,2,0,0,1,0,0,N,13999,100000,0,100000,80000,1,0,0.8,1,3600,17599
P I F,3667935001,"ROBERT J. HARMAN, INC. (OC)",LA JOLLA,CA,92037,CITY NATIONAL BANK,CA,531390,18170,2009,300,8,1,2,8,0,1,N,N,18171,1556000,0,1556000,1400400,0,1,0.9,0,9000,27171
P I F,7663014001,JUBILEE JUMPS,WINDSOR,CA,95492,WELLS FARGO BANK NATL ASSOC,SD,532299,16286,2004,60,2,1,1,1,1,1,0,N,16436,37333,0,40000,20000,0,0,0.5,0,1800,18236
P I F,6717084002,POLK FAMILY TRUST,FORT BRAGG,CA,95437,CAPITAL ONE NATL ASSOC,VA,531210,15971,2003,84,1,1,0,1,1,1,0,N,16009,25000,0,25000,12500,0,0,0.5,0,2520,18529
P I F,5872424003,WESTERN/135 LLC,LOS ANGELES,CA,90249,NATIONAL BANK OF CALIFORNIA,CA,531390,15659,2003,300,3,2,0,3,1,1,0,N,15705,763000,0,763000,572250,1,1,0.75,0,9000,24705
P I F,5312654004,"F & B RENTALS, INC.",SANTA ANA,CA,92703,U.S. BANK NATIONAL ASSOCIATION,OH,532120,15432,2002,300,11,1,0,0,1,1,N,N,15460,343400,0,374400,280800,0,1,0.75,0,9000,24460
P I F,1327735005,Devigne,COSTA MESA,CA,92627,BANK OF AMERICA NATL ASSOC,NC,532299,16594,2005,84,6,1,0,6,1,1,Y,N,16617,30000,0,30000,15000,0,0,0.5,0,2520,19137
CHGOFF,8797334003,BENSON MORTGAGE AND REAL ESTAT,VICTORVILLE,CA,92392,DESERT COMMUN BANK A DIVISION,CA,531210,16544,2005,12,1,2,2,1,1,1,Y,N,16556,39500,0,25000,12500,1,0,0.5,0,360,16916
P I F,1703736006,SEALS HEALTHCARE EQUIPMENT AND,COSTA MESA,CA,92627,SOUTHLAND ECONOMIC DEVEL CORP,CA,532291,16901,2006,240,19,1,6,19,1,1,0,N,17057,1117000,0,1117000,1117000,0,1,1,0,7200,24257
P I F,5305864010,GRANT APPRAISAL SERVICE,UKIAH,CA,95482,BANK OF AMERICA NATL ASSOC,NC,531320,15427,2002,84,1,2,0,1,1,1,Y,N,15460,10000,0,10000,5000,1,0,0.5,1,2520,17980
P I F,9805403010,JAHARIS RENT A WRECK AND AUTO,REDDING,CA,96002,REDDING BANK OF COMMERCE,CA,532111,13485,1997,300,1,1,0,0,69560,0,0,N,13573,200000,0,200000,150000,0,1,0.75,0,9000,22573
CHGOFF,2035326010,SUPERIOR HOME SERVICE A CALIFO,COSTA MESA,CA,92626,SBA - EDF ENFORCEMENT ACTION,CO,531390,16938,2006,240,2,1,1,2,1,1,0,N,16994,150000,0,150000,150000,0,1,1,0,7200,24194
P I F,8785654008,PLATINUM GROUP REAL PROPERTIES,NEWARK,CA,94580,MORTGAGE CAP. DEVEL CORP,CA,531210,16539,2005,240,40,1,5,0,1,1,0,N,16966,1256000,0,1330000,1330000,0,1,1,0,7200,24166
P I F,1654765000,"Forkliftsdirect.Com, LTD.",SAN DIMAS,CA,91773,BANK OF AMERICA NATL ASSOC,NC,532412,16841,2006,55,4,2,0,4,0,1,Y,N,16921,9350,0,10000,5000,1,0,0.5,0,1650,18571
CHGOFF,9075284004,TRACYOURSALES.NET ESCROW INC,ORANGE,CA,92827,WELLS FARGO BANK NATL ASSOC,SD,531390,16678,2005,25,7,1,4,11,1,1,0,N,16709,100000,0,100000,50000,0,0,0.5,0,750,17459
P I F,7306684005,4 SEASONS REALTY OF TEHACHAPI,TEHACHAPI,CA,93561,CAPITAL ONE NATL ASSOC,VA,531311,16159,2004,84,4,1,0,4,1,2,0,N,16191,25000,0,25000,12500,0,0,0.5,0,2520,18711
P I F,5384044008,YOUNG'S VIDEO,GARDEN GROVE,CA,92844,UNITI BANK,CA,532230,15467,2002,120,3,1,0,0,1,1,N,N,15552,135000,0,135000,114750,0,0,0.85,0,3600,19152
P I F,3617443006,IN N OUT VIDEO,LA MIRADA,CA,92707,WELLS FARGO BANK NATL ASSOC,SD,532230,10923,1990,84,4,2,0,0,1,0,N,N,10988,80000,0,80000,72000,1,0,0.9,0,2520,13508
P I F,3674375008,Kinetic Lighting Inc,Sun valley,CA,91352,SANTA CLARA VALLEY BANK NATL A,CA,532490,18172,2010,120,36,1,4,0,0,1,N,N,18322,504000,0,504000,453600,0,0,0.9,0,3600,21922
CHGOFF,9111614005,SIMPLY SUCCESS GROUP LLC,SAN JOSE,CA,95135,UMPQUA BANK,OR,531210,16699,2005,227,9,2,13,9,1,1,0,N,16740,950000,0,950000,712500,1,0,0.75,0,6810,23550
P I F,4006704003,SOCRATES ENTERPRISES LLC,UPLAND,CA,91786,MUFG UNION BANK NATL ASSOC,CA,531210,14896,2001,300,10,1,0,10,1,1,0,N,14914,517500,0,517500,388125,0,1,0.75,0,9000,23914
P I F,2317654010,ASHLEY MEDICAL,SAN DIEGO,CA,92116,U.S. BANK NATIONAL ASSOCIATION,CA,532490,14133,1998,300,1,1,0,0,1,0,N,N,14152,134000,0,134000,100500,0,1,0.75,0,9000,23152
P I F,6639474005,PARAGON POST CLEARVIEW POST PR,TOPANGA,CA,90290,WELLS FARGO BANK NATL ASSOC,CA,532490,15946,2003,87,1,1,0,1,1,1,0,N,15978,162000,0,162000,121500,0,0,0.75,0,2610,18588
P I F,1106844003,XPRESS RENT-A-CAR OF HEMET,HEMET,CA,92545,U.S. BANK NATIONAL ASSOCIATION,CA,532111,13612,1997,300,30,1,0,0,1,0,0,N,13695,150500,0,150500,112875,0,1,0.75,0,9000,22695
P I F,6225164006,MVK ENTERPRISES INC,SAN JOSE,CA,95008,BANK OF AMERICA NATL ASSOC,NC,531312,15799,2003,84,7,1,5,7,1,1,Y,N,15825,77000,0,50000,25000,0,0,0.5,0,2520,18345
CHGOFF,2205275005,"WILLIAM N. JOHNSON, INC. DBA W",MILL VALLEY,CA,94941,CAPITAL ONE NATL ASSOC,VA,531210,17170,2007,67,2,1,1,2,0,1,N,N,17225,100000,0,100000,50000,0,0,0.5,0,2010,19235
CHGOFF,1086365010,Winokur & Gage Inc.,LOS GATOS,CA,95030,BANK OF AMERICA NATL ASSOC,NC,531210,16364,2005,32,5,1,0,0,1,1,T,N,16526,64000,0,50000,25000,0,0,0.5,0,960,17486
CHGOFF,2258535004,"DNY ENTERPRISES, INC.",LA MESA,CA,91941,CAPITAL ONE NATL ASSOC,VA,531390,17202,2007,65,1,1,0,1,0,1,Y,N,17317,101173,0,50000,25000,0,0,0.5,0,1950,19267
P I F,7389184002,"RIOTV ENTERPRISES, INC.",TEMECULA,CA,92592,SBA - EDF ENFORCEMENT ACTION,CO,531210,16188,2004,240,3,1,27,0,68880,1,0,N,16567,1001000,0,1001000,1001000,0,1,1,0,7200,23767
P I F,3179396002,MEDIA GRAPHICS & LITHO INC,ONTARIO,CA,91761,SBA - EDF ENFORCEMENT ACTION,CO,532490,17590,2008,240,4,1,8,4,1,1,0,N,17666,820000,0,820000,820000,0,1,1,0,7200,24866
P I F,9351513002,DCR AND RCMS,NOVATO,CA,94949,LOANS FROM OLD CLOSED LENDERS,DC,532420,13318,1996,90,15,1,0,0,1,0,0,N,13573,855000,0,855000,641250,0,0,0.75,0,2700,16273
P I F,1040106003,C&C FINANCIAL CORP,BURBANK,CA,91505,WELLS FARGO BANK NATL ASSOC,SD,531210,16847,2006,60,13,2,7,20,1,1,Y,N,17225,25000,0,25000,12500,1,0,0.5,0,1800,19025
P I F,2461005004,CLIFFORD ASSOCIATES,SAN FRANCISCO,CA,94104,U.S. BANK NATIONAL ASSOCIATION,OH,531320,17303,2007,84,3,1,1,4,0,1,Y,N,17439,93800,0,25000,12500,0,0,0.5,0,2520,19959
P I F,8781944004,AMERICAN CAPITAL HOME LOANS,VISTA,CA,92083,CDC SMALL BUS. FINAN CORP,CA,531390,16538,2005,240,450,1,100,0,1,1,0,N,16665,593000,0,593000,593000,0,1,1,0,7200,23865
CHGOFF,2758225001,GoConley Financial Services,San Bernardino,CA,92405,UMPQUA BANK,OR,531210,17454,2008,88,5,2,1,5,0,1,N,N,17470,25000,0,25000,21250,1,0,0.85,0,2640,20110
CHGOFF,1818795006,STEWART NORMAN SCHWARZ DBA HAM,ENCINITAS,CA,92024,CAPITAL ONE NATL ASSOC,VA,531210,16936,2006,63,14,1,6,14,0,1,N,N,16982,50000,0,50000,25000,0,0,0.5,0,1890,18872
P I F,2628206004,PINNACLE HOMES & ESTATES INC.,RICHMOND,CA,94806,MORTGAGE CAP. DEVEL CORP,CA,531210,17182,2007,240,1,1,3,0,15710,1,0,N,17547,648000,0,773000,773000,0,1,1,0,7200,24747
P I F,6832984007,EILEEN E SCHWARTZ INC,SAN MARCOS,CA,92069,CALIFORNIA BANK & TRUST,CA,531210,16001,2004,31,3,1,0,3,1,1,Y,N,16009,50000,0,50000,25000,0,0,0.5,0,930,16939
CHGOFF,2937955003,Dycor Realty Inc.,SAN DIEGO,CA,92128,BANK OF AMERICA NATL ASSOC,NC,531210,17566,2008,27,4,1,0,4,0,1,Y,S,17591,35000,0,35000,29750,0,0,0.85,0,810,18401
P I F,5095024006,APPRAISAL PACIFIC,SAN MARCOS,CA,92078,1ST CENTENNIAL BANK,CA,531320,15319,2002,84,6,1,0,0,1,1,0,Y,15340,55000,0,55000,46750,0,0,0.85,1,2520,17860
P I F,5376974005,ARROW RENTAL,SACRAMENTO,CA,95822,WELLS FARGO BANK NATL ASSOC,CA,532310,15463,2002,276,5,1,0,5,1,1,0,N,15491,370000,0,370000,277500,0,1,0.75,0,8280,23771
CHGOFF,1769135010,"American Radiosurgery, Inc.",San Diego,CA,92110,UMPQUA BANK,OR,532490,16908,2006,9,4,1,2,4,0,1,N,N,16921,25000,0,25000,21250,0,0,0.85,0,270,17191
P I F,7697064003,SHARMA,BERKELEY,CA,94710,U.S. BANK NATIONAL ASSOCIATION,OH,531210,16296,2004,300,20,1,19,1,1,1,0,N,16375,1899500,0,1899500,1424625,0,1,0.75,0,9000,25375
P I F,9533224006,PARTY PRODUCTION RENTALS INC,CHULA VISTA,CA,91911,WELLS FARGO BANK NATL ASSOC,SD,532299,16799,2006,60,6,1,2,8,1,1,0,N,16832,40000,0,40000,20000,0,0,0.5,0,1800,18632
CHGOFF,5604914001,PACIFIC VANTAGE REALTY,LAGUNA NIGUEL,CA,92677,CALIFORNIA BANK & TRUST,CA,531210,15561,2002,13,2,1,3,0,1,1,0,N,15583,150000,0,150000,127500,0,0,0.85,0,390,15973
P I F,2733585008,"Privilege Real Estate Group, I",LOS ANGELES,CA,90045,BANK OF AMERICA NATL ASSOC,NC,531210,17437,2007,51,5,1,0,5,0,1,Y,N,17470,52500,0,35000,17500,0,0,0.5,0,1530,19000
P I F,9751043002,NORM'S RV RENTALS,POWAY,CA,92064,PACIFIC WESTERN BANK,CA,532120,13466,1997,300,2,1,0,0,1,0,0,N,13483,175000,0,175000,131250,0,1,0.75,0,9000,22483
P I F,6361204010,PACIFIC CAPITAL ASSET MANAGEME,LOS ANGELES,CA,90049,BANK OF AMERICA NATL ASSOC,NC,531311,15855,2003,84,5,1,0,5,1,1,Y,N,15886,5000,0,5000,2500,0,0,0.5,0,2520,18406
P I F,5602154005,GEORGE L PACKER AND DAUNA L PA,WOODLAND HILLS,CA,91364,FIRST-CITIZENS BK & TR CO,NC,531312,15561,2002,300,80,1,0,80,1,1,0,N,15583,1084000,0,1084000,813000,0,1,0.75,0,9000,24583
P I F,1814346010,EXIT GRAND HERITAGE REALTY,UPLAND,CA,91786,DESERT COMMUN BANK A DIVISION,CA,531210,16912,2006,84,3,2,0,3,1,1,0,N,16952,62000,0,62000,31000,1,0,0.5,0,2520,19472
P I F,7602864005,REAL ESTATE CONCEPTS INC,SANTA BARBARA,CA,93101,CAPITAL ONE NATL ASSOC,VA,531210,16264,2004,84,2,1,0,2,1,1,0,N,16375,50000,0,50000,25000,0,0,0.5,0,2520,18895
P I F,3428834002,"KEYSTONE ESCROW, INC.&MIRANDA",IMPERIAL BEACH,CA,91932,COMERICA BANK,TX,531210,14579,2000,120,5,1,0,0,1,1,N,N,14609,125000,0,125000,93750,0,0,0.75,0,3600,18209
P I F,7499294001,RICHARD M BOOMHOWER,SIMI VALLEY (SIMI),CA,93063,CAPITAL ONE NATL ASSOC,VA,532490,16226,2004,1,6,1,0,6,1,2,0,N,16375,25000,0,25000,12500,0,0,0.5,0,30,16405
P I F,1875965005,"CargoBay Clovis Partners, L.P.",CLOVIS,CA,93612,BANK OF THE SIERRA,CA,531120,16967,2006,120,1,2,5,6,0,1,N,N,17013,320000,0,320000,240000,1,0,0.75,0,3600,20613
P I F,7430964003,MARQUEZ INVESTMENTS INC,FONTANA,CA,92335,BANK OF AMERICA NATL ASSOC,NC,531210,16203,2004,84,10,1,0,10,1,1,Y,N,16222,69451,0,50000,25000,0,0,0.5,0,2520,18742
P I F,2768126006,RE/MAX ALL-PRO,LANCASTER,CA,93534,CALIFORNIA STATEWIDE CERT. DEV,CA,531210,17280,2007,240,113,1,8,0,1,1,0,N,18002,1025000,0,1025000,1025000,0,1,1,0,7200,25202
CHGOFF,1855775010,Nadeen Angella Richard,SANTA CLARA,CA,95054,BANK OF AMERICA NATL ASSOC,NC,531210,16957,2006,50,2,1,0,2,0,1,N,N,16982,55000,0,35000,17500,0,0,0.5,0,1500,18482
CHGOFF,2939964003,A-1 RENT-A-CAR,SAN LEANDRO,CA,94545,MORTGAGE CAP. DEVEL CORP,CA,532111,14377,1999,240,15,1,0,15,1,0,N,N,14467,501000,0,501000,501000,0,1,1,0,7200,21667
P I F,4270504001,A-1 VIDEO,LA MIRADA,CA,90638,BANK OF AMERICA NATL ASSOC,NC,532230,15008,2001,42,2,1,0,2,1,1,Y,N,15034,30000,0,30000,15000,0,0,0.5,0,1260,16294
P I F,4790423009,WHEELCHAIR GETAWAYS OF THE BAY,FRESNO,CA,93725,CALIFORNIA BANK & TRUST,CA,532111,11786,1992,84,3,2,0,0,88905,0,N,N,11808,75000,0,75000,67500,1,0,0.9,0,2520,14328
P I F,6282504008,HERNDON PARTNERS LLC,FRESNO,CA,93727,CALIFORNIA BANK & TRUST,CA,531120,15824,2003,276,2,2,0,2,1,1,0,N,15856,946850,0,1015600,761700,1,1,0.75,0,8280,24136
CHGOFF,9554034007,FIDELITY FINANCIAL,ALTADENA,CA,91001,"CITIBANK, N.A.",SD,531210,16800,2006,53,44,1,18,44,1,1,Y,N,16832,78050,0,50000,25000,0,0,0.5,0,1590,18422
P I F,9291434006,HOTEL TIMESHARE RESALES INTERN,PALM DESERT,CA,92260,"BUSINESS LOAN CENTER, LLC",SC,531210,16758,2006,120,3,1,0,3,1,1,0,N,16801,1050000,0,1050000,787500,0,0,0.75,0,3600,20401
CHGOFF,9068914005,"EXCELERATION, INC",LOS ANGELES,CA,90066,WELLS FARGO BANK NATL ASSOC,SD,531311,16674,2005,9,4,1,1,5,1,1,Y,N,16709,301740,0,55000,27500,0,0,0.5,0,270,16979
P I F,2551505005,"MBA Diversified, Inc. dba Ande",FAIRFIELD,CA,94533,BANK OF AMERICA NATL ASSOC,NC,531390,17350,2007,84,10,1,0,10,0,1,N,N,17378,44700,0,30000,15000,0,0,0.5,0,2520,19898
P I F,8325214004,CONQUESTEAM CORPORATION,ANAHEIM,CA,92804,U.S. BANK NATIONAL ASSOCIATION,OH,531210,16425,2005,300,3,1,0,3,1,1,0,N,16436,549000,0,549000,411750,0,1,0.75,0,9000,25436
P I F,2410385002,R Burton Properties,BENICIA,CA,94510,U.S. BANK NATIONAL ASSOCIATION,OH,531390,17279,2007,84,1,1,0,1,0,1,Y,N,17317,125347,0,50000,25000,0,0,0.5,0,2520,19837
CHGOFF,7384504003,SYNERGY REAL ESTATE INVESTMENT,LOS ANGELES,CA,90045,WELLS FARGO BANK NATL ASSOC,SD,531210,16187,2004,36,2,1,5,2,1,1,Y,N,16222,100645,0,45000,22500,0,0,0.5,0,1080,17302
CHGOFF,1333125006,NINA N SARYAN IHMUD DBA STAR V,SAN BERNARDINO,CA,92411,CAPITAL ONE NATL ASSOC,VA,532230,16597,2005,63,12,1,0,12,1,1,N,N,16648,50000,0,50000,25000,0,0,0.5,0,1890,18538
P I F,5290623008,"FEELING FINE INSTITUTE, INC.",NORTHRIDGE,CA,91324,CITY NATIONAL BANK,CA,533110,12001,1993,120,8,2,0,0,1,0,N,N,12084,100000,0,100000,90000,1,0,0.9,0,3600,15684
CHGOFF,2964346010,A FAIR APPRAISAL,RIVERSIDE,CA,92508,JPMORGAN CHASE BANK NATL ASSOC,IL,531320,17408,2007,54,1,1,3,1,1,1,Y,N,17500,40876,0,19000,9500,0,0,0.5,0,1620,19120
P I F,2883354008,CENTURY 21 HILLTOP,SIMI VALLEY (SIMI),CA,93065,MUFG UNION BANK NATL ASSOC,CA,531210,14343,1999,120,74,1,4,74,1,0,0,N,14364,100000,0,100000,75000,0,0,0.75,1,3600,17964
P I F,6627454002,JAMES A WALSH REAL ESTATE,SAN RAFAEL,CA,94903,MORTGAGE CAP. DEVEL CORP,CA,531210,15943,2003,240,2,1,1,0,1,1,0,N,16021,136000,0,136000,136000,0,1,1,0,7200,23221
CHGOFF,2479805006,FINANCING REALTY CENTER INC,PALMDALE,CA,93551,WELLS FARGO BANK NATL ASSOC,SD,531210,17311,2007,45,20,1,20,40,0,1,Y,N,17347,227232,0,90000,45000,0,0,0.5,0,1350,18697
CHGOFF,5436494006,MR VIDEO,TRUCKEE,CA,96161,CALIFORNIA BANK & TRUST,CA,532230,15494,2002,20,7,1,1,7,1,1,Y,N,15521,45000,0,45000,22500,0,0,0.5,0,600,16121
P I F,6609184000,TRAVETINE INTERNATIONAL INC,ANAHEIM,CA,92806,AMERICANWEST BANK,CA,531312,15937,2003,120,3,1,0,3,1,1,0,N,15978,190000,0,190000,142500,0,0,0.75,0,3600,19578
CHGOFF,2358795009,Ali's Rent A Car Inc.,LOS ANGELES,CA,90036,BANK OF AMERICA NATL ASSOC,NC,532111,17252,2007,43,7,1,0,7,0,1,Y,N,17409,40000,0,20000,10000,0,0,0.5,0,1290,18699
P I F,3700544009,HOLLYWOOD PARTY RENTALS,INGLEWOOD,CA,90302,GROW AMERICA FUND INC,NY,532490,14719,2000,84,55,1,10,55,1,1,0,N,14791,250000,0,250000,187500,0,0,0.75,0,2520,17311
P I F,4853794009,ATCO PROPERTY MANAGEMENT,BAKERSFIELD,CA,93561,BANK OF THE SIERRA,CA,531311,15210,2001,84,11,1,0,0,1,1,N,N,15248,330000,0,330000,247500,0,0,0.75,1,2520,17768
P I F,4994434010,Q-STAR VIDEO #3,EL MONTE,CA,91732,WILSHIRE BANK,CA,532230,15267,2002,300,6,1,0,6,1,1,0,N,15309,497000,0,497000,372750,0,1,0.75,0,9000,24309
CHGOFF,2176935002,"VIABLE VENTURES UNLIMITED, INC",TEMECULA,CA,92592,CAPITAL ONE NATL ASSOC,VA,531311,17149,2007,54,4,1,0,4,0,1,Y,N,17256,127962,0,50000,25000,0,0,0.5,0,1620,18876
CHGOFF,2362985010,"MCGRATH MOVING & STORAGE, INC.",MODESTO,CA,95351,U.S. BANK NATIONAL ASSOCIATION,OH,531130,17254,2007,63,12,1,2,14,0,1,Y,N,17286,85125,0,50000,25000,0,0,0.5,0,1890,19176
P I F,7394764004,LAD ENTERPRISES INC,ELK GROVE,CA,95624,UMPQUA BANK,OR,531120,16190,2004,300,12,1,4,12,1,1,0,N,16222,314300,0,314300,235725,0,1,0.75,0,9000,25222
P I F,5183364003,GARY ELMINOUFI AND ALEX T CAO,REDONDO BEACH,CA,90277,COMERICA BANK,TX,531210,15369,2002,300,2,1,0,2,1,1,0,N,15399,496000,0,496000,372000,0,1,0.75,0,9000,24399
P I F,2452685007,Johnny Urias Metal Detector,SANTA MARIA,CA,93458,BANK OF AMERICA NATL ASSOC,NC,532310,17300,2007,84,1,1,0,1,0,1,Y,N,17317,15382,0,8000,4000,0,0,0.5,0,2520,19837
CHGOFF,3743105002,Peed Equipment Company,PERRIS,CA,92571,EH NATIONAL BANK,CA,532412,18211,2010,300,12,1,0,12,0,1,N,N,18232,1177500,0,1177500,1059750,0,1,0.9,0,9000,27232
P I F,2304705009,"Citizen Enterprises, Inc.",WEST HOLLYWOOD,CA,90069,BANK OF AMERICA NATL ASSOC,NC,531210,17225,2007,84,12,1,0,12,0,1,Y,N,17347,47000,0,35000,17500,0,0,0.5,0,2520,19867
CHGOFF,5499574003,MONTEVAL HOLDINGS INC,LOS ANGELES,CA,90046,BANK OF AMERICA NATL ASSOC,NC,531390,15519,2002,39,1,1,4,1,1,1,T,N,15583,50000,0,50000,25000,0,0,0.5,0,1170,16753
P I F,1022515008,"AMR Appraisals, Inc.",SAN RAMON,CA,94583,BANK OF AMERICA NATL ASSOC,NC,531320,16264,2004,84,4,2,0,0,1,1,Y,N,16314,17500,0,10000,5000,1,0,0.5,0,2520,18834
P I F,3799445009,CENTRAL CALIFORNIA POWER INC,BAKERSFIELD,CA,93263,WELLS FARGO BANK NATL ASSOC,SD,531120,18240,2010,300,2,1,0,2,0,2,N,N,18240,300000,0,300000,225000,0,1,0.75,0,9000,27240
CHGOFF,1532105003,"C'MAJ & ASSOCIATES, INC.",RIVERSIDE,CA,92504,CAPITAL ONE NATL ASSOC,VA,531390,16748,2006,58,5,1,0,5,0,1,Y,N,16801,37695,0,35000,17500,0,0,0.5,0,1740,18541
P I F,6496014009,CLUB SPORTIVA INC,SAN FRANCISCO,CA,94107,COMERICA BANK,TX,532111,15902,2003,120,3,2,3,3,1,1,0,N,16130,340000,0,340000,255000,1,0,0.75,0,3600,19730
CHGOFF,2793605003,"Jaime Bermeo, Inc",LONG BEACH,CA,90803,BANK OF AMERICA NATL ASSOC,NC,531390,17475,2008,36,1,1,0,1,0,1,Y,N,17683,17000,0,17000,8500,0,0,0.5,0,1080,18763
P I F,1629356000,"GENERATOR SERVICES CO., INC.",RANCHO CUCAMONGA,CA,91730,CDC SMALL BUS. FINAN CORP,CA,532490,16897,2006,240,34,1,5,0,1,1,0,N,17029,905000,0,905000,905000,0,1,1,0,7200,24229
P I F,6495264001,NETWORK ALLIANCE REAL ESTATE,SANTA CRUZ,CA,95062,INNOVATIVE BANK,CA,531210,15901,2003,84,1,1,0,1,1,0,0,N,15917,15000,0,15000,12750,0,0,0.85,0,2520,18437
CHGOFF,2613334002,OBJECTS FINE SET DECORATIONS I,LOS ANGELES,CA,90048,NATIONAL BANK OF CALIFORNIA,CA,532490,14228,1999,120,10,1,0,0,1,0,0,N,14275,250000,0,250000,187500,0,0,0.75,1,3600,17875
CHGOFF,1994155001,US Portfolio Services Inc.,SAN DIEGO,CA,92107,U.S. BANK NATIONAL ASSOCIATION,OH,531390,17042,2006,70,2,1,0,2,0,1,Y,N,17044,44581,0,30000,15000,0,0,0.5,0,2100,19144
P I F,5270614004,CALIFORNIA PROPERTIES,TEMECULA,CA,92590,FIRST-CITIZENS BK & TR CO,NC,531210,15412,2002,300,1,1,2,1,1,1,0,N,15460,201000,0,201000,150750,0,1,0.75,0,9000,24460
P I F,8550924001,MEDICAL REAL ESTATE DEVELOPMEN,MENIFEE,CA,92586,CDC SMALL BUS. FINAN CORP,CA,531390,16467,2005,240,5,1,1,0,1,1,0,N,16994,388000,0,388000,388000,0,1,1,0,7200,24194
P I F,3769225001,Meissner Jacquet Real Estate M,San Diego,CA,92121,"READYCAP LENDING, LLC",CA,531312,18221,2010,300,32,1,0,32,0,1,N,N,18291,2000000,0,2000000,1500000,0,1,0.75,0,9000,27291
CHGOFF,2155836004,TOMI REALTY INC,SUNLAND,CA,91040,WELLS FARGO BANK NATL ASSOC,SD,531210,16968,2006,26,1,1,1,2,1,1,Y,N,17652,97836,0,50000,25000,0,0,0.5,0,780,18432
P I F,9230434002,IBEX FINANCIAL NETWORKS,TUSTIN,CA,92782,AURORA BANK FSB,CO,531390,16743,2006,300,4,1,0,4,1,1,0,N,16770,697500,0,697500,523125,0,1,0.75,0,9000,25770
CHGOFF,1239985010,HANMI WORLD CORP.,LOS ANGELES,CA,90036,CAPITAL ONE NATL ASSOC,VA,532230,16517,2005,57,9,1,1,9,1,1,N,N,16556,50000,0,50000,25000,0,0,0.5,0,1710,18266
P I F,6932704001,CROSS ROADS CAR RENTAL,INDIO,CA,92201,FIRST NATL BK OF SOUTHERN CALI,CA,532111,16027,2004,120,4,1,0,0,1,1,N,N,16070,150000,0,150000,127500,0,0,0.85,0,3600,19670
P I F,6132913000,"D.L.R., INC.",CONCORD,CA,94521,WELLS FARGO BANK NATL ASSOC,SD,532230,12414,1994,84,3,1,0,0,1,0,N,N,12449,180000,0,180000,153000,0,0,0.85,0,2520,14969
CHGOFF,2709305005,"BAJA REAL PROPERTY ADVISORS, L",SAN DIEGO,CA,92121,U.S. BANK NATIONAL ASSOCIATION,OH,531311,17428,2007,62,3,1,0,3,0,1,Y,N,17470,40739,0,25000,12500,0,0,0.5,0,1860,19330
CHGOFF,6048414007,MOON BOUNCE MADNESS,SANTA MONICA,CA,90401,BBCN BANK,CA,532292,15729,2003,70,2,1,7,2,1,0,0,N,15736,10000,0,10000,8500,0,0,0.85,1,2100,17836
CHGOFF,2390855003,Ranflo Entertainment,San Diego,CA,92114,UMPQUA BANK,OR,532230,17268,2007,82,1,2,0,1,0,1,N,N,17286,25000,0,25000,21250,1,0,0.85,0,2460,19746
P I F,7629774002,LIBIANO INVESTMENTS INC,HERMOSA BEACH,CA,90254,CALIFORNIA BANK & TRUST,CA,531390,16273,2004,300,3,1,0,3,1,1,0,N,16283,429000,0,429000,321750,0,1,0.75,0,9000,25283
P I F,2373156010,MARIELENA BAUMANN,NEWARK,CA,94560,WELLS FARGO BANK NATL ASSOC,SD,531210,17043,2006,257,2,1,0,2,1,1,0,N,17074,676500,0,716300,537225,0,1,0.75,0,7710,24784
P I F,3341174002,VIDEO CHANNEL AND PERFECT TRAD,LOS ANGELES,CA,90026,COMERICA BANK,TX,532230,14550,2000,120,1,1,2,1,1,1,0,N,14640,200000,0,200000,150000,0,0,0.75,0,3600,18240
P I F,3060466002,MIGUEL FLORES AND JOSE RUVALCA,COVINA,CA,91723,CDC SMALL BUS. FINAN CORP,CA,531210,17479,2008,240,20,1,10,0,1,1,0,N,17547,201000,0,201000,201000,0,1,1,0,7200,24747
P I F,3348006003,RICHARD A STRIBLING,LOS ANGELES,CA,91352,SBA - EDF ENFORCEMENT ACTION,CO,532490,17736,2008,240,1,1,1,0,1,1,0,N,17792,215000,0,215000,215000,0,1,1,0,7200,24992
P I F,3713444002,ODYSSEY VIDEO,MARINA DEL REY,CA,90292,BBCN BANK,CA,532230,14726,2000,120,5,1,0,5,1,1,0,N,14761,250000,0,250000,187500,0,0,0.75,0,3600,18361
P I F,7108164001,WATSON APPRAISAL SERVICES,DANVILLE,CA,94506,CAPITAL ONE NATL ASSOC,VA,531320,16090,2004,84,1,1,0,1,1,1,0,N,16130,35000,0,35000,17500,0,0,0.5,0,2520,18650
P I F,7490004010,MORTGAGE SOLUTION GROUP LLC,SAN JOSE,CA,95102,BAY AREA EMPLOYMENT DEVEL CO,CA,531210,16224,2004,240,11,1,4,0,1,1,0,N,16329,158000,0,425000,425000,0,1,1,0,7200,23529
P I F,6112384006,TMG SOUTH COAST MORTGAGE CORP,ROSSMOOR,CA,92688,BANK OF AMERICA NATL ASSOC,NC,531210,15755,2003,84,1,1,0,0,1,1,Y,N,15795,19100,0,19100,9550,0,0,0.5,0,2520,18315
P I F,1894625003,Svetlana Selyuzhitskaya,ROSEVILLE,CA,95678,U.S. BANK NATIONAL ASSOCIATION,OH,531390,16979,2006,84,2,1,1,3,0,1,Y,N,17044,11975,0,10000,5000,0,0,0.5,0,2520,19564
P I F,6988134006,MELODIA,LOS ANGELES,CA,90046,BANK OF AMERICA NATL ASSOC,NC,532230,16042,2004,84,5,1,2,5,1,1,Y,N,16344,62126,0,30000,15000,0,0,0.5,0,2520,18864
CHGOFF,1725335009,"ANGUIANO & ASSOCIATES, A REAL",DOWNEY,CA,90241,CAPITAL ONE NATL ASSOC,VA,531210,16882,2006,29,31,1,6,31,0,1,Y,N,16921,133736,0,50000,25000,0,0,0.5,1,870,17791
P I F,4425524002,RE/MAX SOUTH COUNTY-LAKESIDE,ALISO VIEJO,CA,92656,SOUTHLAND ECONOMIC DEVEL CORP,CA,531210,15071,2001,240,600,1,40,0,69149,1,N,N,15475,1000000,0,1000000,1000000,0,1,1,0,7200,22675
CHGOFF,2641365004,CORINTHIAN REALTY,UNION CITY,CA,94587,U.S. BANK NATIONAL ASSOCIATION,OH,531390,17394,2007,53,4,1,1,5,0,1,Y,N,17439,109550,0,50000,25000,0,0,0.5,0,1590,19029
CHGOFF,2452336003,ADVANTAGE VALUATION INC,SAN DIEGO,CA,92109,U.S. BANK NATIONAL ASSOCIATION,OH,531320,17076,2007,287,6,1,0,6,1,1,0,N,17135,658000,0,658000,493500,0,1,0.75,0,8610,25745
P I F,3707624001,HOME CARE SERVICE SPECIALIST I,GLENDALE,CA,91203,U.S. BANK NATIONAL ASSOCIATION,CA,532490,14721,2000,240,13,1,0,0,1,1,N,N,14761,574000,0,574000,430500,0,1,0.75,0,7200,21961
P I F,3483623005,"ON LINE VIDEO, INC",BRAWLEY,CA,92227,BANK OF AMERICA CALIFORNIA N.A,CA,532230,10791,1989,240,16,1,0,0,0,0,N,N,10988,171000,0,171000,128250,0,1,0.75,0,7200,18188
CHGOFF,2584876003,THE WCSL CORPORATION,MODESTO,CA,95358,MUFG UNION BANK NATL ASSOC,CA,532490,17150,2007,27,5,1,0,5,1,1,Y,N,17166,135600,0,50000,25000,0,0,0.5,1,810,17976
CHGOFF,7273104009,XOCHITL ESCOBEDO,SALINAS,CA,93901,"RABOBANK, NATIONAL ASSOCIATION",CA,531210,16147,2004,216,3,1,0,3,1,1,0,N,16191,472500,0,472500,354375,0,0,0.75,0,6480,22671
CHGOFF,2812905006,VICTORIA LYNN RENFROW  DBA  RE,DISCOVERY BAY,CA,94505,CAPITAL ONE NATL ASSOC,VA,531210,17485,2008,65,1,1,0,1,0,1,N,N,17531,50000,0,50000,25000,0,0,0.5,0,1950,19481
P I F,7119074004,PACIFIC WEST ASSET MANAGEMENT,COSTA MESA,CA,92626,CDC SMALL BUS. FINAN CORP,CA,531210,16093,2004,240,34,1,14,0,1,1,0,N,16294,589000,0,589000,589000,0,1,1,0,7200,23494
CHGOFF,2430275001,Maureen Decena Aquino,DUBLIN,CA,94568,BANK OF AMERICA NATL ASSOC,NC,531210,17288,2007,68,1,1,0,1,0,1,Y,N,17317,10000,0,10000,5000,0,0,0.5,0,2040,19357
CHGOFF,2311324004,OLYMPIC VIDEO & 1 HOUR PHOTO,LOS ANGELES,CA,90020,BANK OF AMERICA CALIFORNIA N.A,CA,532230,14131,1998,12,2,1,0,0,1,0,Y,N,14244,25000,0,25000,12500,0,0,0.5,0,360,14604
P I F,9133424008,AMERICAN NATIONAL INVESTMENTS,SAN DIEGO,CA,92103,WELLS FARGO BANK NATL ASSOC,SD,531210,16708,2005,96,35,1,0,0,1,1,0,Y,16801,125000,0,125000,106250,0,0,0.85,0,2880,19681
P I F,5686824001,RESPIRATORY THERAPY HOME CARE,BELLFLOWER,CA,90706,OPUS BANK,CA,532291,15595,2002,300,8,1,0,8,1,1,0,N,15644,739500,0,739500,554625,0,1,0.75,0,9000,24644
CHGOFF,2227115004,Opaane Video,LOS ANGELES,CA,90020,BBCN BANK,CA,532230,17184,2007,47,1,1,1,1,0,1,N,N,17197,15000,0,15000,12750,0,0,0.85,0,1410,18607
CHGOFF,2672275004,"LOU ANDREW MANAGEMENT, INC.",SANTA PAULA,CA,93060,U.S. BANK NATIONAL ASSOCIATION,OH,531311,17408,2007,53,2,1,1,3,0,1,Y,N,17439,59667,0,25000,12500,0,0,0.5,0,1590,19029
P I F,2293315003,Liliana A. Ortiz dba Ortiz Con,SAN JOSE,CA,95111,BANK OF AMERICA NATL ASSOC,NC,531390,17219,2007,84,3,2,0,3,0,1,Y,N,17256,5000,0,5000,2500,1,0,0.5,0,2520,19776
P I F,4677354006,ILLUMINATION DYNAMICS INC,PACOIMA,CA,91350,COMERICA BANK,TX,532490,15172,2001,123,12,2,4,12,1,1,0,N,15248,862500,0,862500,646875,1,0,0.75,0,3690,18938
P I F,5942573002,PCR PERSONAL COMPUTER RENTALS,RIVERSIDE,CA,92507,LOANS FROM OLD CLOSED LENDERS,DC,532420,12312,1993,300,6,1,0,0,1,0,N,N,12449,200000,0,216000,162000,0,1,0.75,0,9000,21449
CHGOFF,9136334000,C & C HOME LOANS & REALTY,CHULA VISTA,CA,91915,AURORA BANK FSB,CO,531390,16708,2005,272,2,1,2,2,1,1,0,N,16740,550800,0,550800,413100,0,1,0.75,0,8160,24900
P I F,1775436009,HENRY SUAREZ REALTOR,GLENDALE,CA,91208,U.S. BANK NATIONAL ASSOCIATION,OH,531210,16908,2006,300,8,1,4,4,1,1,0,N,16921,990000,0,990000,742500,0,1,0.75,0,9000,25921
P I F,5837774008,PR SPINK INCORPORATED,ONTARIO,CA,91761,BANK OF AMERICA NATL ASSOC,NC,532111,15649,2003,84,30,1,0,30,1,1,Y,N,15764,50000,0,50000,25000,0,0,0.5,0,2520,18284
CHGOFF,6127744010,ACCURATE ENERGY SERVICES,MONROVIA,CA,91016,CALIFORNIA STATEWIDE CERT. DEV,CA,531320,15761,2003,240,12,1,4,0,1,1,0,N,16084,366000,0,366000,366000,0,1,1,0,7200,23284
CHGOFF,9178674006,ATREND REAL ESTATE,MODESTO,CA,95356,MUFG UNION BANK NATL ASSOC,CA,531210,16727,2006,55,5,2,0,0,1,1,Y,N,16740,29685,0,15000,7500,1,0,0.5,0,1650,18390
P I F,7889943005,VIDEO TYME,VENTURA,CA,93001,"RABOBANK, NATIONAL ASSOCIATION",CA,532230,12761,1995,84,35,1,0,0,1,0,N,N,12814,100000,0,100000,90000,0,0,0.9,0,2520,15334
CHGOFF,6549214004,RINO AMUSEMENT,OCEANSIDE,CA,92054,COMMUNITY W. BANK NATL ASSOC,CA,532299,15918,2003,120,2,1,0,2,1,1,0,N,15978,167000,0,167000,125250,0,0,0.75,0,3600,19578
P I F,3539624001,VIDEO WORLD OF ALPINE,ALPINE,CA,91901,CDC SMALL BUS. FINAN CORP,CA,532230,14627,2000,240,2,1,6,6,1,1,N,N,14775,180000,0,180000,180000,0,1,1,0,7200,21975
P I F,4957284003,DEJ FAMILY LIMITED PARTNERSHIP,RANCHO DOMINGUEZ,CA,90221,LOS ANGELES CNTY SMALL BUS. DE,CA,532210,15246,2001,240,60,1,130,70,1,1,N,N,15384,954000,0,981000,981000,0,1,1,0,7200,22584
CHGOFF,2710435006,West Coast Real Estate & Excha,SIMI VALLEY,CA,93063,BANK OF AMERICA NATL ASSOC,NC,531210,17429,2007,61,6,1,0,6,0,1,Y,N,17439,24666,0,16500,8250,0,0,0.5,0,1830,19269
CHGOFF,2167724000,VIDEO SUPER SHOP,VENTURA (CORPORATE NAME SAN BU,CA,93003,COMMUNITY W. BANK NATL ASSOC,CA,532230,14060,1998,120,6,1,0,0,1,0,0,N,14152,105000,0,105000,78750,0,0,0.75,1,3600,17752
P I F,2273716004,SUPER VIDEO,NORTHRIDGE,CA,91324,BBCN BANK,CA,532230,17010,2006,60,2,1,0,2,1,1,0,N,17074,104000,0,104000,41600,0,0,0.4,0,1800,18874
P I F,1918846001,SUCCESS ONE FINANCIAL,FAIRFIELD,CA,94585,MORTGAGE CAP. DEVEL CORP,CA,531210,16924,2006,240,9,1,2,0,1,1,0,N,17029,404000,0,404000,404000,0,1,1,0,7200,24229
CHGOFF,2712325001,SIERRA PROPERTY MANAGEMENT,CHICO,CA,95926,U.S. BANK NATIONAL ASSOCIATION,OH,531311,17429,2007,84,1,1,0,1,0,1,Y,N,17683,61401,0,50000,25000,0,0,0.5,0,2520,20203
P I F,5436223010,THE VIDEO GIANT,FOUNTAIN VALLEY,CA,92708,BBCN BANK,CA,532230,12060,1993,120,16,1,0,0,1,0,N,N,12084,155000,0,155000,139500,0,0,0.9,0,3600,15684
P I F,3396494001,VIDEO MARKET,LOS ANGELES,CA,90026,MUFG UNION BANK NATL ASSOC,CA,532230,14566,2000,300,18,1,0,0,1,1,N,N,14609,255000,0,255000,191250,0,1,0.75,0,9000,23609
CHGOFF,2602396006,LYNWOOD CAPITAL & DEVELOPMENT,CORONA,CA,92880,"CITIBANK, N.A.",SD,531210,17162,2007,66,1,1,3,1,1,1,Y,N,17197,65200,0,28000,14000,0,0,0.5,0,1980,19177
P I F,3692764004,ESCROW TRANSFERS INC,CARLSBAD,CA,92008,COMERICA BANK,TX,531210,14713,2000,306,13,1,12,13,1,1,0,N,14853,1000000,0,1000000,750000,0,1,0.75,0,9180,24033
P I F,6597584004,"COMMUNITY REAL ESTATE CENTER,",STOCKTON,CA,95207,SBA DENVER FINANCE CENTER,CO,531210,15932,2003,240,70,1,15,0,1,1,0,N,16203,768000,0,768000,768000,0,1,1,0,7200,23403
P I F,6257654005,RE / MAX ALL PRO,PALMDALE,CA,93551,CALIFORNIA STATEWIDE CERT. DEV,CA,531210,15813,2003,240,65,1,32,0,68060,1,0,N,16084,372000,0,372000,372000,0,1,1,0,7200,23284
CHGOFF,3205104009,ITS MOVIE TIME,PISMO BEACH (PISMO),CA,93449,MUFG UNION BANK NATL ASSOC,CA,532230,14514,1999,56,1,1,3,1,1,1,0,N,14548,95000,0,95000,76000,0,0,0.8,0,1680,16228
P I F,6062514009,SYN-MAR ASSOCIATES,ANAHEIM,CA,92807,CDC SMALL BUS. FINAN CORP,CA,531320,15735,2003,240,12,1,10,12,1,1,N,N,15930,657000,0,657000,657000,0,1,1,0,7200,23130
P I F,2707095010,"JEFF CAIN, PLLC",SAN DIEGO,CA,92129,U.S. BANK NATIONAL ASSOCIATION,OH,531210,17427,2007,84,2,1,0,2,0,1,Y,N,17470,110010,0,36000,18000,0,0,0.5,0,2520,19990
CHGOFF,3331915002,VIDEO 2000,SAN JOSE,CA,95127,BBCN BANK,CA,532230,17959,2009,73,2,1,0,2,0,1,N,N,17987,25000,0,25000,21250,0,0,0.85,0,2190,20177
P I F,7095884005,DAVID D WESTCOTT MAI,SAN DIEGO,CA,92101,CALIFORNIA BANK & TRUST,CA,531320,16085,2004,28,1,1,0,1,1,1,Y,N,16101,10422,0,10000,5000,0,0,0.5,0,840,16941
P I F,1793745005,"Sonja Marie Simmons, Inc.",EARLIMART,CA,93219,BANK OF THE SIERRA,CA,531190,16919,2006,84,2,1,1,2,0,2,Y,N,16952,50000,0,50000,42500,0,0,0.85,0,2520,19472
CHGOFF,2673136006,CREDIT CAPITAL HOME LOANS & IN,RANCHO CUCAMONGA,CA,91701,JPMORGAN CHASE BANK NATL ASSOC,IL,531390,17211,2007,55,3,2,2,3,1,2,Y,N,17225,153897,0,45000,22500,1,0,0.5,0,1650,18875
P I F,5502374004,CENTURY 21 BACHELOR & ASSOCIAT,MURRIETA,CA,92562,ALTAPACIFIC BANK,CA,531210,15522,2002,84,11,2,0,0,15710,1,0,Y,15583,150000,0,150000,127500,1,0,0.85,0,2520,18103
P I F,3886835006,Prime Association Services Inc,San clemente,CA,92673,WELLS FARGO BANK NATL ASSOC,SD,531311,18296,2010,60,13,1,8,5,0,1,N,N,18353,100000,0,100000,50000,0,0,0.5,0,1800,20153
P I F,3750064005,SKYLIFT RENTALS,LOS ANGELES,CA,90031,HANMI BANK,CA,532490,14749,2000,300,9,1,0,9,1,1,0,N,14791,675000,0,675000,506250,0,1,0.75,0,9000,23791
P I F,1544125006,"JCC Investments, LLC",LAGUNA HILLS,CA,92653,BANK OF AMERICA NATL ASSOC,NC,531390,16757,2006,60,7,1,1,7,0,1,Y,N,16891,40000,0,40000,20000,0,0,0.5,0,1800,18691
CHGOFF,2280915007,Parkside Postal,SAN FRANCISCO,CA,94116,BBCN BANK,CA,532299,17212,2007,84,1,2,1,0,0,1,N,N,17225,10000,0,10000,8500,1,0,0.85,0,2520,19745
CHGOFF,2588915003,"CBDR Investments, Inc",FONTANA,CA,92335,CALIFORNIA BANK & TRUST,CA,531210,17370,2007,71,6,1,0,6,0,1,Y,N,17378,100000,0,100000,50000,0,0,0.5,0,2130,19508
P I F,1836605010,Advance Equipments Holdings Co,VISALIA,CA,93292,CENTRAL VALLEY COMMUNITY BANK,CA,532490,16945,2006,32,1,2,4,5,0,1,Y,N,17105,100000,0,100000,85000,1,0,0.85,1,960,18065
P I F,7984583002,STEVEN OH AJAX RENT A CAR,LOS ANGELES,CA,90006,HANMI BANK,CA,532111,12796,1995,60,6,1,0,0,1,0,N,Y,12814,100000,0,100000,90000,0,0,0.9,0,1800,14614
CHGOFF,2676005001,JOONSUNG CHANG DBA NOW ON DVD,CARSON,CA,90745,CAPITAL ONE NATL ASSOC,VA,532230,17413,2007,61,0,1,0,0,0,1,Y,N,17439,128478,0,50000,25000,0,0,0.5,0,1830,19269
P I F,9147674003,RAGTIME RENTALS INC,LOS ANGELES,CA,90038,CDC SMALL BUS. FINAN CORP,CA,532490,16714,2006,240,11,1,5,0,1,1,0,N,16903,330000,0,330000,330000,0,1,1,0,7200,24103
P I F,9429914001,BLUE WATER PARTY RENTALS,SOUTH SAN FRANCISCO,CA,94080,FIRST NATL BK OF NORTHERN CALI,CA,532299,16783,2006,84,10,1,5,10,1,1,0,N,16832,257000,0,257000,192750,0,0,0.75,0,2520,19352
P I F,7705564001,TIG ENTERPRISES LLC,CITY OF INDUSTRY (INDUSTRY),CA,91745,"CITIBANK, N.A.",SD,531311,16300,2004,84,2,1,0,2,1,1,Y,N,16526,45000,0,40000,20000,0,0,0.5,0,2520,19046
P I F,5781364003,BETTER HEALTH MANAGEMENT,NORTH HOLLYWOOD,CA,91606,WELLS FARGO BANK NATL ASSOC,SD,532490,15629,2003,29,2,1,0,0,1,1,0,N,15736,15000,0,15000,7500,0,0,0.5,0,870,16606
CHGOFF,1846605003,"JAMES R. WICK REALTY, INC.",MOORPARK,CA,93021,CAPITAL ONE NATL ASSOC,VA,531210,16952,2006,58,2,1,1,2,0,1,N,N,16982,50000,0,50000,25000,0,0,0.5,0,1740,18722
CHGOFF,6444654000,CRANIAL THERAPIES INC,NORTH HOLLYWOOD,CA,90068,WELLS FARGO BANK NATL ASSOC,SD,532291,15882,2003,6,4,1,3,4,1,1,T,N,15917,155000,0,100000,50000,0,0,0.5,0,180,16097
P I F,7291514007,HAROLD KENNETH FRITZ JR,LOS ANGELES,CA,91352,CALIFORNIA STATEWIDE CERT. DEV,CA,532112,16153,2004,240,2,1,6,0,1,1,0,N,16294,721000,0,721000,721000,0,1,1,0,7200,23494
P I F,6370044001,ALLIE'S PARTY EQUIPMENT RENTAL,SAN MARCOS,CA,92069,"CITIBANK, N.A.",CA,532299,15858,2003,60,30,1,8,30,1,1,0,N,15948,150000,0,150000,75000,0,0,0.5,1,1800,17748
CHGOFF,7604654005,MARIN 1 REAL ESTATE & INV SVCS,SAN RAFAEL,CA,94901,WELLS FARGO BANK NATL ASSOC,SD,531210,16265,2004,22,10,1,5,15,1,1,Y,N,16314,226268,0,70000,35000,0,0,0.5,0,660,16974
P I F,4193835008,"Hanley Investment Group, Inc.",Irvine,CA,92618,CITY NATIONAL BANK,CA,531210,18479,2010,84,10,1,0,10,0,1,Y,N,18479,250000,0,250000,125000,0,0,0.5,0,2520,20999
P I F,2801995005,SUZAN J RUSSELL,SAN JOSE,CA,95123,WELLS FARGO BANK NATL ASSOC,SD,531311,17478,2008,84,1,2,0,0,0,1,Y,N,17897,15000,0,15000,7500,1,0,0.5,0,2520,20417
P I F,7589934007,WEN HUA REALTOR INC,SAN GABRIEL,CA,91776,BANK OF AMERICA NATL ASSOC,NC,531210,16260,2004,84,4,1,3,1,1,1,Y,N,16467,20000,0,10000,5000,0,0,0.5,0,2520,18987
CHGOFF,2231945009,Neuhausen & Associates,WINNETKA,CA,91306,BBCN BANK,CA,531210,17188,2007,34,2,1,2,2,0,1,N,N,17197,15000,0,15000,12750,0,0,0.85,0,1020,18217
P I F,2031824007,MORRIS / ONE STOP,STOCKTON,CA,95201,BANK OF STOCKTON,CA,532111,14003,1998,84,21,2,0,0,1,0,0,Y,14060,100000,0,100000,80000,1,0,0.8,0,2520,16580
P I F,7810194010,SHEPHERD REALTY GROUP,RIVERSIDE,CA,92506,CDC SMALL BUS. FINAN CORP,CA,531210,16330,2004,240,20,1,5,20,1,1,0,N,17057,665000,0,665000,665000,0,1,1,0,7200,24257
CHGOFF,1018975003,"SOUTHLAND MGT., CO.",SANTA ANA,CA,92704,BANK OF AMERICA NATL ASSOC,NC,531390,16252,2004,22,5,1,0,0,1,1,N,N,16283,50000,0,50000,25000,0,0,0.5,0,660,16943
P I F,8572713002,SUBWAY,THOUSAND OAKS,CA,91362,WELLS FARGO BANK NATL ASSOC,SD,533110,13002,1995,120,13,1,0,0,78760,0,N,Y,13087,100000,0,100000,90000,0,0,0.9,0,3600,16687
P I F,2603856004,CAPITAL LOAN SPECIALISTS INC R,TORRANCE,CA,90505,SBA - EDF ENFORCEMENT ACTION,CO,531390,17163,2007,240,20,1,3,20,1,1,0,N,17239,1491000,0,1491000,1491000,0,1,1,0,7200,24439
P I F,9925643006,TAHOE MOTION PICTURE RENTALS,SUN VALLEY,CA,91352,CITY NATIONAL BANK,CA,532120,13542,1997,120,3,1,0,0,1,0,0,N,13665,251150,0,500000,375000,0,0,0.75,0,3600,17265
CHGOFF,2318865001,MOHUN AND ASSOCIATES REALTY CO,TRUCKEE,CA,96161,CAPITAL ONE NATL ASSOC,VA,531390,17233,2007,55,5,1,1,5,0,1,N,N,17256,100000,0,100000,50000,0,0,0.5,0,1650,18906
CHGOFF,2865616002,HORIZON LENDING,COSTA MESA,CA,92626,MUFG UNION BANK NATL ASSOC,CA,531210,17339,2007,84,35,2,0,35,1,1,Y,N,17439,24939,0,10000,5000,1,0,0.5,0,2520,19959
P I F,2137895000,"Avina & Hageman, Inc. dba: Gol",FRESNO,CA,93711,BANK OF THE SIERRA,CA,531210,17126,2007,12,1,2,1,1,0,1,Y,N,17166,250000,0,250000,187500,1,0,0.75,1,360,17526
P I F,7929464005,"VISION G12,INC.",LONG BEACH,CA,90804,HANMI BANK,CA,532230,16357,2005,60,3,2,0,3,1,1,0,N,16405,130000,0,130000,65000,1,0,0.5,0,1800,18205
CHGOFF,1419365009,The Korby Marks Intellectual P,INGLEWOOD,CA,90303,BANK OF AMERICA NATL ASSOC,NC,531311,16666,2005,63,2,2,0,2,0,1,Y,N,16740,5000,0,5000,2500,1,0,0.5,0,1890,18630
P I F,1818185000,"TLT Enterprises, LLC",BURNEY,CA,96013,REDDING BANK OF COMMERCE,CA,531311,16933,2006,120,150,1,0,0,0,2,N,N,16952,2000000,0,2000000,1500000,0,0,0.75,0,3600,20552
CHGOFF,2570145010,Movies N Joy,SAN PEDRO,CA,90731,BBCN BANK,CA,532230,17359,2007,52,5,1,1,1,0,1,N,N,17378,25000,0,25000,21250,0,0,0.85,0,1560,18938
P I F,3922125003,POWER PLUS!,ANAHEIM,CA,92806,PACIFIC ENTERPRISE BANK,CA,532490,18312,2010,120,150,2,0,150,0,1,N,N,18322,1665000,0,1665000,1498500,1,0,0.9,0,3600,21922
CHGOFF,1477895002,Monica & Jim DePriest dba: Vid,REEDLEY,CA,93654,BANK OF THE SIERRA,CA,532230,16707,2005,60,2,1,2,2,0,1,N,N,16801,10800,0,10800,9180,0,0,0.85,0,1800,18601
CHGOFF,1777965001,"HEALTHY FINANCIAL FUTURES, INC",SACRAMENTO,CA,95928,CAPITAL ONE NATL ASSOC,VA,531390,16912,2006,68,3,1,0,3,0,1,N,N,16952,25000,0,25000,12500,0,0,0.5,0,2040,18992
CHGOFF,7509884006,"LAKE OF THE SKY PROPERTIES, IN",TAHOE CITY,CA,96145,COMMUNITY W. BANK NATL ASSOC,CA,531120,16231,2004,217,4,1,2,2,1,1,0,N,16252,1656500,0,1656500,1242375,0,0,0.75,0,6510,22762
CHGOFF,8535384007,Dominador Calantog,DALY CITY,CA,94014,AURORA BANK FSB,CO,531210,16463,2005,219,2,2,2,0,1,1,0,N,16526,704000,0,704000,528000,1,0,0.75,0,6570,23096
P I F,1188815004,"Just Ergonomics, Inc.",SAN CARLOS,CA,94070,BANK OF AMERICA NATL ASSOC,NC,532291,16476,2005,84,6,1,0,6,1,1,Y,N,16495,64000,0,50000,25000,0,0,0.5,0,2520,19015
P I F,3924334004,LAUGHTON PROPERTIES INC,SACRAMENTO,CA,95816,U.S. BANK NATIONAL ASSOCIATION,OH,531210,14853,2000,300,57,1,0,57,1,1,0,N,14944,193000,0,193000,144750,0,1,0.75,0,9000,23944
P I F,1004285007,SIMPLEX OFFICE SOLUTIONS,ANAHEIM,CA,92801,CALIFORNIA BANK & TRUST,CA,532420,15074,2001,36,1,1,0,0,1,0,Y,N,15095,32812,0,30000,15000,0,0,0.5,0,1080,16175
P I F,3806565009,Orange County Capital,NEWPORT BEACH,CA,92663,U.S. BANK NATIONAL ASSOCIATION,OH,531390,18245,2010,84,5,1,0,5,0,1,Y,N,18245,71015,0,25000,12500,0,0,0.5,0,2520,20765
P I F,7229264003,POWERHOUSE VENTURES INCORPORAT,IRVINE,CA,92604,BANK OF AMERICA NATL ASSOC,NC,531210,16132,2004,33,1,1,0,1,1,1,Y,N,16252,20000,0,10000,5000,0,0,0.5,0,990,17242
CHGOFF,2572475008,Jbar Realty,RICHMOND,CA,94804,BANK OF AMERICA NATL ASSOC,NC,531210,17360,2007,30,1,1,0,1,0,1,Y,N,17378,71000,0,35000,17500,0,0,0.5,0,900,18278
CHGOFF,5678974000,NICEA INTERNATIONAL INC,BEVERLY HILLS,CA,90210,BANK OF AMERICA NATL ASSOC,NC,531390,15593,2002,40,4,1,2,4,1,1,T,N,15644,42402,0,40000,20000,0,0,0.5,0,1200,16844
P I F,6601534004,AMERICAN RENT ALL,TARZANA,CA,91356,SUNRISE BANK OF ARIZONA,AZ,532310,15935,2003,120,2,1,0,0,1,1,N,N,15978,459000,0,459000,344250,0,0,0.75,0,3600,19578
CHGOFF,2186305005,EXPRESS REAL ESTATE & FINANCIA,CUPERTINO,CA,95014,CAPITAL ONE NATL ASSOC,VA,531320,17155,2007,84,2,1,0,2,0,1,N,N,17197,25000,0,25000,12500,0,0,0.5,0,2520,19717
P I F,6963064002,RFG GROUP INC NUESTRA CASA MOR,SANTA ANA,CA,92701,CDC SMALL BUS. FINAN CORP,CA,531210,16034,2004,240,20,1,20,0,1,1,0,N,16203,680000,0,680000,680000,0,1,1,0,7200,23403
CHGOFF,6508693005,"COURTESY AUTO SALES, INC.",CHULA VISTA,CA,92010,COMERICA BANK,TX,532120,12509,1994,13,5,1,0,0,1,0,N,N,12538,275000,0,275000,206250,0,0,0.75,0,390,12928
CHGOFF,5116534006,KERLAR LLC,FULLERTON,CA,92835,OPUS BANK,CA,531120,15328,2002,305,10,1,0,10,1,1,0,N,15371,712300,0,712300,534225,0,1,0.75,0,9150,24521
CHGOFF,1364005008,"Hans Strom, Inc. dba Strom Com",San Diego,CA,92101,CALIFORNIA BANK & TRUST,CA,531210,16623,2005,84,5,1,1,5,0,1,Y,N,16648,93000,0,50000,25000,0,0,0.5,0,2520,19168
CHGOFF,2238665000,"Creative Concepts, Inc.",MOORPARK,CA,93021,TELESIS COMMUNITY CU,CA,532292,17190,2007,93,0,2,1,1,0,1,N,N,17225,193200,0,193200,144900,1,0,0.75,0,2790,20015
CHGOFF,1935285005,"SB Consulting, Inc.",WALNUT GROVE,CA,95690,BANK OF AMERICA NATL ASSOC,NC,531210,17006,2006,60,1,2,0,1,0,1,Y,N,17013,23000,0,23000,11500,1,0,0.5,0,1800,18813
P I F,1088625009,Michael L. Judson dba Linex Co,SAN RAFAEL,CA,94901,BANK OF AMERICA NATL ASSOC,NC,531210,16369,2005,84,4,1,0,0,1,1,N,N,16375,39000,0,10000,5000,0,0,0.5,0,2520,18895
P I F,6656734002,COUNTRY VILLAGE POSTAL AND VID,RAMONA,CA,92065,BANK OF AMERICA NATL ASSOC,NC,532230,15953,2003,84,1,1,0,1,1,2,Y,N,15978,14300,0,14300,7150,0,0,0.5,0,2520,18498
P I F,1156185000,"MTS UNLIMITED, INC.",VISTA,CA,92083,CAPITAL ONE NATL ASSOC,VA,532299,16448,2005,84,18,1,2,18,1,1,N,N,16467,50000,0,50000,25000,0,0,0.5,0,2520,18987
P I F,3407203006,GLITTER PHOTOGRAPHY INTERN.,VENTURA,CA,93003,GOVERMNET FUNDING CALBIDCO,CA,533110,10674,1989,120,4,1,0,0,0,0,N,N,10804,85000,0,85000,63750,0,0,0.75,0,3600,14404
P I F,3110705005,Seroj Mesropian Eagles,TUJUNGA,CA,91042,BBCN BANK,CA,531210,17685,2008,37,2,1,2,2,0,1,N,N,17713,20000,0,20000,17000,0,0,0.85,0,1110,18823
P I F,2760256005,HELP-U-SELL VALLEYWIDE PROPERT,GRANADA HILLS,CA,91344,MUFG UNION BANK NATL ASSOC,CA,531210,17274,2007,84,3,1,0,3,37481,1,Y,N,17286,25000,0,25000,12500,0,0,0.5,0,2520,19806
P I F,7597863003,PLANET VIDEO,SAN DIEGO,CA,92103,PACIFIC WESTERN BANK,CA,532230,12682,1994,120,5,1,0,0,1,0,N,N,12814,110000,0,110000,99000,0,0,0.9,0,3600,16414
CHGOFF,2147255000,"Lamax Development, Inc.",LOS ANGELES,CA,90010,BANK OF AMERICA NATL ASSOC,NC,531311,17133,2007,52,8,1,0,8,0,1,Y,N,17166,159432,0,100000,50000,0,0,0.5,0,1560,18726
P I F,2446015009,"JTJ Empire Investments, LLC",LOOMIS,CA,95650,BANK OF AMERICA NATL ASSOC,NC,531210,17295,2007,84,3,2,0,3,0,1,Y,N,17317,5000,0,5000,2500,1,0,0.5,0,2520,19837
P I F,6134804002,ACACIA EXECUTIVE SERVICES INC,DIAMOND BAR,CA,91765,BANK OF AMERICA NATL ASSOC,NC,531120,15763,2003,84,5,1,0,5,1,1,Y,N,15795,50000,0,50000,25000,0,0,0.5,0,2520,18315
CHGOFF,1483255005,Sepan Hall,LOS ANGELES,CA,90039,BANK OF AMERICA NATL ASSOC,NC,531120,16712,2006,7,1,1,0,1,0,1,N,N,16770,45000,0,45000,22500,0,0,0.5,0,210,16980
CHGOFF,2410876003,THE FLOYD COMPANY,IRVINE,CA,92606,COMMERCEWEST BANK,CA,531120,17058,2006,36,6,1,3,9,1,1,Y,N,17197,150000,0,150000,75000,0,0,0.5,0,1080,18277
CHGOFF,2520155004,RUPERTO R  AGATON,LA PUENTE,CA,91744,WELLS FARGO BANK NATL ASSOC,SD,531210,17332,2007,48,2,1,1,3,0,1,Y,N,17378,64391,0,30000,15000,0,0,0.5,0,1440,18818
P I F,2378145010,"Kester Archwood Plaza, LLC",VAN NUYS,CA,91405,U.S. BANK NATIONAL ASSOCIATION,OH,531312,17261,2007,300,4,1,1,3,0,1,N,N,17286,1329000,0,1329000,996750,0,1,0.75,0,9000,26286
P I F,6337824008,PROTECH GENERAL CONTRACTING SE,NAPA,CA,94559,BANK OF AMERICA NATL ASSOC,NC,532490,15846,2003,84,3,1,0,3,1,1,T,N,15886,25000,0,25000,12500,0,0,0.5,0,2520,18406
P I F,2643026007,BUILDERS REALTOR SERVICES CO,LIVERMORE,CA,94550,WELLS FARGO BANK NATL ASSOC,SD,531210,17191,2007,84,1,1,0,1,1,1,Y,N,17256,49320,0,25000,12500,0,0,0.5,0,2520,19776
CHGOFF,1192835002,Chan Yop Cho,Corona,CA,92879,WILSHIRE BANK,CA,532230,16478,2005,60,2,1,0,2,1,1,N,N,16526,60000,0,60000,30000,0,0,0.5,0,1800,18326
P I F,8786064010,NILES LUCERO REAL ESTATE GROUP,CLOVERDALE,CA,95425,U.S. BANK NATIONAL ASSOCIATION,OH,531210,16539,2005,84,3,1,0,3,1,1,Y,N,16648,25000,0,25000,12500,0,0,0.5,0,2520,19168
CHGOFF,2681255000,JAE SOK PAK DBA VIDEO TOUR,PACOIMA,CA,91331,CAPITAL ONE NATL ASSOC,VA,532230,17415,2007,67,7,1,0,7,0,1,Y,N,17439,103059,0,50000,25000,0,0,0.5,0,2010,19449
P I F,2089865007,"CSB, INC",TRACY,CA,95377,CAPITAL ONE NATL ASSOC,VA,531210,17100,2007,84,1,1,0,1,0,1,N,N,17135,15000,0,15000,7500,0,0,0.5,0,2520,19655
P I F,6189634007,OLYMPUS REALTY,MANHATTAN BEACH,CA,90266,BANK OF AMERICA NATL ASSOC,NC,531210,15785,2003,84,1,1,0,1,1,1,Y,N,15795,10000,0,10000,5000,0,0,0.5,0,2520,18315
CHGOFF,2829966005,CREEKSIDE REALTY GROUP,VISALIA,CA,93291,MUFG UNION BANK NATL ASSOC,CA,531210,17322,2007,52,2,1,0,0,1,1,Y,N,17347,30771,0,15000,7500,0,0,0.5,0,1560,18907
CHGOFF,1188446007,FINE FOOD CORP,GLENDALE,CA,91221,WELLS FARGO BANK NATL ASSOC,SD,532120,16860,2006,39,3,1,1,4,1,1,Y,N,16921,116007,0,40000,20000,0,0,0.5,0,1170,18091
P I F,9482674000,GRACE KENG REALTOR,CUPERTINO,CA,95014,WELLS FARGO BANK NATL ASSOC,SD,531210,16790,2006,60,1,1,0,1,1,1,Y,N,17197,10300,0,10000,5000,0,0,0.5,0,1800,18997
P I F,1804286001,BADEN CORPORATION,MALIBU,CA,90265,JPMORGAN CHASE BANK NATL ASSOC,IL,531210,16911,2006,84,2,2,0,2,1,2,Y,N,16921,10000,0,10000,5000,1,0,0.5,0,2520,19441
P I F,1608905004,JORGE A. NAJERA DBA VIDEO ZONE,SAN FRANCISCO,CA,94108,CAPITAL ONE NATL ASSOC,VA,532230,16811,2006,84,4,1,1,4,0,1,N,N,16860,15000,0,15000,7500,0,0,0.5,0,2520,19380
P I F,1842966005,KINGDOM ADVANCEMENT INC,CARLSBAD,CA,92010,WELLS FARGO BANK NATL ASSOC,SD,531210,16916,2006,84,1,1,0,1,1,1,Y,N,17074,109842,0,30000,15000,0,0,0.5,0,2520,19594
P I F,7276654005,KS REAL ESTATE,LOS ANGELES,CA,90043,"CITIBANK, N.A.",CA,531210,16148,2004,72,1,1,0,1,1,1,Y,N,16891,15000,0,15000,7500,0,0,0.5,0,2160,19051
P I F,4303093010,BEACH VIDEO,ANAHEIM,CA,92804,COMERICA BANK,CA,532230,11275,1991,84,1,1,0,0,1,0,N,N,11353,80000,0,80000,72000,0,0,0.9,0,2520,13873
P I F,6612584003,KOA UNION INVESTMENT INC,TEMPLE CITY (RUDELL),CA,91042,HANMI BANK,CA,531210,15938,2003,300,2,2,1,2,1,1,0,N,15978,307500,0,307500,230625,1,1,0.75,0,9000,24978
P I F,7411414007,LOWES SERVICES,WINNETKA,CA,91306,BANK OF AMERICA NATL ASSOC,NC,531312,16196,2004,58,5,1,0,5,1,1,N,N,16222,49950,0,50000,25000,0,0,0.5,1,1740,17962
P I F,4988304010,SCOTT WEBLEY (EPC) SHOWBIZ ENT,VAN NUYS,CA,91406,CATHAY BANK,CA,532210,15265,2002,120,35,1,0,35,1,1,0,N,15552,330000,0,330000,247500,0,0,0.75,0,3600,19152
P I F,5138184009,WILLIAM E LEWALLEN,CHULA VISTA,CA,91910,WELLS FARGO BANK NATL ASSOC,CA,531210,15344,2002,300,3,1,0,3,1,1,0,N,15371,150000,0,150000,75000,0,1,0.5,0,9000,24371
P I F,7762793000,MEGA VIDEO,CITRUS HEIGHTS,CA,95621,AMERICAN RIVER BANK,CA,532230,12729,1995,300,8,1,0,0,1,0,N,N,12814,401000,0,401000,300750,0,1,0.75,0,9000,21814
P I F,2319666009,FUNDING WELL CAPITAL INC,ALISO VIEJO,CA,92656,MUFG UNION BANK NATL ASSOC,CA,532490,17023,2006,84,4,2,0,4,1,1,Y,N,17044,60401,0,25000,12500,1,0,0.5,0,2520,19564
P I F,7537054001,KOBAWOO VIDEO,GARDEN GROVE,CA,92844,HANMI BANK,CA,532230,16240,2004,84,1,1,0,1,1,1,0,N,16252,160000,0,160000,80000,0,0,0.5,0,2520,18772
CHGOFF,3151956002,BUNCH CORPORATION,CAMPBELL,CA,85008,FOCUS BUSINESS BANK,CA,531311,17567,2008,120,5,1,0,5,1,1,0,N,17591,575000,0,575000,431250,0,0,0.75,0,3600,21191
P I F,6144114000,DAVID LOUIS PINCUS AND JOSHUA,STUDIO CITY,CA,91604,CALIFORNIA STATEWIDE CERT. DEV,CA,532420,15768,2003,240,12,1,6,0,1,1,0,N,15839,298000,0,298000,298000,0,1,1,0,7200,23039
P I F,8814484005,CENTRAL REAL ESTATE,LOS ANGELES,CA,90044,SOUTHLAND ECONOMIC DEVEL CORP,CA,531110,16551,2005,240,1,1,0,1,1,1,0,N,16665,144000,0,144000,144000,0,1,1,0,7200,23865
CHGOFF,4464183003,WEST COAST VIDEO/SJNA ENTERPRI,SAN DIEGO,CA,92126,BANK OF AMERICA NATL ASSOC,NC,532230,11464,1991,180,13,1,0,0,88407,0,N,N,11992,150000,0,211900,180115,0,0,0.85,0,5400,17392
CHGOFF,4158245002,"Mhunited.Com, LLC",CORONA DEL MAR,CA,92625,JPMORGAN CHASE BANK NATL ASSOC,IL,531390,18451,2010,84,1,2,1,1,0,1,Y,N,18451,29700,0,24700,12350,1,0,0.5,0,2520,20971
P I F,3405416005,"THE DAHM TEAM, INC.",BRAWLEY,CA,92227,COMMUNITY VALLEY BANK,CA,531210,17771,2008,46,3,1,3,3,1,2,T,N,18263,200000,0,200000,100000,0,0,0.5,0,1380,19643
P I F,3384935001,"Pacific Post Rentals, Inc.",Glendale,CA,91201,WELLS FARGO BANK NATL ASSOC,SD,532299,18004,2009,90,2,1,0,2,0,1,N,N,18048,243000,0,243000,218700,0,0,0.9,0,2700,20748
P I F,2058724001,"MOVIE MOVERS , INC.",VAN NUYS,CA,91405,CITY NATIONAL BANK,CA,532120,14013,1998,120,20,1,0,0,1,0,0,N,14030,1000000,0,1000000,750000,0,0,0.75,1,3600,17630
CHGOFF,2560916008,"BEAR EQUIPMENT RENTAL, INC",PARAMOUNT,CA,90723,BANC OF CALIFORNIA NATL ASSOC,CA,532412,17139,2007,18,11,1,1,12,1,2,Y,N,17197,104304,0,50000,25000,0,0,0.5,1,540,17737
P I F,1245455000,Eastlake Realty and Mortgage C,CHULA VISTA,CA,91914,BANK OF AMERICA NATL ASSOC,NC,531210,16520,2005,84,2,2,0,2,1,1,Y,N,16709,10000,0,10000,5000,1,0,0.5,0,2520,19229
P I F,9004573004,STEVE'S GOODTIME VIDEOS,SAN JOSE,CA,95132,U.S. BANK NATIONAL ASSOCIATION,AZ,532230,13192,1996,84,6,1,0,0,1,0,N,Y,13269,100000,0,100000,80000,0,0,0.8,0,2520,15789
P I F,2594775005,"C Direct Realty Consulting, LL",LANCASTER,CA,93536,BANK OF AMERICA NATL ASSOC,NC,531210,17372,2007,84,7,1,0,7,0,1,N,N,17409,37500,0,40000,20000,0,0,0.5,0,2520,19929
CHGOFF,1873155005,Autumn Cho dba Colima Financia,Stanton,CA,90680,CALIFORNIA BANK & TRUST,CA,531210,16966,2006,84,2,1,0,2,0,1,Y,N,17409,25015,0,25000,12500,0,0,0.5,0,2520,19929
P I F,4543243006,REDLANDS MOVIE SHOPPE/REYNOLDS,REDLANDS,CA,92373,GE CAP. SMALL BUS. FINAN CORP,TX,532230,11539,1991,240,7,1,0,0,1,0,N,N,11626,110000,0,110000,99000,0,1,0.9,0,7200,18826
CHGOFF,9334994000,VICTOR C LIGAN REALTOR,ELK GROVE,CA,65757,WELLS FARGO BANK NATL ASSOC,SD,531210,16768,2006,38,1,1,0,1,1,1,Y,N,16801,45476,0,30000,15000,0,0,0.5,1,1140,17941
P I F,9619854008,ALPHA VALUATION GROUP,SAN JOSE,CA,95126,BAY AREA EMPLOYMENT DEVEL CO,CA,531320,16810,2006,240,4,1,2,0,1,1,0,N,16903,444000,0,444000,444000,0,1,1,0,7200,24103
P I F,7765744009,CRUISER KING,SAN DIEGO,CA,92109,UMPQUA BANK,OR,532292,16317,2004,300,1,1,0,1,1,1,0,N,16375,302400,0,302400,226800,0,1,0.75,0,9000,25375
P I F,2497875009,ReMax Commercial Real Estate G,LOS ANGELES,CA,90015,EAST WEST BANK,CA,531210,17323,2007,120,0,2,11,11,69149,1,N,N,17347,350000,0,350000,262500,1,0,0.75,0,3600,20947
CHGOFF,3994354005,VIDEO SCENE OF TWAIN HARTE,TWAIN HARTE,CA,95383,WELLS FARGO BANK NATL ASSOC,SD,532230,14888,2001,8,5,1,0,0,1,1,0,Y,14944,127500,0,127500,95625,0,0,0.75,0,240,15184
CHGOFF,3576054006,TYE DYE VIDEO,WEAVERVILLE,CA,96093,UMPQUA BANK,CA,532230,14648,2000,120,2,1,2,2,1,2,0,N,14669,138000,0,138000,103500,0,0,0.75,0,3600,18269
P I F,1791255007,"AquaPrix, Inc.",HAYWARD,CA,94545,WILSHIRE BANK,CA,532420,16918,2006,120,15,1,0,15,0,1,N,N,16952,1525000,0,1525000,1143750,0,0,0.75,0,3600,20552
P I F,8945384010,RANCHO MORTGAGE,ALPINE,CA,91901,CALIFORNIA BANK & TRUST,CA,531190,16610,2005,168,7,1,1,8,1,2,0,N,16648,595000,0,595000,446250,0,0,0.75,0,5040,21688
P I F,7662504004,SAN JOSE CHOCOLATE FOUNTAINS,SAN JOSE,CA,95127,INNOVATIVE BANK,CA,532210,16285,2004,84,1,1,3,1,1,1,0,N,16314,5000,0,5000,2500,0,0,0.5,0,2520,18834
P I F,5500933006,U-SAVE AUTO RENTAL,SAN CLEMENTE,CA,92672,CALIFORNIA BANK & TRUST,CA,532111,12086,1993,254,4,1,0,0,1,0,N,N,12173,412000,0,412000,350200,0,1,0.85,0,7620,19793
P I F,4582114001,CENTURY 21 BUENA VISTA,SANTA PAULA,CA,93060,MUFG UNION BANK NATL ASSOC,CA,531210,15141,2001,240,15,1,5,15,15710,1,0,N,15187,168000,0,168000,126000,0,1,0.75,0,7200,22387
P I F,1900586008,EXTREME GRIP EQUIPMENT LLC,WEST HILLS,CA,91304,WELLS FARGO BANK NATL ASSOC,SD,532490,16922,2006,84,1,1,0,1,1,1,Y,N,16952,89947,0,35000,17500,0,0,0.5,0,2520,19472
P I F,9459064007,SAKS REALTY,SANTA CLARA,CA,95050,MUFG UNION BANK NATL ASSOC,CA,531210,16786,2006,84,3,1,0,0,15710,1,Y,N,16832,193729,0,50000,25000,0,0,0.5,0,2520,19352
P I F,6759684003,C&D REAL ESTATE APPRAISAL SERV,SAN CARLOS,CA,94070,WELLS FARGO BANK NATL ASSOC,CA,531320,15981,2004,300,7,1,0,7,1,1,0,N,16009,250000,0,250000,187500,0,1,0.75,0,9000,25009
CHGOFF,7108044000,RONNIE'S TUXEDOS,SAN LUIS OBISPO,CA,93401,MUFG UNION BANK NATL ASSOC,CA,532220,16090,2004,106,10,1,0,0,1,1,0,N,16101,150000,0,150000,127500,0,0,0.85,0,3180,19281
P I F,6137104010,JIM STEVER REALTY,FAIRFIELD,CA,94533,UMPQUA BANK,OR,531210,15764,2003,306,2,1,0,2,1,1,0,N,15825,500000,0,500000,375000,0,1,0.75,0,9180,25005
P I F,1346505001,"Turnbloom & Associates, Incorp",PLEASANT HILL,CA,94523,BANK OF AMERICA NATL ASSOC,NC,531210,16608,2005,84,6,1,0,6,1,1,Y,N,16801,55000,0,50000,25000,0,0,0.5,0,2520,19321
P I F,9796983006,TIE-DYE VIDEO,WEAVERVILLE,CA,96093,UMPQUA BANK,CA,532230,13479,1997,84,1,2,0,0,1,0,N,N,13545,50000,0,50000,40000,1,0,0.8,0,2520,16065
CHGOFF,3095626002,CENTURION APPRAISALS,UKIAH,CA,95482,JPMORGAN CHASE BANK NATL ASSOC,IL,531311,17512,2008,66,2,1,35,2,1,2,Y,N,17531,53371,0,24000,12000,0,0,0.5,0,1980,19511
P I F,2704045000,"HOMIDI REAL ESTATE AND LOANS,",FREMONT,CA,94538,U.S. BANK NATIONAL ASSOCIATION,OH,531210,17426,2007,84,1,1,0,1,0,1,Y,N,17470,67011,0,50000,25000,0,0,0.5,0,2520,19990
CHGOFF,2702565010,JAMES PATRICK DOLAN DBA JD CON,SAN DIEGO,CA,92117,CAPITAL ONE BK (USA) NATL ASSO,VA,531210,17426,2007,72,1,1,0,1,0,1,Y,N,17470,70000,0,35000,17500,0,0,0.5,0,2160,19630
P I F,2074015007,Flores Distribution,COSTA MESA,CA,92627,BBCN BANK,CA,531120,17091,2007,69,2,2,6,8,0,1,N,N,17105,5000,0,5000,4250,1,0,0.85,0,2070,19175
CHGOFF,7310684008,R & J VALLEJO ENTERPRISES,STOCKTON,CA,95209,WELLS FARGO BANK NATL ASSOC,SD,531210,16160,2004,8,3,1,1,3,1,1,Y,N,16314,216429,0,85000,42500,0,0,0.5,0,240,16554
P I F,6517044007,CARESS,GARDEN GROVE,CA,92841,MERRILL LYNCH BANK USA,UT,532299,15908,2003,60,15,1,0,15,1,1,0,N,15948,221000,0,300000,225000,0,0,0.75,1,1800,17748
CHGOFF,2887816004,EXCLUSIVE REAL ESTATE CORPORAT,WOODLAND HILLS,CA,91364,SBA - EDF ENFORCEMENT ACTION,CO,531210,17356,2007,240,10,1,5,10,1,1,0,N,17421,1799000,0,1799000,1799000,0,1,1,0,7200,24621
P I F,2747704001,VALLEY NATIONAL LEASE,FRESNO,CA,93706,CEN CAL BUSINESS FINANCE GROUP,CA,532120,14272,1999,240,15,1,5,0,1,0,N,N,14348,414000,0,446000,446000,0,1,1,0,7200,21548
P I F,1187995010,YOSEMITE / BASS LAKE ACTIVITIE,BASS LAKE,CA,93604,CAPITAL ONE NATL ASSOC,VA,532292,16476,2005,84,30,1,1,30,1,2,N,N,16526,50000,0,50000,25000,0,0,0.5,0,2520,19046
CHGOFF,9152104001,MIDWAY TRIANGLE LP A CALIFORNI,SAN DIEGO,CA,92110,WESTERN ALLIANCE BANK,AZ,531120,16715,2006,260,2,2,2,4,1,1,N,N,16740,921421,0,1073000,804750,1,1,0.75,0,7800,24540
CHGOFF,2435796010,TEAM MINISTRY GROUP LLC,LOS ANGELES,CA,90007,"CITIBANK, N.A.",SD,531390,17069,2006,59,6,1,3,6,1,1,Y,N,17105,109495,0,100000,50000,0,0,0.5,0,1770,18875
CHGOFF,6138794009,SANKOFA PROPERTY INVESTMENTS,OAKLAND,CA,94603,BBCN BANK,CA,531210,15764,2003,57,2,1,0,2,1,0,0,N,15764,5000,0,5000,4250,0,0,0.85,0,1710,17474
CHGOFF,2813125010,Tony Crumrine Real Estate,PLEASANTON,CA,94566,BANK OF AMERICA NATL ASSOC,NC,531210,17485,2008,55,4,1,0,4,0,1,T,N,17500,52500,0,35000,17500,0,0,0.5,0,1650,19150
P I F,2736755006,Frank Real Estate,LOS ANGELES,CA,90010,BBCN BANK,CA,531210,17440,2008,45,0,2,0,0,0,1,N,N,17470,10000,0,10000,8500,1,0,0.85,0,1350,18820
CHGOFF,2743075001,"PRIME RESIDENTIAL INVESTMENTS,",CAMPBELL,CA,95008,U.S. BANK NATIONAL ASSOCIATION,OH,531210,17443,2008,58,5,1,0,5,0,1,Y,N,17500,124060,0,50000,25000,0,0,0.5,0,1740,19240
P I F,6687254003,SKYE COMMUNICATIONS,PASADENA,CA,91104,BANK OF AMERICA NATL ASSOC,NC,532310,15963,2003,84,2,1,0,2,1,1,Y,N,15978,7319,0,33000,16500,0,0,0.5,0,2520,18498
P I F,8999524010,MOSEY INC,PALOS VERDES ESTATES,CA,90274,"CITIBANK, N.A.",CA,532490,16638,2005,84,2,1,1,2,1,1,Y,N,17652,35000,0,35000,17500,0,0,0.5,0,2520,20172
P I F,7815224005,SIGNATURE MRI SALES & SERVICES,LOS ANGELES,CA,90066,WELLS FARGO BANK NATL ASSOC,CA,532490,16331,2004,36,1,1,0,1,1,1,Y,N,16344,60014,0,30000,15000,0,0,0.5,0,1080,17424
P I F,5159004000,DRAGAN SERVICES,SAN DIEGO,CA,92109,CALIFORNIA BANK & TRUST,CA,531210,15356,2002,36,1,1,5,1,1,1,Y,N,15371,45000,0,45000,22500,0,0,0.5,0,1080,16451
P I F,8755154010,"RINETTI ENTERPRISES,LLC",LA CANADA,CA,91011,SBA - EDF ENFORCEMENT ACTION,CO,531390,16526,2005,240,22,1,3,22,1,1,0,N,17183,711000,0,711000,711000,0,1,1,0,7200,24383
P I F,6394324007,A J ROSS COMMERCIAL REAL ESTAT,SANTA PAULA,CA,93060,WELLS FARGO BANK NATL ASSOC,CA,531210,15866,2003,83,1,1,1,1,1,1,Y,N,15917,30000,0,30000,15000,0,0,0.5,0,2490,18407
P I F,2956446005,JET SOLUTIONS CORP,CARLSBAD,CA,92009,"CITIBANK, N.A.",SD,532411,17402,2007,84,1,1,0,1,1,1,Y,N,17805,50000,0,50000,25000,0,0,0.5,0,2520,20325
P I F,6507694010,SEAN TRUCK & REFER RENTAL,BARSTOW,CA,92311,DESERT COMMUN BANK A DIVISION,CA,532120,15904,2003,60,1,1,0,1,1,1,0,N,15948,24000,0,24000,12000,0,0,0.5,1,1800,17748
CHGOFF,1321525000,"Thomas M. Hildebrandt, III dba",Arcata,CA,95521,CAPITAL ONE NATL ASSOC,VA,532230,16589,2005,23,6,1,0,6,1,1,N,N,16617,75000,0,75000,37500,0,0,0.5,0,690,17307
P I F,2622286005,CAL STATE REALTY & LENDING AND,LONG BEACH,CA,90807,MORTGAGE CAP. DEVEL CORP,CA,531210,17177,2007,240,40,1,60,0,1,1,0,N,17239,597000,0,597000,597000,0,1,1,0,7200,24439
P I F,2305395003,NORTHERN CA. LOAN PROCESSING C,CONCORD,CA,94521,U.S. BANK NATIONAL ASSOCIATION,OH,531390,17226,2007,63,2,1,0,2,0,1,Y,N,17317,49546,0,45000,22500,0,0,0.5,0,1890,19207
P I F,6604034002,GJN INVESTMENTS INC,LOS ANGELES,CA,90057,INNOVATIVE BANK,CA,531210,15936,2003,84,1,2,0,1,1,1,0,N,15948,5000,0,5000,2500,1,0,0.5,0,2520,18468
P I F,8905694004,SUNBELT BUSINESS BROKERS OF SO,TORRANCE,CA,90504,WILSHIRE STATE BANK,CA,531210,16593,2005,300,20,1,8,20,79897,1,0,N,16648,2000000,0,2000000,1500000,0,1,0.75,0,9000,25648
CHGOFF,2292085004,REMA,Danville,CA,94506,CALIFORNIA BANK & TRUST,CA,531210,17219,2007,60,2,1,1,2,0,1,Y,N,17256,78000,0,50000,25000,0,0,0.5,0,1800,19056
P I F,3639493000,MAACO AUTO PAINTING & BODYWORK,SAN BERNARDINO,CA,92408,PACIFIC WESTERN BANK,CA,533110,10931,1990,120,6,2,0,0,49952,0,N,N,11077,90000,0,90000,81000,1,0,0.9,0,3600,14677
CHGOFF,1054835004,Carmen Hernandez and Pedro Her,PICO RIVERA,CA,90662,BANK OF AMERICA NATL ASSOC,NC,532299,16321,2004,62,2,1,0,0,1,1,T,N,16344,4999,0,10000,5000,0,0,0.5,0,1860,18204
CHGOFF,2470016005,CELSA TARAYA,HERCULES,CA,94547,AURORA BANK FSB,CO,531210,17087,2007,275,2,1,0,2,1,1,0,N,17105,612000,0,612000,459000,0,1,0.75,0,8250,25355
CHGOFF,2228215001,"HORSE AND HOME, INC",EL DORADO HILLS,CA,95762,U.S. BANK NATIONAL ASSOCIATION,OH,531390,17184,2007,59,1,2,0,1,0,1,Y,N,17225,35266,0,20000,10000,1,0,0.5,0,1770,18995
P I F,9025044004,NATIONWIDE BUSINESS CREDIT LLC,IRVINE,CA,92618,CDC SMALL BUS. FINAN CORP,CA,532490,16652,2005,240,22,1,28,0,1,1,0,N,17183,1283000,0,1350000,1350000,0,1,1,0,7200,24383
CHGOFF,2225236008,JIMBOY'S TACOS,TULARE,CA,93274,CERTIFIED DEVEL CORP OF TULARE,CA,531120,16994,2006,240,1,2,15,0,43571,1,0,N,17358,497000,0,497000,497000,1,1,1,0,7200,24558
P I F,6989123009,GLORIA LEACOX AND ASSOCIATES,SACRAMENTP,CA,95821,COMERICA BANK,TX,532420,12565,1994,120,2,1,0,0,1,0,N,N,12630,65000,0,65000,58500,0,0,0.9,0,3600,16230
P I F,1247315008,REYES PROPERTY MANAGEMENT GROU,SAN YSIDRO,CA,92173,CAPITAL ONE NATL ASSOC,VA,531311,16523,2005,84,4,1,2,4,1,1,N,N,16556,35000,0,35000,17500,0,0,0.5,0,2520,19076
CHGOFF,2323985007,Kandola Mortgage Service,SAN JOSE,CA,95116,BANK OF AMERICA NATL ASSOC,NC,531210,17237,2007,62,16,1,0,16,0,1,N,N,17286,15000,0,15000,7500,0,0,0.5,0,1860,19146
CHGOFF,2020785009,ROBERT SIZER,CARLSBAD,CA,92009,U.S. BANK NATIONAL ASSOCIATION,OH,531390,17059,2006,44,1,1,0,1,0,1,Y,N,17074,132480,0,29600,14800,0,0,0.5,0,1320,18394
P I F,2469195009,STEPHEN V LOOS,HOLLISTER,CA,95023,WELLS FARGO BANK NATL ASSOC,SD,531320,17308,2007,84,1,1,0,1,0,1,Y,N,17347,58372,0,30000,15000,0,0,0.5,0,2520,19867
CHGOFF,4063584000,"DIRECT DRIVES & CONTROLS, INC.",ORANGE,CA,92865,CDC SMALL BUS. FINAN CORP,CA,532490,14928,2001,240,5,1,5,0,1,1,N,N,15020,163000,0,163000,163000,0,1,1,0,7200,22220
CHGOFF,5641834000,BUDGET RENT A CAR OF MODESTO,MODESTO,CA,95358,SUCCESS CAP. EXPANSION & DEVEL,CA,532111,15575,2002,240,3,1,3,0,1,1,N,N,15867,138000,0,182000,182000,0,1,1,0,7200,23067
CHGOFF,3336545008,GREEN BAND ENTERPRISES LLC,LA VERNE,CA,91750,"SUPERIOR FINANCIAL GROUP, LLC",CA,531390,17966,2009,110,2,1,2,2,0,1,N,N,17987,10000,0,10000,8500,0,0,0.85,0,3300,21287
P I F,3877874009,MAX EQUIPMENT RENTAL LLC,SAN MARCOS,CA,95069,MUFG UNION BANK NATL ASSOC,CA,532412,14829,2000,180,3,2,2,5,1,1,0,N,14883,500000,0,500000,375000,1,0,0.75,0,5400,20283
P I F,4365093005,MONTECITO VIDEO,SANTA BARBARA,CA,93108,COMMUNITY W. BANK NATL ASSOC,CA,532230,11358,1991,84,5,1,0,0,1,0,N,N,11442,140000,0,140000,126000,0,0,0.9,0,2520,13962
P I F,5426653006,THE VIDEO STORE,SANTA ROSA,CA,95405,WESTAMERICA BANK,CA,532230,12058,1993,84,30,1,0,0,1,0,N,N,12084,317000,0,317000,253600,0,0,0.8,0,2520,14604
P I F,5222144000,ERA SEA WAVE REAL ESTATE,PISMO BEACH (PISMO),CA,93449,COAST NATIONAL BANK,CA,531210,15390,2002,300,1,1,0,1,1,2,0,N,15430,400000,0,400000,300000,0,1,0.75,0,9000,24430
CHGOFF,2906785008,"WEST BRIDGES REALTY, INC.",SAN DIEGO,CA,92126,CAPITAL ONE BK (USA) NATL ASSO,VA,531210,17546,2008,57,12,1,0,12,0,1,Y,N,17591,128984,0,50000,25000,0,0,0.5,0,1710,19301
P I F,4104884004,"FLASHCO, INC.",BAKERSFIELD,CA,93307,MID ST. DEVEL CORP,CA,532412,14948,2001,240,5,1,5,0,1,1,N,N,15265,314000,0,338000,338000,0,1,1,0,7200,22465
CHGOFF,2945226003,PACIFIC QUEST REAL ESTATE INC,CHULA VISTA,CA,91910,"CITIBANK, N.A.",SD,531390,17393,2007,48,15,1,0,15,1,1,0,N,17470,25000,0,25000,12500,0,0,0.5,0,1440,18910
CHGOFF,2454596004,LAMAZ DEVELOPMENT INC,LOS ANGELES,CA,90010,JPMORGAN CHASE BANK NATL ASSOC,IL,531311,17078,2007,58,7,1,0,7,1,2,Y,N,17105,64696,0,50000,25000,0,0,0.5,0,1740,18845
CHGOFF,2706836001,J & S EQUIPMENT RENTALS,ACAMPO,CA,95220,WELLS FARGO BANK NATL ASSOC,SD,532412,17234,2007,92,12,1,0,12,1,1,0,N,17256,700000,0,700000,525000,0,0,0.75,0,2760,20016
CHGOFF,1592465008,"Caruthers Valuation Group, Inc",SAN BERNARDINO,CA,92408,BANK OF AMERICA NATL ASSOC,NC,531390,16792,2006,46,5,1,0,5,0,1,Y,N,16832,133922,0,50000,25000,0,0,0.5,0,1380,18212
CHGOFF,1841775009,THOMAS WILLIAM CUNNINGHAM DBA,ESCONDIDO,CA,92025,CAPITAL ONE NATL ASSOC,VA,531210,16947,2006,62,1,1,0,1,0,1,N,N,16982,50000,0,50000,25000,0,0,0.5,0,1860,18842
CHGOFF,2636195007,DANIEL MICHAEL MORRISON DBA MO,LINCOLN,CA,95648,CAPITAL ONE BK (USA) NATL ASSO,VA,531210,17392,2007,70,4,1,2,4,0,1,Y,N,17439,64494,0,35000,17500,0,0,0.5,0,2100,19539
CHGOFF,8753954010,"COYOTE RENTAL & SALES, INC.",WILDOMAR,CA,92595,TELESIS COMMUNITY CU,CA,532310,16526,2005,111,3,1,0,0,1,1,N,N,16556,1525000,0,1525000,1143750,0,0,0.75,0,3330,19886
P I F,6480103000,DALCO NATIONALEASE,SAN LEANDRO,CA,94577,FIRST BANK,MO,532120,12506,1994,84,11,1,0,0,1,0,N,N,12538,750000,0,750000,525000,0,0,0.7,0,2520,15058
P I F,2752956003,GMA LAND CO,MERCED,CA,95340,WESTAMERICA BANK,CA,531210,17268,2007,85,1,2,1,1,1,1,0,N,17286,277000,0,277000,207750,1,0,0.75,0,2550,19836
P I F,5203024004,LIZARAZU & ASSOCIATES,PASADENA,CA,91104,WILSHIRE BANK,CA,531210,15378,2002,300,7,1,0,7,1,1,0,N,15430,175000,0,175000,131250,0,1,0.75,0,9000,24430
P I F,9738833009,EAGLERIDER MOTORCYCLE RENTAL,TORRANCE,CA,90501,UMPQUA BANK,OR,532111,13460,1997,84,10,1,0,0,1,0,N,N,13545,500000,0,500000,375000,0,0,0.75,0,2520,16065
P I F,6196884010,FOUQUETTE COMMERCIAL REAL ESTA,LOS ANGELES,CA,90034,HERITAGE BANK OF COMMERCE,CA,531312,15789,2003,300,5,1,3,5,1,1,0,N,15825,294000,0,294000,220500,0,1,0.75,0,9000,24825
CHGOFF,2461385002,"SR CAPITAL GROUP, INC.",BEVERLY HILLS,CA,90211,U.S. BANK NATIONAL ASSOCIATION,OH,531312,17303,2007,19,1,1,0,1,0,1,Y,N,17317,32321,0,15000,7500,0,0,0.5,1,570,17887
P I F,5213994006,BATES COMPANY,MONROVIA,CA,91016,WELLS FARGO BANK NATL ASSOC,CA,531210,15384,2002,60,8,1,5,5,1,1,0,N,15521,150000,0,150000,75000,0,0,0.5,0,1800,17321
P I F,6261514001,KEN PECUS REALTOR,CORONADO,CA,92116,CALIFORNIA BANK & TRUST,CA,531210,15816,2003,60,3,1,2,3,1,1,0,N,15825,50000,0,50000,25000,0,0,0.5,1,1800,17625
P I F,3386416009,CONCRETE SOLUTIONS & SUPPLY,THOUSAND OAKS,CA,91362,PACIFIC MERCANTILE BANK,CA,532490,17757,2008,84,15,1,3,18,1,1,0,N,17775,250000,0,250000,125000,0,0,0.5,0,2520,20295
P I F,2439925002,FRONTIER HOLDINGS GROUP LLC,NEWARK,CA,94560,U.S. BANK NATIONAL ASSOCIATION,OH,531311,17293,2007,84,2,1,0,2,0,1,Y,N,17317,50000,0,50000,25000,0,0,0.5,0,2520,19837
P I F,5770654001,OSUNA EQUIPMENT RENTALS,DEL MAR,CA,92014,CALIFORNIA BANK & TRUST,CA,532412,15623,2003,36,2,1,0,2,1,2,0,N,15886,16200,0,16700,8350,0,0,0.5,0,1080,16966
CHGOFF,2745195006,PREMIER COAST FINANCIAL SERVIC,OXNARD,CA,93030,CAPITAL ONE NATL ASSOC,VA,531210,17444,2008,67,2,1,0,2,0,1,N,N,17500,35000,0,35000,17500,0,0,0.5,0,2010,19510
P I F,3588023009,LASER LAND,SAN JOSE,CA,95129,WELLS FARGO BANK NATL ASSOC,CA,532230,10909,1990,84,3,2,0,0,1,0,N,N,10988,115000,0,115000,103500,1,0,0.9,0,2520,13508
CHGOFF,1528046002,PLANET VIDEO,NORTH HOLLYWOOD,CA,91606,WELLS FARGO BANK NATL ASSOC,SD,532230,16889,2006,38,3,1,0,3,1,1,Y,N,16952,49959,0,30000,15000,0,0,0.5,0,1140,18092
CHGOFF,1904875002,"Silverwood Mortgage, Inc.",LOS ANGELES,CA,90071,BANK OF AMERICA NATL ASSOC,NC,531210,16985,2006,51,7,1,0,7,0,1,N,N,17135,75000,0,35000,17500,0,0,0.5,0,1530,18665
P I F,2480096000,FALLBROOK EQUIPMENT RENTALS,SAN DIEGO,CA,92123,SBA - EDF ENFORCEMENT ACTION,CO,532412,17092,2007,240,36,1,4,36,1,1,0,N,17183,804000,0,804000,804000,0,1,1,0,7200,24383
CHGOFF,1717255009,GOOD LAND INCHRIST INC.,FULLERTON,CA,92832,CALIFORNIA BANK & TRUST,CA,531320,16877,2006,60,4,2,1,4,0,1,N,N,16891,100000,0,100000,50000,1,0,0.5,0,1800,18691
P I F,2185214004,RENT A WRECK,RESEDA,CA,91335,U.S. BANK NATIONAL ASSOCIATION,OH,532111,14069,1998,300,5,1,0,0,1,0,0,N,14091,180000,0,180000,135000,0,1,0.75,0,9000,23091
CHGOFF,2789345005,"VALUATION ONE, INC",SAN DIMAS,CA,91773,CAPITAL ONE BK (USA) NATL ASSO,VA,531320,17471,2008,54,17,1,0,17,0,1,Y,N,17500,121210,0,50000,25000,0,0,0.5,0,1620,19120
P I F,9797314002,PUMP IT UP OF RANCHO CUCAMONGA,WILDOMAR,CA,92595,JPMORGAN CHASE BANK NATL ASSOC,IL,532299,16828,2006,84,14,1,0,14,1,2,Y,N,16860,49186,0,20000,10000,0,0,0.5,0,2520,19380
CHGOFF,2544785010,"HONEY EQUIPMENT, INC.",RAMONA,CA,92065,CAPITAL ONE NATL ASSOC,VA,532412,17345,2007,22,2,1,0,2,0,1,N,N,17378,50000,0,50000,25000,0,0,0.5,1,660,18038
P I F,4188514005,B & N WATER TRUCKING CO.,TRACY,CA,95376,CENTRAL VALLEY COMMUNITY BANK,CA,532411,14983,2001,60,1,2,0,0,1,1,0,Y,15034,30000,0,30000,25500,1,0,0.85,0,1800,16834
P I F,6982324003,SANTA BARBARA OLD TOWN TROLLEY,SANTA BARBARA,CA,93101,MONTECITO BANK & TRUST,CA,532299,16041,2004,120,10,1,2,0,1,1,0,N,16070,208000,0,208000,156000,0,0,0.75,0,3600,19670
P I F,5563634003,SNO-RANCHERIA INC,LAKESHORE,CA,93634,CENTRAL VALLEY COMMUNITY BANK,CA,532292,15547,2002,60,5,1,0,5,1,1,0,N,15583,75000,0,75000,63750,0,0,0.85,0,1800,17383
CHGOFF,7959854005,SOMMERVILLE INVESTMENT COMPANY,LOS ANGELES,CA,90043,U.S. BANK NATIONAL ASSOCIATION,OH,531311,16363,2005,300,7,1,4,3,1,1,0,N,16436,403700,0,403700,302775,0,1,0.75,0,9000,25436
P I F,5611744007,A1 COAST RENTALS INC,TORRANCE,CA,90505,COMMUNITY BANK,CA,532412,15565,2002,120,48,1,5,48,1,1,0,N,15644,2000000,0,2000000,1000000,0,0,0.5,0,3600,19244
P I F,2753185003,Exit Grand Heritage Realty,LA VERNE,CA,91750,UMPQUA BANK,OR,531210,17450,2008,99,1,1,1,1,0,1,N,N,17470,50000,0,50000,42500,0,0,0.85,0,2970,20440
P I F,7454734009,SHIRVAN REALTY GROUP AND SHIRV,PASADENA,CA,91104,BANC OF CALIFORNIA NATL ASSOC,CA,531210,16211,2004,300,6,1,0,6,1,1,0,N,16222,924000,0,924000,693000,0,1,0.75,0,9000,25222
P I F,2546236009,2003 MINA POURANG FAMILY TRUST,IRVINE,CA,92618,SOUTHLAND ECONOMIC DEVEL CORP,CA,531210,17129,2007,240,10,1,7,10,1,1,0,N,17302,248000,0,248000,248000,0,1,1,0,7200,24502
P I F,1460875000,"Atlas Marketing Group, Inc.",SACRAMENTO,CA,95821,U.S. BANK NATIONAL ASSOCIATION,OH,531311,16698,2005,61,1,1,1,2,0,1,Y,N,17197,53450,0,25000,12500,0,0,0.5,0,1830,19027
P I F,3620504008,VIDEO KAMRON,CORTE MADERA,CA,94925,MUFG UNION BANK NATL ASSOC,CA,532230,14676,2000,300,3,1,0,0,1,1,N,N,14730,480000,0,480000,360000,0,1,0.75,0,9000,23730
P I F,4697704001,DEAN OF VIDEO,DOWNEY,CA,90241,WILSHIRE BANK,CA,532230,15176,2001,120,5,1,0,5,1,1,0,N,15218,120000,0,120000,102000,0,0,0.85,0,3600,18818
CHGOFF,2443385009,"BRIAN D. GARBUTT, INC.",NEWPORT BEACH,CA,92660,CAPITAL ONE NATL ASSOC,VA,531390,17295,2007,51,1,1,0,1,0,1,Y,N,17409,135269,0,50000,25000,0,0,0.5,0,1530,18939
CHGOFF,2352695002,Miguel Armendarez and Neveen S,Redondo Beach,CA,90277,SOUTH CNTY BANK NATL ASSOC,CA,532220,17250,2007,101,3,1,2,3,0,1,N,N,17256,200000,0,200000,150000,0,0,0.75,0,3030,20286
CHGOFF,2271146006,REALTY WORLD REAL ESTATE,MADERA,CA,93638,COAST NATIONAL BANK,CA,531210,17009,2006,273,16,1,5,16,68905,2,0,N,17044,120000,0,120000,90000,0,1,0.75,0,8190,25234
P I F,9202224001,CHAMP VIDEO & WIRELESS,VAN NUYS,CA,91405,UNITI BANK,CA,532230,16735,2006,84,3,1,0,3,1,1,0,N,16770,150000,0,150000,75000,0,0,0.5,0,2520,19290
P I F,4050905008,C&D Real Estate Appraisal & Re,Roseville,CA,95678,SBA - EDF ENFORCEMENT ACTION,CO,531320,18379,2010,240,14,1,8,0,0,1,N,N,18548,215000,0,215000,215000,0,1,1,0,7200,25748
P I F,2505476004,JB HOMES MORTGAGE INC,LONG BEACH,CA,90807,SOUTHLAND ECONOMIC DEVEL CORP,CA,531210,17106,2007,240,10,1,7,10,1,1,0,N,17239,234000,0,234000,234000,0,1,1,0,7200,24439
P I F,7469704003,ALPINE POWER EQUIPMENT,TAHOE CITY,CA,96145,BANK OF THE WEST,CA,532310,16217,2004,300,3,1,3,6,1,1,0,N,16252,371000,0,371000,278250,0,1,0.75,0,9000,25252
CHGOFF,4293395004,JBM Family Trust dated April 1,LOS ANGELES,CA,90034,BANC OF CALIFORNIA NATL ASSOC,CA,531312,18536,2011,300,14,1,0,14,0,1,N,N,18567,510000,0,510000,459000,0,1,0.9,0,9000,27567
CHGOFF,1617135000,MAROL DEAN CONNELLY DBA PROPER,MANTECA,CA,95337,CAPITAL ONE NATL ASSOC,VA,531210,16818,2006,59,1,1,2,1,0,1,N,N,16860,50000,0,50000,25000,0,0,0.5,0,1770,18630
P I F,2569476003,M & M QUINTANILLA REALTY INC,CERES,CA,95307,CEN CAL BUSINESS FINANCE GROUP,CA,531210,17142,2007,240,2,1,4,0,1,1,0,N,17330,157000,0,157000,157000,0,1,1,0,7200,24530
CHGOFF,1430295002,Universal Properties & Financi,CANOGA PARK,CA,91303,BANK OF AMERICA NATL ASSOC,NC,531390,16673,2005,44,13,1,0,13,0,1,N,N,16709,45000,0,45000,22500,0,0,0.5,1,1320,18029
P I F,1091405003,THE FRANK TEHAN CORPORATION,KENSINGTON,CA,94707,CAPITAL ONE NATL ASSOC,VA,532299,16371,2005,84,3,1,0,0,1,1,N,N,16405,25000,0,25000,12500,0,0,0.5,0,2520,18925
CHGOFF,7965304000,EXECUTIVE OFFICE CENTERS,LA PALMA,CA,90623,WELLS FARGO BANK NATL ASSOC,SD,531120,16364,2005,38,2,1,1,3,1,1,Y,N,16436,99340,0,40000,20000,0,0,0.5,1,1140,17576
CHGOFF,2093375005,Sambath Som & Nelson Nguyen (E,San Jose,CA,95138,BBCN BANK,CA,531390,17101,2007,220,23,1,0,23,0,1,N,N,17135,791000,0,791000,593250,0,0,0.75,0,6600,23735
P I F,9629034002,MCCABE MANAGEMENT,SANTA MONICA,CA,90404,WELLS FARGO BANK NATL ASSOC,SD,531390,16811,2006,60,2,1,0,2,1,1,0,N,16891,100000,0,100000,50000,0,0,0.5,0,1800,18691
P I F,4866104000,CARL'S RENTALS,SAN DIEGO,CA,92105,MUFG UNION BANK NATL ASSOC,CA,532120,15215,2001,300,12,1,0,12,1,1,0,N,15248,96800,0,96800,82280,0,1,0.85,0,9000,24248
P I F,6104864008,HELPING HANDS MED. SUPPLIES ET,VENTURA,CA,91362,CALIFORNIA UNITED BANK,CA,532291,15750,2003,87,6,2,0,0,1,1,N,N,15764,78000,0,78000,66300,1,0,0.85,0,2610,18374
P I F,5615033007,ECONO LUBE N' TUNE #114,CORONA,CA,91719,WELLS FARGO BANK NATL ASSOC,SD,533110,12142,1993,60,5,2,0,0,26685,0,N,N,12173,145590,0,145590,131031,1,0,0.9,0,1800,13973
CHGOFF,2855386001,SUNBELT BUSINESS BROKERS,ALAMEDA,CA,94502,MORTGAGE CAP. DEVEL CORP,CA,531390,17335,2007,240,1,1,4,0,79897,1,0,N,17575,291000,0,291000,291000,0,1,1,0,7200,24775
CHGOFF,5965014008,PACIFIC REAL ESTATE CENTER INC,PACIFIC MANOR,CA,94044,U.S. BANK NATIONAL ASSOCIATION,OH,531210,15694,2003,300,9,1,0,9,1,1,0,N,15705,1020000,0,1020000,765000,0,1,0.75,0,9000,24705
P I F,5656334006,CAPITAL MANAGEMENT SERVICES,PLACERVILLE,CA,95667,UMPQUA BANK,OR,531312,15581,2002,84,1,1,1,2,1,1,0,N,15644,25000,0,25000,21250,0,0,0.85,0,2520,18164
P I F,5652134008,BJ PARTY SUPPLIES,MONTEREY PARK,CA,91745,OPUS BANK,CA,532299,15580,2002,300,15,1,0,15,1,1,0,N,15613,625500,0,625500,469125,0,1,0.75,0,9000,24613
CHGOFF,1908466001,WICKED RENTALS,SYLMAR,CA,91342,MUFG UNION BANK NATL ASSOC,CA,532292,16923,2006,44,1,2,0,1,1,1,Y,N,16952,9500,0,5500,2750,1,0,0.5,0,1320,18272
CHGOFF,9005144002,PREMIERE PROPERTY APPRAISALS I,OAKLAND,CA,94610,WELLS FARGO BANK NATL ASSOC,SD,531320,16642,2005,28,5,1,1,5,1,1,Y,N,16679,51272,0,25000,12500,0,0,0.5,1,840,17519
P I F,4096914010,ROBERT SHEA PERDUE R.A. APPRAI,TEMECULA,CA,92590,CDC SMALL BUS. FINAN CORP,CA,531320,14944,2001,240,3,1,5,3,1,1,N,N,15440,162000,0,188000,188000,0,1,1,0,7200,22640
P I F,4401814001,VINOTHEQUE WINE CELLARS,STOCKTON,CA,95205,U.S. BANK NATIONAL ASSOCIATION,OH,531120,15062,2001,300,50,1,0,0,1,1,N,N,15126,143000,0,143000,107250,0,1,0.75,0,9000,24126
CHGOFF,2755906005,GALLERIA WEDDING GROUP INC,LOS ANGELES,CA,90006,BANCO POPULAR NORTH AMERICA,NY,532220,17269,2007,0,8,1,0,8,1,1,Y,N,17378,90000,0,90000,45000,0,0,0.5,0,0,17378
P I F,2498946004,CALIFORNIA COASTAL REAL ESTATE,SAN LUIS OBISPO,CA,93401,COAST NATIONAL BANK,CA,531210,17101,2007,12,2,2,2,4,1,2,Y,N,17135,43550,0,25000,12500,1,0,0.5,0,360,17495
P I F,4310185003,Cast Logistics LLC,Watsonville,CA,95076,SANTA CRUZ COUNTY BANK,CA,531120,18548,2011,120,1,1,0,1,0,2,N,N,18567,500000,0,500000,450000,0,0,0.9,0,3600,22167
P I F,1597665008,Advanced Performance Real Esta,STOCKTON,CA,95212,BANK OF AMERICA NATL ASSOC,NC,531210,16799,2006,49,1,2,0,1,0,1,N,N,16982,7000,0,7000,3500,1,0,0.5,0,1470,18452
P I F,3234444005,VALLEY VIDEO,COTTONWOOD,CA,96022,NORTH VALLEY BANK,CA,532230,14524,2000,300,4,1,4,4,1,1,0,N,14548,180000,0,180000,135000,0,1,0.75,0,9000,23548
P I F,6494994006,YOUNGS VIDEO,GARDEN GROVE,CA,92844,BANK OF AMERICA NATL ASSOC,NC,532210,15901,2003,84,2,2,0,2,1,1,Y,N,15917,9424,0,10000,5000,1,0,0.5,0,2520,18437
P I F,6164064006,AT THE HELM BOAT RENTALS,MORRO BAY,CA,93442,COAST NATIONAL BANK,CA,532292,15776,2003,120,1,2,1,1,1,2,0,N,15856,120000,0,120000,102000,1,0,0.85,0,3600,19456
P I F,1729145008,Albertson Village Pueblo LLC,SAINT HELENA,CA,94574,U.S. BANK NATIONAL ASSOCIATION,OH,531120,16883,2006,84,2,2,0,2,0,1,Y,N,17531,181219,0,50000,25000,1,0,0.5,0,2520,20051
P I F,5429844006,PALEY COMMERCIAL REAL ESTATE,WOODLAND HILLS,CA,91367,U.S. BANK NATIONAL ASSOCIATION,OH,531210,15490,2002,300,5,1,2,3,1,1,0,N,15583,493400,0,493400,370050,0,1,0.75,0,9000,24583
P I F,2742176001,ALEXANDRA MOARI INC,OAKLAND,CA,94602,JPMORGAN CHASE BANK NATL ASSOC,IL,531210,17260,2007,84,6,1,4,6,1,2,Y,N,17409,125155,0,45000,22500,0,0,0.5,0,2520,19929
CHGOFF,2250255009,Creative Lending Solutions,La Mesa,CA,91941,CALIFORNIA BANK & TRUST,CA,531210,17197,2007,64,5,2,0,5,0,1,Y,N,17225,65000,0,50000,25000,1,0,0.5,0,1920,19145
P I F,9007154009,CYNTHIA THUY VU TEN POINTS REA,SAN JOSE,CA,95112,EAST WEST BANK,CA,531210,16643,2005,300,1,1,1,1,1,1,0,N,16679,679000,0,679000,509250,0,1,0.75,0,9000,25679
P I F,4387084010,BROADWAY VIDEO RENTAL & SALES,LONG BEACH,CA,90803,COMERICA BANK,TX,532230,15055,2001,300,20,1,0,20,1,1,0,N,15095,254500,0,260000,195000,0,1,0.75,0,9000,24095
P I F,8381974003,GLOBAL ONE LENDING LLC,ALHAMBRA,CA,91803,SBA - EDF ENFORCEMENT ACTION,CO,531210,16435,2005,240,535,1,0,535,1,1,0,N,16539,549000,0,549000,549000,0,1,1,0,7200,23739
P I F,7408034010,CHAN EQUIPMENT INC,SAN GABRIEL,CA,91775,FIRST NIAGARA BANK NATL ASSOC,NY,532490,16195,2004,60,2,1,1,2,1,1,0,N,16252,100000,0,100000,50000,0,0,0.5,1,1800,18052
P I F,7194924010,PETERSEN EVENTS CORP A CALIFOR,ARCADIA,CA,91006,CDC SMALL BUS. FINAN CORP,CA,532490,16119,2004,240,4,1,6,0,1,1,0,N,16266,207000,0,207000,207000,0,1,1,0,7200,23466
P I F,4547313000,PHOENIX MERCHANT INVESTMENTS,SACRAMENTO,CA,95827,WELLS FARGO BANK NATL ASSOC,SD,532230,11542,1991,84,25,1,0,0,1,0,N,N,11626,135000,0,135000,121500,0,0,0.9,0,2520,14146
P I F,3434656006,"RMJ & PARTNERS, INC.",SANTA CLARITA,CA,91355,SBA - EDF ENFORCEMENT ACTION,CO,531390,17798,2008,240,4,1,6,0,1,1,0,N,17911,803000,0,803000,803000,0,1,1,0,7200,25111
P I F,2676596010,RENZ & RENZ,GILROY,CA,95020,CALIFORNIA BANK & TRUST,CA,531210,17213,2007,168,2,1,2,4,1,1,0,N,17256,320500,0,320500,240375,0,0,0.75,0,5040,22296
CHGOFF,1519505000,Coldwell Banker The Oakdale Re,OAKDALE,CA,95361,BANK OF AMERICA NATL ASSOC,NC,531210,16737,2006,43,9,1,0,9,0,1,N,N,16860,35000,0,20000,10000,0,0,0.5,0,1290,18150
P I F,3080964004,PERFORMANCE REALTY & NATY ALVA,HESPERIA,CA,92345,DESERT COMMUN BANK A DIVISION,CA,531210,14447,1999,300,11,1,3,0,1,1,0,N,14487,212400,0,212400,159300,0,1,0.75,0,9000,23487
P I F,6857804006,BRIDAL GALLERY,MODESTO,CA,95356,CAPITAL ONE NATL ASSOC,VA,532220,16008,2004,84,3,1,1,3,1,1,0,N,16070,35000,0,35000,17500,0,0,0.5,0,2520,18590
P I F,5755924001,FOUNDATION ESCROW COMPANY,SAN DIEGO,CA,92120,COMERICA BANK,TX,531210,15615,2003,120,1,2,2,2,1,1,0,N,15644,107000,0,107000,90950,1,0,0.85,0,3600,19244
CHGOFF,2428925007,TAE H KIM DBA ODYSSEY VIDEO,MARINA DEL REY,CA,90292,CAPITAL ONE NATL ASSOC,VA,532230,17288,2007,61,5,2,0,5,0,1,N,N,17317,25000,0,25000,12500,1,0,0.5,0,1830,19147
CHGOFF,1682745002,Act Fast Inc,RANCHO SANTA MARGARITA,CA,92688,U.S. BANK NATIONAL ASSOCIATION,OH,531312,16859,2006,61,1,2,0,1,0,1,Y,N,16891,77872,0,41000,20500,1,0,0.5,0,1830,18721
P I F,5650894009,ANTONIO PONCE,BUENA PARK,CA,90620,BANK OF AMERICA NATL ASSOC,NC,532220,15580,2002,84,1,1,0,1,1,1,Y,N,15613,12000,0,25000,12500,0,0,0.5,0,2520,18133
CHGOFF,2223706003,MLJ & ASSOCIATES,CERRITOS (DAIRY VALLEY),CA,90703,BANCO POPULAR NORTH AMERICA,NY,531390,16994,2006,36,4,1,4,4,1,1,Y,N,17074,14649,0,10000,5000,0,0,0.5,0,1080,18154
CHGOFF,2176276001,ENRIQUE SILVA PEREZ,VISTA,CA,92083,MUFG UNION BANK NATL ASSOC,CA,531210,16975,2006,84,1,1,0,1,1,1,Y,N,16982,18770,0,10000,5000,0,0,0.5,0,2520,19502
P I F,4298124007,SOUNDTRONICS WIRELESS A GENERA,BURBANK,CA,91506,U.S. BANK NATIONAL ASSOCIATION,OH,532299,15018,2001,300,4,1,2,2,1,1,0,N,15065,222700,0,222700,167025,0,1,0.75,0,9000,24065
P I F,3011376003,GOLDMINE INVESTMENTS,LOS ANGELES,CA,90703,JPMORGAN CHASE BANK NATL ASSOC,IL,531311,17441,2008,70,2,1,1,2,1,1,Y,N,17470,51400,0,50000,25000,0,0,0.5,0,2100,19570
P I F,6448254006,MAGELLAN REALTY INC,PANORAMA CITY,CA,91402,WELLS FARGO BANK NATL ASSOC,SD,531210,15882,2003,84,4,1,2,4,1,1,Y,N,18383,40111,0,40000,20000,0,0,0.5,0,2520,20903
P I F,5678864002,DOCUSOURCE INC DOCUSOURCE LLC,IRVINE,CA,92614,NATIONAL BANK OF CALIFORNIA,CA,532420,15593,2002,84,75,1,0,75,1,1,0,N,15674,700000,0,700000,525000,0,0,0.75,0,2520,18194
CHGOFF,1122665004,Richard Aguilar dba Big Bounce,TULARE,CA,93274,BANK OF AMERICA NATL ASSOC,NC,532299,16413,2005,4,2,1,0,0,1,1,N,N,16436,12000,0,12000,6000,0,0,0.5,0,120,16556
CHGOFF,2803766006,WRIGHT MORTGAGE CO,SAN DIEGO,CA,92126,MUFG UNION BANK NATL ASSOC,CA,531210,17304,2007,56,6,1,0,0,1,1,Y,N,17317,22215,0,10000,5000,0,0,0.5,0,1680,18997
P I F,1928525007,GEOFFREY DAVID BOWEN DBA GEOFF,FRESNO,CA,93730,CAPITAL ONE NATL ASSOC,VA,531210,17001,2006,84,1,1,0,1,0,1,N,N,17074,25000,0,25000,12500,0,0,0.5,0,2520,19594
P I F,2722125004,"MCBF Real Estate Investors, LL",SALINAS,CA,93905,BANK OF AMERICA NATL ASSOC,NC,531390,17434,2007,84,1,2,0,1,0,1,Y,N,17470,7500,0,5000,2500,1,0,0.5,0,2520,19990
CHGOFF,7461084002,THE VENDIL TRUST (EPC),HERCULES,CA,94547,UMPQUA BANK,OR,531210,16215,2004,208,2,1,0,2,1,1,0,N,16252,420000,0,420000,315000,0,0,0.75,0,6240,22492
P I F,2724716004,THOMAS L BRIDGES PROPERTIES,HAYWARD,CA,94544,"CITIBANK, N.A.",SD,531190,17246,2007,84,1,1,0,1,1,1,Y,N,17256,48350,0,26000,13000,0,0,0.5,0,2520,19776
P I F,1756465005,Buena Vista Partners,SAN FRANCISCO,CA,94111,BANK OF AMERICA NATL ASSOC,NC,531210,16899,2006,84,1,2,0,1,0,1,Y,N,16982,73000,0,63000,31500,1,0,0.5,0,2520,19502
CHGOFF,2443805004,"Gold Value California Reality,",ENCINO,CA,91316,BANK OF AMERICA NATL ASSOC,NC,531210,17295,2007,64,56,1,0,56,0,1,N,N,17317,35000,0,35000,17500,0,0,0.5,0,1920,19237
P I F,6364614010,CALIFORNIA WILSHIRE APPRAISAL,LOS ANGELES,CA,90010,BBCN BANK,CA,531320,15855,2003,300,2,1,0,2,1,1,0,N,15886,765000,0,765000,573750,0,1,0.75,0,9000,24886
P I F,9958873001,EFM ASSOCIATES,LOS ANGELES,CA,90068,WELLS FARGO BANK NATL ASSOC,SD,531110,13557,1997,60,4,1,0,0,1,0,T,N,NA,35000,0,35000,17500,0,0,0.5,0,1800,NA
CHGOFF,5433414009,ABC PARTY RENTALS,CHULA VISTA,CA,91911,BANK OF AMERICA NATL ASSOC,NC,532299,15491,2002,26,3,1,2,3,1,1,T,N,15521,20000,0,20000,10000,0,0,0.5,0,780,16301
P I F,2161834008,VIDEOZONE,HANFORD,CA,93230,CALIFORNIA BANK & TRUST,CA,532230,14056,1998,276,23,1,0,0,1,0,0,N,14425,881800,0,881800,661350,0,1,0.75,0,8280,22705
P I F,2173526009,NDP GROUP LLC A CALIFORNIA LIM,CHINO,CA,91710,FIRST-CITIZENS BK & TR CO,NC,531210,16974,2006,300,4,1,0,4,1,1,0,N,17044,230500,0,230500,172875,0,1,0.75,0,9000,26044
CHGOFF,1868035010,LG Investments & Property Mana,ELK GROVE,CA,95758,BANK OF AMERICA NATL ASSOC,NC,531311,16964,2006,64,2,1,0,2,0,1,T,N,17013,105000,0,35000,17500,0,0,0.5,0,1920,18933
CHGOFF,3020216003,EDWARD EREDIA INVESTMENTS,EL MONTE,CA,91732,"CITIBANK, N.A.",SD,531390,17449,2008,51,4,1,0,4,1,1,Y,N,17470,70000,0,30000,15000,0,0,0.5,0,1530,19000
CHGOFF,2245475000,"W.S.H., LLC",CORONA DL MAR,CA,92625,CAPITAL ONE NATL ASSOC,VA,531320,17195,2007,60,2,1,0,2,0,1,N,N,17225,100000,0,100000,50000,0,0,0.5,0,1800,19025
CHGOFF,2479345010,"Ladera Realty, Inc.",LOS ANGELES,CA,90045,BANK OF AMERICA NATL ASSOC,NC,531390,17311,2007,64,15,1,2,15,0,1,N,N,17347,14500,0,10000,5000,0,0,0.5,0,1920,19267
P I F,2174116006,RE MAX LEGACY,REDDING,CA,96001,CDC SMALL BUS. FINAN CORP,CA,531210,16974,2006,240,13,1,37,13,68060,2,0,N,17057,389000,0,392000,392000,0,1,1,0,7200,24257
P I F,4316633005,VIDEOS TO GO,NORTHRIDGE,CA,91326,CITY NATIONAL BANK,CA,532230,11295,1991,120,5,1,0,0,1,0,N,N,11353,50000,0,50000,40000,0,0,0.8,0,3600,14953
CHGOFF,1554505006,"L.A. CITY BROKERS, INC.",LOS ANGELES,CA,90063,CAPITAL ONE NATL ASSOC,VA,531210,16765,2006,20,12,1,3,12,0,1,Y,N,16801,84492,0,35000,17500,0,0,0.5,0,600,17401
P I F,2291736003,ARRIAGA REAL ESTATE,SACRAMENTO,CA,95816,"CAPITAL ACCESS GROUP, INC.",CA,531210,17015,2006,240,16,1,15,0,1,1,0,N,17120,580000,0,580000,580000,0,1,1,0,7200,24320
P I F,4802054010,HOLLYWOOD HONEYWAGON & PRODUCT,NORTH HOLLYWOOD,CA,91606,MUFG UNION BANK NATL ASSOC,CA,532120,15197,2001,123,4,1,1,4,1,1,0,N,15248,150000,0,150000,127500,0,0,0.85,0,3690,18938
CHGOFF,2507735007,A A Appraisals,NOVATO,CA,94947,U.S. BANK NATIONAL ASSOCIATION,OH,531320,17328,2007,58,1,1,0,1,0,1,Y,N,17347,41711,0,20000,10000,0,0,0.5,0,1740,19087
P I F,3446483001,VIDEO BOX OFFICE,SANTA CRUZ,CA,95066,WELLS FARGO BANK NATL ASSOC,SD,532230,10734,1989,96,10,1,0,0,0,0,N,N,10804,50000,0,50000,45000,0,0,0.9,0,2880,13684
P I F,5756393003,"PATEL, RAMESH M. AND TARLA R",LOS ALTOS,CA,94022,JPMORGAN CHASE BANK NATL ASSOC,OR,532230,12241,1993,120,14,2,0,0,10533,0,N,N,12357,300000,0,300000,255000,1,0,0.85,0,3600,15957
P I F,9893874006,MEGA VIDEO & WIRELESS HIGHLAND,HIGHLAND,CA,92346,UNITI BANK,CA,532230,16838,2006,60,5,2,0,5,1,1,0,N,16891,150000,0,150000,75000,1,0,0.5,0,1800,18691
P I F,5805424003,GET INSURANCE SERVICES,SAN JOSE,CA,95125,CAPITAL ONE NATL ASSOC,VA,531210,15637,2003,84,2,1,0,2,1,1,0,N,15705,50000,0,50000,25000,0,0,0.5,0,2520,18225
P I F,7262084010,MEACHEM/OPPENHEIMER INC.,CAMPBELL,CA,95008,MORTGAGE CAP. DEVEL CORP,CA,531210,16142,2004,240,18,1,10,0,1,1,0,N,16238,931000,0,931000,931000,0,1,1,0,7200,23438
CHGOFF,2649925000,PIANA HOLDINGS INC,ANAHEIM,CA,92807,"SUPERIOR FINANCIAL GROUP, LLC",CA,531210,17399,2007,109,3,1,2,3,0,1,N,N,17409,10000,0,10000,8500,0,0,0.85,0,3270,20679
CHGOFF,7097794006,USA FUNDING GROUP LLC,IRVINE,CA,92618,BANK OF AMERICA NATL ASSOC,NC,531312,16085,2004,55,2,1,0,2,1,1,Y,N,16101,37000,0,37000,18500,0,0,0.5,1,1650,17751
P I F,7312604010,MOVIES & MORE,LOS ANGELES,CA,90066,BBCN BANK,CA,532230,16160,2004,120,6,1,0,6,1,1,0,N,16222,252000,0,252000,189000,0,0,0.75,0,3600,19822
P I F,1267495002,Kutzer Management Company Inco,SOUTH PASADENA,CA,91030,BANK OF AMERICA NATL ASSOC,NC,531312,16539,2005,84,12,1,3,12,1,1,Y,N,16556,111500,0,90000,45000,0,0,0.5,0,2520,19076
P I F,5748063009,UPTOWN VIDEO,RIPON,CA,95366,WESTAMERICA BANK,CA,532230,12241,1993,300,6,1,0,0,1,0,N,N,12357,286800,0,286800,243780,0,1,0.85,0,9000,21357
P I F,1137015000,Salay Bangura dba Lungi Enterp,WALNUT,CA,91789,BANK OF AMERICA NATL ASSOC,NC,531390,16426,2005,61,4,1,0,0,1,1,T,N,16436,10000,0,10000,5000,0,0,0.5,0,1830,18266
P I F,4423534001,M & K HARVESTING EQUIPMENT A C,WILLIAMS,CA,95987,BANK OF AMERICA NATL ASSOC,NC,532490,15070,2001,84,3,2,1,3,1,1,Y,N,15218,30619,0,50000,25000,1,0,0.5,1,2520,17738
CHGOFF,2625685006,"SEAWAY PROPERTIES REAL ESTATE,",TEMECULA,CA,92590,CAPITAL ONE NATL ASSOC,VA,531210,17386,2007,63,5,1,1,5,0,1,Y,N,17439,127023,0,50000,25000,0,0,0.5,0,1890,19329
P I F,2763106001,HAVEN VIEW ESCROW,RANCHO CUCAMONGA,CA,91730,FIRST-CITIZENS BK & TR CO,NC,531390,17275,2007,36,17,1,0,17,1,1,0,N,17286,50000,0,50000,42500,0,0,0.85,0,1080,18366
CHGOFF,2463105003,Century Manufactured Homes and,WESTMINSTER,CA,92685,BANK OF AMERICA NATL ASSOC,NC,531210,17303,2007,68,1,1,0,1,0,1,N,N,17317,30000,0,30000,15000,0,0,0.5,0,2040,19357
P I F,1499785005,SHELLEY H. RABY DBA SHELLEY RA,ONTARIO,CA,91762,CAPITAL ONE NATL ASSOC,VA,531210,16726,2006,84,1,1,3,1,0,1,N,N,16770,50000,0,50000,25000,0,0,0.5,0,2520,19290
P I F,5486354008,GLOBAL ENTERTAINMENT PARTNERS,SHERMAN OAKS,CA,91403,COMMUNITY BANK,CA,532299,15516,2002,120,5,2,5,5,1,1,0,N,15552,1285000,0,1285000,963750,1,0,0.75,0,3600,19152
P I F,2840725008,GEORGE PAPPAS REALTOR,SAN DIEGO,CA,92103,U.S. BANK NATIONAL ASSOCIATION,OH,531210,17500,2008,84,1,1,1,2,0,1,Y,N,17531,10000,0,10000,5000,0,0,0.5,0,2520,20051
CHGOFF,4456624000,FORTUNA EQUPIMENT RENTAL,FORTUNA,CA,95540,UMPQUA BANK,CA,532412,15085,2001,108,2,1,0,2,1,2,0,N,15095,135000,0,135000,114750,0,0,0.85,0,3240,18335
P I F,6740524001,HOME ADVANTAGE CORP.,HAYWARD,CA,94544,MORTGAGE CAP. DEVEL CORP,CA,531210,15977,2003,240,4,1,4,0,1,1,N,N,16056,936000,0,936000,936000,0,1,1,0,7200,23256
P I F,8223394000,BILL FERRELL CO,VAN NUYS,CA,91411,WELLS FARGO BANK NATL ASSOC,CA,532490,16408,2005,60,9,1,1,1,1,1,0,N,16467,100000,0,100000,50000,0,0,0.5,0,1800,18267
CHGOFF,2783436003,PILKINGTON MANAGEMENT GROUP IN,ANTIOCH,CA,94509,MECHANICS BANK,CA,531311,17290,2007,30,6,2,6,6,1,1,Y,N,17378,146462,0,60000,30000,1,0,0.5,0,900,18278
P I F,1005996006,"GOLD CROWN HOME LOANS, INC",LOS ANGELES,CA,91345,SBA - EDF ENFORCEMENT ACTION,CO,531390,16840,2006,240,65,1,3,65,1,1,0,N,16903,343000,0,343000,343000,0,1,1,0,7200,24103
P I F,4789764005,ADNALIAN & VASQUEZ REAL ESTATE,FRESNO,CA,93711,CEN CAL BUSINESS FINANCE GROUP,CA,531210,15195,2001,240,5,1,5,0,1,1,N,N,15293,235000,0,235000,235000,0,1,1,0,7200,22493
P I F,7861954002,SW COMMERCIAL CREDIT INC,LOS ANGELES,CA,90017,BBCN BANK,CA,532490,16343,2004,12,2,1,2,2,1,1,Y,N,16375,100000,0,100000,50000,0,0,0.5,0,360,16735
P I F,2453225000,REX DOWNING REALTOR,SAN DIEGO,CA,92116,CAPITAL ONE NATL ASSOC,VA,531210,17300,2007,84,4,1,0,4,0,1,N,N,17347,50000,0,50000,25000,0,0,0.5,0,2520,19867
P I F,1924615002,SCV Home Buyer,VALENCIA,CA,91355,BANK OF AMERICA NATL ASSOC,NC,531210,16999,2006,84,7,1,0,7,0,1,Y,N,17044,15000,0,15000,7500,0,0,0.5,0,2520,19564
CHGOFF,9727444000,HAULING 4 LESS,VISTA,CA,92084,WELLS FARGO BANK NATL ASSOC,SD,532412,16821,2006,49,1,1,4,5,1,1,Y,N,16832,19984,0,15000,7500,0,0,0.5,0,1470,18302
P I F,4941593001,BJ'S ATV RENTALS,GROVER CITY,CA,93433,HERITAGE OAKS BANK,CA,532120,11892,1992,240,14,1,0,0,1,0,N,N,11992,670000,0,670000,536670,0,1,0.801,0,7200,19192
CHGOFF,2887175006,Bridgeway Commercial,OAKLAND,CA,94619,BBCN BANK,CA,531210,17531,2008,47,1,1,2,1,0,1,N,N,17562,25000,0,25000,21250,0,0,0.85,0,1410,18972
CHGOFF,2983286000,GREEN VALLEY ASSOCIATES,NAPA,CA,94558,MORTGAGE CAP. DEVEL CORP,CA,531210,17422,2007,240,12,1,15,0,1,1,0,N,17512,1655000,0,1655000,1655000,0,1,1,0,7200,24712
P I F,2134455002,"T-SAP Enterprises, Inc.",CORONA,CA,92879,U.S. BANK NATIONAL ASSOCIATION,OH,531311,17125,2007,84,1,2,0,1,0,1,Y,N,17135,36379,0,20000,10000,1,0,0.5,0,2520,19655
P I F,6037364010,DUPAR AND ANGEL MANUFACTURED H,GALT,CA,95632,SBA - EDF ENFORCEMENT ACTION,CO,531390,15726,2003,240,53,1,22,0,1,1,0,N,15811,127000,0,127000,127000,0,1,1,0,7200,23011
P I F,8713584001,ELLY NESIS COMPANY INC,INGLEWOOD,CA,90301,CDC SMALL BUS. FINAN CORP,CA,531311,16512,2005,240,27,1,12,0,1,1,0,N,17211,519000,0,519000,519000,0,1,1,0,7200,24411
P I F,8945264009,WINDERMERE PROPERTIES INC,WEST HOLLYWOOD (BR. P.O. NAME,CA,90069,COMERICA BANK,TX,531210,16610,2005,120,2,2,2,2,1,1,0,N,16648,770000,0,770000,577500,1,0,0.75,0,3600,20248
P I F,9390974010,CAZAREZ REALTY & LOANS INC.,STOCKTON,CA,95215,MORTGAGE CAP. DEVEL CORP,CA,531210,16777,2006,240,2,1,2,0,1,1,0,N,16875,134000,0,134000,134000,0,1,1,0,7200,24075
P I F,4388285009,Imperial Valley Real Estate Se,El centro,CA,92243,COMMUNITY VALLEY BANK,CA,531311,18592,2011,14,7,1,0,8,0,2,Y,N,18597,285000,0,200000,100000,0,0,0.5,0,420,19017
CHGOFF,4984573006,BLOCKBUSTER VIDEO (R),CARSON,CA,90746,PACIFIC WESTERN BANK,CA,532230,11924,1992,78,25,2,0,0,1,0,N,N,11992,675000,0,675000,573750,1,0,0.85,0,2340,14332
P I F,2852026003,GOING PROPERTY INVESTMENTS,LA MESA,CA,91941,"CITIBANK, N.A.",SD,531311,17332,2007,51,1,1,0,1,1,1,Y,N,17409,65944,0,35000,17500,0,0,0.5,0,1530,18939
CHGOFF,3308865002,"SEPIA FINANCIAL SERVICES, INC.",HUNTINGTON BEACH,CA,92648,"SUPERIOR FINANCIAL GROUP, LLC",CA,531390,17924,2009,82,1,1,0,1,0,1,N,S,17928,7500,0,7500,6375,0,0,0.85,0,2460,20388
P I F,5879654005,CELEBRATION PARTY EQUIPMENT RE,HAYWARD,CA,94545,CALIFORNIA BANK & TRUST,CA,532299,15663,2003,60,2,1,1,2,1,1,0,N,15674,35000,0,35000,17500,0,0,0.5,0,1800,17474
CHGOFF,2536505007,MOVIE TIME,HUNTINGTON BEACH,CA,92647,"SUPERIOR FINANCIAL GROUP, LLC",CA,532230,17342,2007,120,2,1,0,2,0,1,N,N,17347,7500,0,7500,6375,0,0,0.85,0,3600,20947
CHGOFF,6448284004,20/20 VIDEO,STUDIO CITY,CA,91604,WILSHIRE BANK,CA,532230,15882,2003,72,6,1,2,6,1,1,0,N,15917,150000,0,150000,127500,0,0,0.85,1,2160,18077
P I F,4196235000,Realty World,Santa clara,CA,95051,"CAPITAL ACCESS GROUP, INC.",CA,531210,18480,2010,240,1,1,7,0,68905,1,N,N,18548,452000,0,452000,452000,0,1,1,0,7200,25748
P I F,1836555008,Advance Equipment Holdings Co.,VISALIA,CA,93291,CENTRAL VALLEY COMMUNITY BANK,CA,532490,16945,2006,69,1,2,4,5,0,1,N,N,16982,184101,0,360000,270000,1,0,0.75,0,2070,19052
P I F,5715824001,PRIME TYME,LOS ANGELES,CA,90045,BANK OF AMERICA NATL ASSOC,NC,531210,15606,2002,84,3,1,0,3,1,1,Y,N,15795,10000,0,10000,5000,0,0,0.5,0,2520,18315
CHGOFF,1556055006,"Eminent Properties, LLC",SAN JOSE,CA,95128,BANK OF AMERICA NATL ASSOC,NC,531390,16768,2006,55,2,2,0,2,0,1,T,N,16860,12700,0,12700,6350,1,0,0.5,0,1650,18510
P I F,5112994007,BERKELEY STREET LLC,LOS ANGELES,CA,90404,WELLS FARGO BANK NATL ASSOC,CA,531120,15327,2002,120,2,1,0,0,1,1,0,N,15399,125000,0,125000,62500,0,0,0.5,0,3600,18999
P I F,9767863006,NORM'S RV RENTALS,POWAY,CA,92064,PACIFIC WESTERN BANK,CA,532120,13471,1997,210,2,1,0,0,1,0,0,N,13483,62221,0,64000,48000,0,0,0.75,0,6300,19783
P I F,9225304004,H2 ENVIRONMENTAL CONSULTING,CHINO,CA,91710,PACIFIC WESTERN BANK,CA,531120,16741,2006,300,14,1,0,0,1,1,N,N,16770,502200,0,502200,376650,0,1,0.75,0,9000,25770
P I F,4790464006,JMB INC,GLENDALE,CA,91205,WILSHIRE BANK,CA,531190,15195,2001,300,6,1,0,6,1,1,0,N,15218,428000,0,428000,321000,0,1,0.75,0,9000,24218
CHGOFF,2688065005,"Mellon Mid-Century Capital, In",LA JOLLA,CA,92037,U.S. BANK NATIONAL ASSOCIATION,OH,531210,17419,2007,57,2,2,1,3,0,1,Y,N,17439,88911,0,40000,20000,1,0,0.5,0,1710,19149
CHGOFF,6889174001,TAYDON ENTERPRISES,CASTAIC,CA,91384,BANK OF AMERICA NATL ASSOC,NC,531311,16015,2004,57,3,1,1,3,1,1,N,N,16039,50000,0,50000,25000,0,0,0.5,1,1710,17749
P I F,1885645007,JONATHAN G & PIPER K BURGESS,SACRAMENTO,CA,95816,U.S. BANK NATIONAL ASSOCIATION,OH,531210,16973,2006,60,2,1,2,4,0,1,N,N,16982,28000,0,28000,14000,0,0,0.5,0,1800,18782
P I F,8933964010,"CIDejjko, INC",TRACY,CA,95376,SBA DENVER FINANCE CENTER,CO,531210,16603,2005,240,50,1,20,0,68905,2,0,N,17883,833000,0,833000,833000,0,1,1,0,7200,25083
CHGOFF,3324796001,KAVILOAZ INC. dba.  PRESTIGE P,CHULA VISTA,CA,91914,FIRST-CITIZENS BK & TR CO,NC,531210,17724,2008,289,1,1,1,1,1,1,0,N,17744,479000,0,479000,359250,0,1,0.75,0,8670,26414
CHGOFF,2174685006,"ROYSTARICA, INC.",SAN DIEGO,CA,92109,U.S. BANK NATIONAL ASSOCIATION,OH,531390,17148,2007,59,5,1,3,8,0,1,Y,N,17166,40808,0,20000,10000,0,0,0.5,0,1770,18936
CHGOFF,7524584008,MINGLEWOOD INC,GRASS VALLEY,CA,95949,BANK OF AMERICA NATL ASSOC,NC,531311,16237,2004,38,1,1,0,1,1,1,T,N,16252,50000,0,50000,25000,0,0,0.5,0,1140,17392
CHGOFF,5281704002,REALTY RESPONSE INC,PALMDALE,CA,93551,UMPQUA BANK,CA,531210,15418,2002,96,7,2,1,7,1,1,0,N,15460,150000,0,150000,127500,1,0,0.85,0,2880,18340
CHGOFF,3101856009,THE PRINCE BUSINESS GROUP INC,RANCHO CUCAMONGA,CA,91730,JPMORGAN CHASE BANK NATL ASSOC,IL,531311,17518,2008,35,4,1,0,4,1,1,Y,N,17531,79937,0,30000,15000,0,0,0.5,0,1050,18581
CHGOFF,5885394006,AUDIO TEK-VT AUDIO,SAN DIEGO,CA,92105,BANK OF AMERICA NATL ASSOC,NC,532230,15664,2003,13,2,1,0,2,1,1,N,N,15795,35000,0,35000,17500,0,0,0.5,0,390,16185
P I F,2428016001,YES! STORES INC,EL CAJON,CA,92021,WELLS FARGO BANK NATL ASSOC,SD,532299,17065,2006,84,5,1,1,6,1,1,Y,N,17197,129783,0,35000,17500,0,0,0.5,0,2520,19717
CHGOFF,1771435005,"THE BENNETT GROUP, INC.",GLENDALE,CA,91208,CITIZENS BANK NATL ASSOC,RI,531210,16909,2006,52,1,2,0,1,0,1,N,N,16982,30000,0,30000,15000,1,0,0.5,0,1560,18542
P I F,9337853003,COMPUTERS TO GO,SUNNYVALE,CA,94086,CITIBANK INTERNATIONAL,CA,532420,13312,1996,84,2,1,0,0,1,0,0,N,13361,30000,0,30000,21000,0,0,0.7,0,2520,15881
P I F,1223795007,THORNTON ENTERPRISES,CHATSWORTH,CA,91311,BANK OF AMERICA NATL ASSOC,NC,531210,16504,2005,84,1,1,0,1,1,1,Y,N,16740,14900,0,10000,5000,0,0,0.5,0,2520,19260
P I F,2376536001,IMPERIAL PALACE AJ INC,PASADENA,CA,91104,SBA - EDF ENFORCEMENT ACTION,CO,531120,17044,2006,240,6,2,8,6,1,1,0,N,17120,1386000,0,1386000,1386000,1,1,1,0,7200,24320
P I F,4157444005,APPLIANCE ENAMELING & SERVICE,UPLAND,CA,91763,SOUTHLAND ECONOMIC DEVEL CORP,CA,531120,14972,2001,240,40,1,20,0,1,1,N,N,15321,635000,0,751000,751000,0,1,1,0,7200,22521
CHGOFF,2660565000,"Su Casa Nueva, Inc.",CORONA,CA,92880,BANK OF AMERICA NATL ASSOC,NC,531210,17402,2007,37,2,1,0,2,0,1,Y,N,17409,62500,0,29000,14500,0,0,0.5,0,1110,18519
CHGOFF,2385105007,California Realty Services,Chula Vista,CA,91910,"BUSINESS LOAN CENTER, LLC",FL,531210,17266,2007,83,2,1,1,2,0,1,N,N,17286,25000,0,25000,21250,0,0,0.85,0,2490,19776
P I F,2527406006,CASTLE VIEW REALTY,SAN JOSE,CA,95125,MORTGAGE CAP. DEVEL CORP,CA,531210,17119,2007,240,7,1,20,0,1,1,0,N,17183,848000,0,848000,848000,0,1,1,0,7200,24383
P I F,2956186010,GREENFIELD REAL ESTATE COMPANI,ALISO VIEJO,CA,92656,SOUTHLAND ECONOMIC DEVEL CORP,CA,531390,17401,2007,240,4,1,5,4,1,1,0,N,17638,268000,0,268000,268000,0,1,1,0,7200,24838
P I F,3085914010,GIANT VIDEO INC,LOS ANGELES,CA,90006,CITIZENS BUSINESS BANK,CA,532230,14452,1999,300,30,1,5,30,1,1,0,N,14487,297000,0,297000,222750,0,1,0.75,0,9000,23487
CHGOFF,2169625005,The Bond Group,San Diego,CA,92104,CALIFORNIA BANK & TRUST,CA,531210,17146,2007,65,1,1,1,1,0,1,Y,N,17166,110000,0,100000,50000,0,0,0.5,0,1950,19116
P I F,5945334002,RAMBOW SEAT & DASH COVER CO.,LOS ANGELES,CA,90007,WILSHIRE BANK,CA,531120,15687,2003,300,15,1,15,0,1,1,0,N,15736,500000,0,500000,375000,0,1,0.75,0,9000,24736
P I F,1866096009,JAMES D. TILLS REAL ESTATE,LA MESA,CA,91941,MUFG UNION BANK NATL ASSOC,CA,531210,16918,2006,54,1,1,0,1,1,1,Y,N,16921,165193,0,50000,25000,0,0,0.5,0,1620,18541
P I F,2369886003,GENTE REAL ESTATE INC,SAN JOSE,CA,95138,MORTGAGE CAP. DEVEL CORP,CA,531210,17042,2006,240,7,1,2,0,1,1,0,N,17239,598000,0,598000,598000,0,1,1,0,7200,24439
CHGOFF,7191454005,"ALL PROFESSIONAL REALTY, INC.",SACRAMENTO,CA,95815,GREATER SACRAMENTO CERT. DEVEL,CA,531210,16119,2004,240,107,1,0,1,1,1,0,N,16294,591000,0,620000,620000,0,1,1,0,7200,23494
P I F,5432674004,BUFFALO BREATH COSTUMES INC,SAN DIEGO,CA,92110,"WACHOVIA SBA LENDING, INC.",CA,532220,15491,2002,120,9,1,0,9,1,1,0,N,15521,595000,0,595000,446250,0,0,0.75,0,3600,19121
P I F,5772763007,O K VIDEO,SAN BERNARDINO,CA,92404,BBCN BANK,CA,532230,12243,1993,132,2,2,0,0,1,0,N,N,12265,125000,0,125000,108212,1,0,0.865696,0,3960,16225
P I F,9387853001,HOME VIDEO,HALF MOON BAY,CA,94019,"CITIBANK, N.A.",CA,532230,13338,1996,96,9,1,0,0,1,0,N,Y,13422,75000,0,75000,60000,0,0,0.8,0,2880,16302
CHGOFF,4358355005,"Jenny Sungwon Nam, an EPC to N",Riverside,CA,92503,OPEN BANK,CA,531210,18575,2011,300,40,1,0,40,0,1,N,N,18575,271800,0,271800,244620,0,1,0.9,0,9000,27575
P I F,5617684003,STANFORD'S VIDEO EXPRESS AND J,MARYSVILLE,CA,95901,SBA - EDF ENFORCEMENT ACTION,CO,532230,15567,2002,240,2,1,1,0,1,1,0,N,15748,153000,0,153000,153000,0,1,1,0,7200,22948
P I F,5305474000,LAWSON & ASSOC'S & MEDSOURCCE,CAMPBELL,CA,95008,BRIDGE BANK NATL ASSOC,CA,531390,15427,2002,300,3,1,0,0,1,1,N,N,15460,550000,0,550000,412500,0,1,0.75,0,9000,24460
CHGOFF,1593525004,Martin Macias dba Richie's Par,WHITTIER,CA,90606,BANK OF AMERICA NATL ASSOC,NC,532299,16793,2006,62,2,1,1,2,0,1,T,N,16832,10500,0,10500,5250,0,0,0.5,0,1860,18692
P I F,9166894005,MOVIE ISLAND,LOS ANGELES,CA,92833,WILSHIRE BANK,CA,532230,16723,2006,60,2,1,0,2,1,1,0,N,16740,80000,0,80000,40000,0,0,0.5,0,1800,18540
P I F,2117265002,JOHN M. GALLOWAY,LIVERMORE,CA,94550,U.S. BANK NATIONAL ASSOCIATION,OH,531190,17114,2007,84,5,1,0,5,0,1,Y,N,17225,264888,0,100000,50000,0,0,0.5,0,2520,19745
CHGOFF,9066294005,OXFORD LAND DEVELOPMENT LLC,PASADENA,CA,91101,U.S. BANK NATIONAL ASSOCIATION,OH,531390,16673,2005,25,1,2,0,1,1,1,Y,N,16709,16792,0,25000,12500,1,0,0.5,0,750,17459
P I F,4332915009,"Feather River Enterprises, LLC",Quincy,CA,95971,UMPQUA BANK,OR,531130,18561,2011,300,1,1,0,1,0,1,N,N,18567,512000,0,512000,460800,0,1,0.9,0,9000,27567
CHGOFF,6247554006,RICK'S EQUIPMENT AND JR'S RENT,APPLE VALLEY,CA,92307,DESERT COMMUN BANK A DIVISION,CA,532490,15810,2003,51,15,1,1,15,1,1,0,N,15825,123000,0,123000,61500,0,0,0.5,0,1530,17355
P I F,8810914006,REMAX GOLD COAST,VENTURA (CORPORATE NAME SAN BU,CA,93003,CALIFORNIA COASTAL CERT. DEVEL,CA,531210,16548,2005,240,327,1,20,327,68060,1,0,N,16812,1027000,0,1027000,1027000,0,1,1,0,7200,24012
P I F,7444134002,CAMERA SUPPORT,BURBANK,CA,91504,CALIFORNIA BANK & TRUST,CA,532490,16208,2004,300,14,1,0,14,1,1,0,N,16222,800000,0,810000,607500,0,1,0.75,0,9000,25222
P I F,3950084005,"J.B. PROMOTIONS, INC.",CANOGA ANNEX,CA,91304,GE CAP. SMALL BUS. FINAN CORP,TX,532230,14868,2000,300,5,1,2,7,1,1,0,N,14883,594000,0,594000,445500,0,1,0.75,0,9000,23883
CHGOFF,7223384003,REAL FINANCIAL,POWAY,CA,92064,SBA - EDF ENFORCEMENT ACTION,CO,531210,16131,2004,240,6,1,2,6,1,1,0,N,16203,517000,0,517000,517000,0,1,1,0,7200,23403
P I F,8426504007,HELP-U-SELL DISTINCTIVE HOMES,SAN DIEGO,CA,92120,MUFG UNION BANK NATL ASSOC,CA,531210,16443,2005,84,4,1,0,0,37481,1,Y,N,16617,20000,0,20000,10000,0,0,0.5,0,2520,19137
CHGOFF,4956744008,S & W TRANSPORTATION,SIMI (SIMI VALLEY),CA,93063,WELLS FARGO BANK NATL ASSOC,CA,532490,15246,2001,116,2,2,1,3,1,1,0,N,15279,152500,0,152500,114375,1,0,0.75,0,3480,18759
CHGOFF,5770824004,HODGES MANAGEMENT ENTERPRISE I,OCEANSIDE,CA,92056,BANK OF AMERICA NATL ASSOC,NC,531311,15623,2003,42,2,1,5,2,1,1,T,N,15674,10000,0,10000,5000,0,0,0.5,0,1260,16934
P I F,7228074003,SMI SOUND,SANTA BARBARA,CA,93101,MUFG UNION BANK NATL ASSOC,CA,532490,16132,2004,60,1,1,1,1,1,1,0,N,16161,25000,0,25000,12500,0,0,0.5,1,1800,17961
P I F,2598726005,"MASOUD RIAZATI, INC.",SAN DIEGO,CA,92117,CDC SMALL BUS. FINAN CORP,CA,531210,17157,2007,240,5,1,3,0,1,1,0,N,17267,409000,0,409000,409000,0,1,1,0,7200,24467
P I F,5093914009,"CAL TABLES, INC.",DOWNEY,CA,90241,BANC OF CALIFORNIA NATL ASSOC,CA,532420,15319,2002,120,4,1,0,0,1,1,N,N,15340,283000,0,283000,212250,0,0,0.75,0,3600,18940
CHGOFF,1207735000,Steven Trombly Excavation Equi,CASTRO VALLEY,CA,94546,BANK OF AMERICA NATL ASSOC,NC,532412,16491,2005,18,1,1,0,1,1,1,Y,N,16617,13107,0,10000,5000,0,0,0.5,0,540,17157
P I F,2860086010,SIMPLE LIFE INC,ANAHEIM,CA,92804,MUFG UNION BANK NATL ASSOC,CA,531210,17337,2007,36,3,1,0,0,1,1,0,N,17347,25000,0,25000,12500,0,0,0.5,0,1080,18427
CHGOFF,1596715008,Sameer Hussain dba Sameer Huss,SANTA ANA,CA,92701,BANK OF AMERICA NATL ASSOC,NC,531210,16798,2006,43,2,1,1,2,0,1,N,N,16832,79000,0,50000,25000,0,0,0.5,0,1290,18122
P I F,6305974002,BLACK TIE INVESTMENT,LAGUNA NIGUEL,CA,92677,BANK OF AMERICA NATL ASSOC,NC,531210,15834,2003,84,2,2,0,2,1,1,Y,N,15886,5000,0,5000,2500,1,0,0.5,0,2520,18406
CHGOFF,2627945005,T & T REAL ESTATE CORPORATION,Gilroy,CA,95020,MUFG UNION BANK NATL ASSOC,CA,531210,17387,2007,74,2,2,2,4,0,1,Y,N,17470,39000,0,39000,19500,1,0,0.5,0,2220,19690
CHGOFF,1512635001,WAYNE R. GOLDMAN DBA US HOMES,NEWPORT BEACH,CA,92660,CAPITAL ONE NATL ASSOC,VA,531311,16734,2006,44,1,1,6,1,0,1,N,N,16770,100000,0,100000,50000,0,0,0.5,0,1320,18090
P I F,4071123006,VIDEO $ DAY,FALLBROOK,CA,92028,PACIFIC WESTERN BANK,CA,532230,11078,1990,84,2,2,0,0,1,0,N,N,11169,35000,0,35000,31500,1,0,0.9,0,2520,13689
P I F,1517425007,"Calfiornia Airways, Inc",Hayward,CA,94541,CALIFORNIA BANK & TRUST,CA,532411,16736,2006,84,2,1,0,2,0,1,Y,N,16770,60399,0,25000,12500,0,0,0.5,0,2520,19290
P I F,2810446002,LIVE OAK FINANCIAL,POMONA,CA,91768,MORTGAGE CAP. DEVEL CORP,CA,531390,17309,2007,240,4,2,2,0,1,1,0,N,17421,425000,0,425000,425000,1,1,1,0,7200,24621
P I F,9288074004,WOODBRIDGE REALTY,IRVINE,CA,92618,AMERICAN CONTINENTAL BANK,CA,531210,16757,2006,300,1,2,0,0,1,1,N,N,16801,308500,0,511700,383775,1,1,0.75,0,9000,25801
P I F,2540414000,ESCALON STORE,LOS ANGELES,CA,90044,BANCO POPULAR NORTH AMERICA,CA,532230,14213,1999,300,7,2,0,0,1,0,N,N,14303,124000,0,124000,93000,1,1,0.75,0,9000,23303
P I F,9202124006,IVAN J. FREYRE REAL ESTATE AGE,RANCHO CUCAMONGA,CA,91730,SBA - EDF ENFORCEMENT ACTION,CO,531210,16735,2006,240,11,1,11,11,1,1,0,N,17057,441000,0,441000,441000,0,1,1,0,7200,24257
CHGOFF,1625605010,"R E C S, Inc.",HUNTINGTON BEACH,CA,92648,BANK OF AMERICA NATL ASSOC,NC,531210,16824,2006,53,3,1,0,3,0,1,Y,N,16832,31850,0,25000,12500,0,0,0.5,0,1590,18422
CHGOFF,2701855001,"HORIZON CRANE SERVICE, LLC",VISTA,CA,92084,U.S. BANK NATIONAL ASSOCIATION,OH,532412,17423,2007,31,3,1,0,3,0,1,Y,N,17591,78191,0,45000,22500,0,0,0.5,0,930,18521
CHGOFF,7459074000,VACATION PROPERTY MANAGEMENT,TRUCKEE,CA,96161,WELLS FARGO BANK NATL ASSOC,SD,531312,16212,2004,1,10,1,1,11,1,1,Y,N,16344,226612,0,85000,42500,0,0,0.5,0,30,16374
P I F,5130244009,MICRO CONNECTION,SANTA FE SPRINGS,CA,90670,WELLS FARGO BANK NATL ASSOC,SD,532220,15337,2002,300,10,1,0,0,1,1,N,N,15371,760500,0,760500,570375,0,1,0.75,0,9000,24371
CHGOFF,1127975002,ABC Enterprises of Southern Ca,ADELANTO,CA,92301,BANK OF AMERICA NATL ASSOC,NC,531390,16418,2005,56,3,1,0,0,1,1,Y,N,16467,25009,0,25000,12500,0,0,0.5,0,1680,18147
P I F,2768526008,MAYA DEVELOPMENT INC,OAKLAND,CA,94610,JPMORGAN CHASE BANK NATL ASSOC,IL,531311,17280,2007,84,32,1,0,32,1,1,Y,N,17286,89026,0,50000,25000,0,0,0.5,0,2520,19806
P I F,7454344010,DARA MANAGEMENT INC,PLEASANT HILL (PLEASANT HILLS),CA,94523,WELLS FARGO BANK NATL ASSOC,CA,531210,16211,2004,300,2,1,4,2,1,1,0,N,16252,902000,0,902000,676500,0,1,0.75,0,9000,25252
CHGOFF,1686755002,"Platinum Land Company, Inc. db",MOORPARK,CA,93021,BANK OF AMERICA NATL ASSOC,NC,531210,16861,2006,42,13,1,1,13,0,1,N,N,16891,64500,0,45000,22500,0,0,0.5,0,1260,18151
P I F,2895986009,AZTEC RENTAL & UHAUL,SPRING VALLEY,CA,91978,MUFG UNION BANK NATL ASSOC,CA,532120,17360,2007,48,1,2,0,1,1,1,0,N,17378,30000,0,30000,15000,1,0,0.5,0,1440,18818
P I F,7143384003,FRANNET OF SAN DIEGO,CARLSBAD,CA,92009,PACIFIC WESTERN BANK,CA,533110,16100,2004,71,2,1,0,2,1,1,Y,N,16130,128889,0,50100,25050,0,0,0.5,0,2130,18260
CHGOFF,8168453005,"HALE VIDEO ENTERPRISES, INC.",ANDERSON,CA,96007,REDDING BANK OF COMMERCE,CA,532230,12855,1995,300,9,1,0,0,1,0,,N,13087,495000,0,495000,371250,0,1,0.75,0,9000,22087
CHGOFF,1968385007,Advantage Valuation Inc.,SAN DIEGO,CA,92109,U.S. BANK NATIONAL ASSOCIATION,OH,531320,17027,2006,61,15,1,0,15,0,1,Y,N,17074,162394,0,100000,50000,0,0,0.5,0,1830,18904
CHGOFF,1115215000,"First Step Funding, Inc. dba F",Orange,CA,92868,CAPITAL ONE NATL ASSOC,VA,531210,16405,2005,33,12,1,0,0,1,1,N,N,16436,50000,0,50000,25000,0,0,0.5,0,990,17426
CHGOFF,6914274010,PRUDENTIAL CALIFORNIA REALTY,SAN MATEO,CA,94403,"CAPITAL ACCESS GROUP, INC.",CA,531210,16022,2004,240,244,1,63,244,67219,1,N,N,16112,907000,0,907000,907000,0,1,1,0,7200,23312
CHGOFF,3162145005,"Eski Enterprises, Llc",NORTH HOLLYWOOD,CA,91602,BBCN BANK,CA,532420,17734,2008,55,2,1,1,2,0,1,N,N,17775,5000,0,5000,4250,0,0,0.85,0,1650,19425
P I F,1512516007,HELPING HANDS MEDICAL SUPPLIES,THOUSAND OAKS,CA,91362,JPMORGAN CHASE BANK NATL ASSOC,IL,532291,16888,2006,84,5,1,2,5,1,2,Y,N,16921,83768,0,30000,15000,0,0,0.5,0,2520,19441
P I F,4573673007,PERRY'S VIDEO,HILMAR,CA,95324,FARMERS & MERCHANTS BK OF CENT,CA,532230,11584,1991,72,2,1,0,0,1,0,N,N,11626,64700,0,64700,58230,0,0,0.9,0,2160,13786
CHGOFF,1159915000,Westec Mortgage Inc.,RANCHO CUCAMONGA,CA,91730,BANK OF AMERICA NATL ASSOC,NC,531390,16450,2005,49,3,1,2,3,1,1,T,N,16587,69500,0,50000,25000,0,0,0.5,1,1470,18057
P I F,2250565008,ALLEN LEWIS BEST DBA ALLEN BES,MONTEREY,CA,93940,CAPITAL ONE NATL ASSOC,VA,531320,17197,2007,84,1,1,0,1,0,1,N,N,17256,50000,0,50000,25000,0,0,0.5,0,2520,19776
P I F,7517764005,BANKERS HILL PROPERTIES,SAN DIEGO,CA,92103,CALIFORNIA BANK & TRUST,CA,531210,16236,2004,84,14,1,4,14,1,1,Y,N,16252,100000,0,100000,50000,0,0,0.5,0,2520,18772
P I F,8858854000,JESSICA MARIE CORP,PACIFIC PALISADES,CA,90272,U.S. BANK NATIONAL ASSOCIATION,OH,531210,16569,2005,84,1,1,0,1,1,1,Y,N,16587,100706,0,10000,5000,0,0,0.5,0,2520,19107
P I F,7699594002,INFUSION COMPLETE,SAN CLEMENTE,CA,92673,CALIFORNIA BANK & TRUST,CA,532210,16299,2004,84,2,1,5,7,1,1,Y,N,16314,164502,0,98000,49000,0,0,0.5,0,2520,18834
CHGOFF,3347065001,A NEW BEGINNING INVESTMENTS IN,SANTA PAULA,CA,93060,"SUPERIOR FINANCIAL GROUP, LLC",CA,531390,17976,2009,99,2,2,0,2,0,1,N,S,17987,10000,0,10000,9000,1,0,0.9,0,2970,20957
CHGOFF,3050705002,Vincent Uy,WALNUT,CA,91789,BBCN BANK,CA,532230,17638,2008,25,1,2,0,1,0,1,N,N,17652,20000,0,20000,17000,1,0,0.85,0,750,18402
CHGOFF,6234724010,MICHAELS REAL ESTATE,TEMECULA,CA,92591,CALIFORNIA BANK & TRUST,CA,531210,15804,2003,19,3,1,1,3,1,1,Y,N,15856,56355,0,56000,28000,0,0,0.5,0,570,16426
P I F,2498516004,VIDEO CLUB 2,COVINA,CA,91722,UNITI BANK,CA,532230,17101,2007,60,5,1,0,5,1,1,0,N,17135,80000,0,80000,40000,0,0,0.5,0,1800,18935
P I F,2916905000,"LocalTech, Inc.",SAN FRANCISCO,CA,94124,CALIFORNIA BANK & TRUST,CA,532490,17554,2008,60,2,1,0,2,0,1,Y,N,17562,36034,0,22000,11000,0,0,0.5,0,1800,19362
CHGOFF,2968835005,W.J.B. ENTERPRISES INC.,SHERMAN OAKS,CA,91423,CAPITAL ONE NATL ASSOC,VA,531210,17587,2008,63,2,1,0,2,0,1,Y,N,17652,125537,0,50000,25000,0,0,0.5,0,1890,19542
P I F,2998154007,HELEN YUNKER REALTY BROKERS &,VENTURA,CA,93001,U.S. BANK NATIONAL ASSOCIATION,CA,531210,14404,1999,300,10,1,0,0,1,1,N,N,14425,180000,0,180000,135000,0,1,0.75,0,9000,23425
CHGOFF,4046455001,V & J SALES CORP,SAN JOSE,CA,95134,"SUPERIOR FINANCIAL GROUP, LLC",CA,532299,18375,2010,99,3,1,4,3,0,1,N,N,18375,10000,0,10000,9000,0,0,0.9,0,2970,21345
CHGOFF,6508004004,BACK 2 ONE STUDIO RENTALS LLC,STUDIO CITY,CA,91602,BANK OF AMERICA NATL ASSOC,NC,532412,15904,2003,84,3,2,0,3,1,1,Y,N,16101,10000,0,10000,5000,1,0,0.5,0,2520,18621
P I F,5764973000,VIDEO PLUS,SOMERSET,CA,95684,UMPQUA BANK,CA,532230,12242,1993,120,1,1,0,0,1,0,N,N,12265,50000,0,50000,45000,0,0,0.9,0,3600,15865
P I F,1033135007,Mitchell J Kemp dba Pacific Co,SAN FRANCISCO,CA,94103,BANK OF AMERICA NATL ASSOC,NC,531312,16286,2004,84,1,1,0,0,1,1,Y,N,16314,17536,0,14000,7000,0,0,0.5,0,2520,18834
CHGOFF,4064364006,RIGHT HOME,GLENDALE,CA,91203,COMERICA BANK,TX,531210,14928,2001,87,10,1,2,10,1,1,0,N,14975,100000,0,100000,80000,0,0,0.8,1,2610,17585
CHGOFF,1960095009,Inspector Catch It Home Inspec,LANCASTER,CA,93535,BANK OF AMERICA NATL ASSOC,NC,531320,17021,2006,56,1,1,0,1,0,1,N,N,17044,10000,0,10000,5000,0,0,0.5,0,1680,18724
P I F,2362456000,ATLAS DIGITAL,LOS ANGELES,CA,90068,CDC SMALL BUS. FINAN CORP,CA,532210,17038,2006,240,5,1,5,0,1,1,0,N,17148,371000,0,371000,371000,0,1,1,0,7200,24348
CHGOFF,2902605003,Corona Hankook Video,CORONA,CA,92879,BBCN BANK,CA,532230,17542,2008,70,0,1,0,0,0,1,N,N,17562,25000,0,25000,21250,0,0,0.85,0,2100,19662
CHGOFF,2028605006,HOMES BY KITTY LYNN PIMENTEL,STOCKTON,CA,95204,BBCN BANK,CA,531210,17064,2006,65,1,1,0,1,0,1,N,N,17074,15000,0,15000,12750,0,0,0.85,0,1950,19024
P I F,8822424009,PARK PLACE GMAC REAL ESTATE,MURRIETA,CA,92562,CDC SMALL BUS. FINAN CORP,CA,531210,16554,2005,240,10,1,10,0,33747,1,0,N,16693,931000,0,931000,931000,0,1,1,0,7200,23893
P I F,7251554003,FIRST AMERICAN REALTY & FINANC,COVINA,CA,91724,AURORA BANK FSB,CO,531210,16140,2004,300,3,1,0,3,1,1,0,N,16161,750000,0,750000,562500,0,1,0.75,0,9000,25161
P I F,4597724010,LIGHTHOUSE APPRAISAL INC,SAN DIMAS,CA,91773,FIRST BANK,CA,531320,15148,2001,300,10,1,6,16,1,1,0,N,15218,74300,0,74300,63155,0,1,0.85,0,9000,24218
P I F,2189585003,"S & S Transport and Logistics,",LOS ANGELES,CA,90040,BANK OF AMERICA NATL ASSOC,NC,531130,17156,2007,84,4,2,0,4,0,1,Y,N,17166,22500,0,15000,7500,1,0,0.5,0,2520,19686
P I F,2315635007,JV LEPIRE CORPORATION DBA ON-S,MIRA LOMA,CA,92891,COMMUNITY BANK,CA,532412,17231,2007,120,2,2,1,2,0,1,N,N,17256,300000,0,300000,225000,1,0,0.75,0,3600,20856
P I F,1917645002,Charles & Michaela Gibbs dba F,PORTERVILLE,CA,93257,BANK OF THE SIERRA,CA,532299,16994,2006,84,2,2,2,2,0,2,N,N,17044,12500,0,12500,10625,1,0,0.85,0,2520,19564
P I F,3021666000,T&R AND ASSOCIATES INC,VENTURA (CORPORATE NAME SAN BU,CA,93004,"CITIBANK, N.A.",SD,531390,17450,2008,84,1,1,0,1,1,1,Y,N,17470,148180,0,50000,25000,0,0,0.5,0,2520,19990
CHGOFF,2205016004,Kaimana Inc,SAN MARCOS,CA,92069,ONEWEST BANK NATL ASSOC,CA,531210,16987,2006,27,100,1,0,100,1,1,0,N,17013,610000,0,610000,457500,0,0,0.75,1,810,17823
CHGOFF,3389905002,Valley Center Corporation,VALLEY CENTER,CA,92082,CALIFORNIA BANK & TRUST,CA,532411,18009,2009,84,5,1,0,5,0,2,N,N,18109,50000,0,50000,25000,0,0,0.5,0,2520,20629
P I F,7536844000,S SQUARED LLC,NEWPORT BEACH,CA,92660,FIRST-CITIZENS BK & TR CO,NC,531120,16240,2004,120,39,1,0,39,1,1,0,N,16252,269200,0,269200,201900,0,0,0.75,0,3600,19852
CHGOFF,6417404000,REAL PROPERTY MANAGEMENT,CASTRO VALLEY,CA,94546,CAPITAL ONE NATL ASSOC,VA,531210,15873,2003,54,1,1,5,1,1,1,0,N,15948,25000,0,25000,12500,0,0,0.5,1,1620,17568
CHGOFF,2507855008,Guacin Investments Inc.,CERRITOS,CA,90703,BANK OF AMERICA NATL ASSOC,NC,531210,17328,2007,70,9,1,1,9,0,1,Y,N,17347,65000,0,40000,20000,0,0,0.5,0,2100,19447
P I F,4910065006,Elite Cooling,HUNTINGTON BEACH,CA,92647,JPMORGAN CHASE BANK NATL ASSOC,IL,532210,18911,2012,84,1,1,0,0,0,1,Y,N,NA,14915,0,10000,5000,0,0,0.5,0,2520,NA
P I F,5049954002,"FRONTIER MEDICAL, INC.",FULLERTON,CA,92833,SOUTHLAND ECONOMIC DEVEL CORP,CA,532291,15295,2002,240,57,1,15,0,1,1,N,N,15811,857000,0,935000,935000,0,1,1,0,7200,23011
P I F,8524464001,CINEMA HEAVEN,LOS ANGELES,CA,90004,HANMI BANK,CA,532230,16461,2005,36,2,1,2,2,1,1,0,N,16467,50000,0,50000,25000,0,0,0.5,1,1080,17547
P I F,7462834004,YOUNG KIHL CHUNG,PASADENA,CA,91104,WILSHIRE BANK,CA,532230,16215,2004,60,3,1,0,3,1,1,Y,N,16252,80000,0,80000,40000,0,0,0.5,1,1800,18052
CHGOFF,7953944007,AA PRIOR CORP,ONTARIO,CA,91762,CAPITAL ONE NATL ASSOC,VA,532230,16362,2005,84,7,1,2,7,1,1,0,N,16405,50000,0,50000,25000,0,0,0.5,0,2520,18925
CHGOFF,4878953009,EAST CLIFF VIDEO & VIDEO 9,BOULDER CREEK,CA,95006,WELLS FARGO BANK NATL ASSOC,SD,532230,11849,1992,228,10,2,0,0,1,0,N,N,11900,170000,0,170000,136000,1,0,0.8,0,6840,18740
P I F,6301644000,DELTA 69 CO,LA PUENTE,CA,91744,BANK OF AMERICA NATL ASSOC,NC,531210,15832,2003,84,2,1,0,2,1,1,Y,N,15886,50000,0,50000,25000,0,0,0.5,0,2520,18406
P I F,2235195006,BROKERAGE SERVICES,SAN RAFAEL,CA,94903,U.S. BANK NATIONAL ASSOCIATION,OH,531210,17189,2007,84,2,1,0,2,0,1,Y,N,17256,96367,0,30000,15000,0,0,0.5,0,2520,19776
P I F,2080316006,SILICON VALLEY LOFTS & CONDOS,SAN JOSE,CA,95132,HERITAGE BANK OF COMMERCE,CA,531210,16946,2006,120,2,2,2,2,1,1,0,N,17013,105000,0,105000,89250,1,0,0.85,0,3600,20613
P I F,3926594005,BRUCE M & MICHELLE C KAHL JOSE,LAGUNA BEACH,CA,92651,WELLS FARGO BANK NATL ASSOC,CA,531190,14854,2000,300,4,1,0,4,1,1,0,N,14883,126000,0,126000,94500,0,1,0.75,0,9000,23883
